<?xml version="1.0" encoding="UTF-8"?>
<gpx version="1.1" creator="MCA Maps — Managalas clan boundary survey"
     xmlns="http://www.topografix.com/GPX/1/1"
     xmlns:xsi="http://www.w3.org/2001/XMLSchema-instance"
     xsi:schemaLocation="http://www.topografix.com/GPX/1/1 http://www.topografix.com/GPX/1/1/gpx.xsd">
  <metadata>
    <name>Asingi — clan land boundary</name>
    <desc>Asingi, Zone 2. 6.4 km walked; the boundary closes</desc>
    <time>2026-08-23T00:00:00Z</time>
  </metadata>
  <trk>
    <name>Asingi - Jethro Akse</name>
    <desc>Walked by Jethro Akse. 6.4 km, 5 track(s), recorded on the ground. Asingi, Zone 2.</desc>
    <type>walked-boundary</type>
    <trkseg>
      <trkpt lat="-9.1145250" lon="148.2715433"/>
      <trkpt lat="-9.1146268" lon="148.2716606"/>
      <trkpt lat="-9.1146416" lon="148.2717118"/>
      <trkpt lat="-9.1146400" lon="148.2717504"/>
      <trkpt lat="-9.1145942" lon="148.2718289"/>
      <trkpt lat="-9.1146327" lon="148.2719765"/>
      <trkpt lat="-9.1146986" lon="148.2721246"/>
      <trkpt lat="-9.1148252" lon="148.2722367"/>
      <trkpt lat="-9.1149652" lon="148.2723345"/>
      <trkpt lat="-9.1151190" lon="148.2724096"/>
      <trkpt lat="-9.1152621" lon="148.2725047"/>
      <trkpt lat="-9.1154026" lon="148.2726047"/>
      <trkpt lat="-9.1155454" lon="148.2726747"/>
      <trkpt lat="-9.1156448" lon="148.2727626"/>
      <trkpt lat="-9.1157035" lon="148.2728021"/>
      <trkpt lat="-9.1157468" lon="148.2728848"/>
      <trkpt lat="-9.1158349" lon="148.2728769"/>
      <trkpt lat="-9.1159812" lon="148.2728726"/>
      <trkpt lat="-9.1161189" lon="148.2728829"/>
      <trkpt lat="-9.1162246" lon="148.2729818"/>
      <trkpt lat="-9.1163082" lon="148.2731273"/>
      <trkpt lat="-9.1164149" lon="148.2732473"/>
      <trkpt lat="-9.1165554" lon="148.2733479"/>
      <trkpt lat="-9.1166928" lon="148.2734487"/>
      <trkpt lat="-9.1168243" lon="148.2735544"/>
      <trkpt lat="-9.1169675" lon="148.2736328"/>
      <trkpt lat="-9.1171385" lon="148.2736713"/>
      <trkpt lat="-9.1173178" lon="148.2736906"/>
      <trkpt lat="-9.1174979" lon="148.2737024"/>
      <trkpt lat="-9.1176780" lon="148.2737059"/>
      <trkpt lat="-9.1178582" lon="148.2737070"/>
      <trkpt lat="-9.1180385" lon="148.2737056"/>
      <trkpt lat="-9.1182183" lon="148.2736983"/>
      <trkpt lat="-9.1183982" lon="148.2736873"/>
      <trkpt lat="-9.1185763" lon="148.2736871"/>
      <trkpt lat="-9.1187534" lon="148.2737100"/>
      <trkpt lat="-9.1189302" lon="148.2737422"/>
      <trkpt lat="-9.1191069" lon="148.2737776"/>
      <trkpt lat="-9.1192849" lon="148.2738045"/>
      <trkpt lat="-9.1194629" lon="148.2738312"/>
      <trkpt lat="-9.1196427" lon="148.2738432"/>
      <trkpt lat="-9.1198217" lon="148.2738376"/>
      <trkpt lat="-9.1199982" lon="148.2738075"/>
      <trkpt lat="-9.1201720" lon="148.2737598"/>
      <trkpt lat="-9.1203452" lon="148.2737088"/>
      <trkpt lat="-9.1205175" lon="148.2736703"/>
      <trkpt lat="-9.1206637" lon="148.2737022"/>
      <trkpt lat="-9.1207907" lon="148.2737941"/>
      <trkpt lat="-9.1209070" lon="148.2739305"/>
      <trkpt lat="-9.1210399" lon="148.2740519"/>
      <trkpt lat="-9.1211795" lon="148.2741674"/>
      <trkpt lat="-9.1213075" lon="148.2742930"/>
      <trkpt lat="-9.1214162" lon="148.2744352"/>
      <trkpt lat="-9.1214927" lon="148.2745971"/>
      <trkpt lat="-9.1215429" lon="148.2747696"/>
      <trkpt lat="-9.1215721" lon="148.2749489"/>
      <trkpt lat="-9.1215712" lon="148.2751267"/>
      <trkpt lat="-9.1215374" lon="148.2752996"/>
      <trkpt lat="-9.1214780" lon="148.2754695"/>
      <trkpt lat="-9.1214187" lon="148.2756399"/>
      <trkpt lat="-9.1213539" lon="148.2758066"/>
      <trkpt lat="-9.1212664" lon="148.2759607"/>
      <trkpt lat="-9.1211465" lon="148.2760913"/>
      <trkpt lat="-9.1210343" lon="148.2762231"/>
      <trkpt lat="-9.1209384" lon="148.2763654"/>
      <trkpt lat="-9.1208576" lon="148.2765228"/>
      <trkpt lat="-9.1208228" lon="148.2766731"/>
      <trkpt lat="-9.1208163" lon="148.2768030"/>
      <trkpt lat="-9.1208199" lon="148.2769378"/>
      <trkpt lat="-9.1207790" lon="148.2770816"/>
      <trkpt lat="-9.1207037" lon="148.2772422"/>
      <trkpt lat="-9.1206387" lon="148.2774067"/>
      <trkpt lat="-9.1206175" lon="148.2775718"/>
      <trkpt lat="-9.1206399" lon="148.2777425"/>
      <trkpt lat="-9.1206458" lon="148.2779060"/>
      <trkpt lat="-9.1205756" lon="148.2780388"/>
      <trkpt lat="-9.1204401" lon="148.2781443"/>
      <trkpt lat="-9.1202916" lon="148.2782413"/>
      <trkpt lat="-9.1201559" lon="148.2783580"/>
      <trkpt lat="-9.1200442" lon="148.2784972"/>
      <trkpt lat="-9.1199794" lon="148.2786533"/>
      <trkpt lat="-9.1199563" lon="148.2788248"/>
      <trkpt lat="-9.1199396" lon="148.2789847"/>
      <trkpt lat="-9.1198614" lon="148.2791022"/>
      <trkpt lat="-9.1197317" lon="148.2791655"/>
      <trkpt lat="-9.1195733" lon="148.2791933"/>
    </trkseg>
    <trkseg>
      <trkpt lat="-9.1194883" lon="148.2792483"/>
      <trkpt lat="-9.1193567" lon="148.2791330"/>
      <trkpt lat="-9.1192105" lon="148.2790425"/>
      <trkpt lat="-9.1190451" lon="148.2789980"/>
      <trkpt lat="-9.1188711" lon="148.2789750"/>
      <trkpt lat="-9.1186971" lon="148.2789516"/>
      <trkpt lat="-9.1185248" lon="148.2789346"/>
      <trkpt lat="-9.1183531" lon="148.2789341"/>
      <trkpt lat="-9.1181797" lon="148.2789359"/>
      <trkpt lat="-9.1180064" lon="148.2789424"/>
      <trkpt lat="-9.1178313" lon="148.2789469"/>
      <trkpt lat="-9.1176621" lon="148.2789635"/>
      <trkpt lat="-9.1174950" lon="148.2789823"/>
      <trkpt lat="-9.1173275" lon="148.2789964"/>
      <trkpt lat="-9.1171524" lon="148.2790036"/>
      <trkpt lat="-9.1169771" lon="148.2789756"/>
      <trkpt lat="-9.1168038" lon="148.2789407"/>
      <trkpt lat="-9.1166333" lon="148.2789364"/>
      <trkpt lat="-9.1164654" lon="148.2789775"/>
      <trkpt lat="-9.1162988" lon="148.2790425"/>
      <trkpt lat="-9.1161540" lon="148.2790762"/>
      <trkpt lat="-9.1160405" lon="148.2790978"/>
      <trkpt lat="-9.1159613" lon="148.2791526"/>
      <trkpt lat="-9.1158567" lon="148.2792143"/>
      <trkpt lat="-9.1157175" lon="148.2792810"/>
      <trkpt lat="-9.1155481" lon="148.2793241"/>
      <trkpt lat="-9.1153848" lon="148.2794002"/>
      <trkpt lat="-9.1152309" lon="148.2794942"/>
      <trkpt lat="-9.1150858" lon="148.2796001"/>
      <trkpt lat="-9.1149490" lon="148.2797077"/>
      <trkpt lat="-9.1148066" lon="148.2797965"/>
      <trkpt lat="-9.1146549" lon="148.2798717"/>
      <trkpt lat="-9.1144910" lon="148.2799245"/>
      <trkpt lat="-9.1143218" lon="148.2799463"/>
      <trkpt lat="-9.1141461" lon="148.2799310"/>
      <trkpt lat="-9.1139697" lon="148.2798945"/>
      <trkpt lat="-9.1137948" lon="148.2798522"/>
      <trkpt lat="-9.1136202" lon="148.2798076"/>
      <trkpt lat="-9.1134462" lon="148.2797901"/>
      <trkpt lat="-9.1132732" lon="148.2798129"/>
      <trkpt lat="-9.1131042" lon="148.2798712"/>
      <trkpt lat="-9.1129395" lon="148.2799430"/>
      <trkpt lat="-9.1127749" lon="148.2800152"/>
      <trkpt lat="-9.1126063" lon="148.2800661"/>
      <trkpt lat="-9.1124330" lon="148.2800751"/>
      <trkpt lat="-9.1122564" lon="148.2800616"/>
      <trkpt lat="-9.1120804" lon="148.2800349"/>
      <trkpt lat="-9.1119074" lon="148.2800032"/>
      <trkpt lat="-9.1117407" lon="148.2799444"/>
      <trkpt lat="-9.1115796" lon="148.2798681"/>
      <trkpt lat="-9.1114195" lon="148.2797874"/>
      <trkpt lat="-9.1112541" lon="148.2797221"/>
      <trkpt lat="-9.1110841" lon="148.2796666"/>
      <trkpt lat="-9.1109104" lon="148.2796253"/>
      <trkpt lat="-9.1107349" lon="148.2795967"/>
      <trkpt lat="-9.1105593" lon="148.2796015"/>
      <trkpt lat="-9.1103868" lon="148.2796421"/>
      <trkpt lat="-9.1102224" lon="148.2797063"/>
      <trkpt lat="-9.1100730" lon="148.2797951"/>
      <trkpt lat="-9.1099430" lon="148.2799064"/>
      <trkpt lat="-9.1098190" lon="148.2800328"/>
      <trkpt lat="-9.1096918" lon="148.2801582"/>
      <trkpt lat="-9.1095486" lon="148.2802657"/>
      <trkpt lat="-9.1094235" lon="148.2803442"/>
      <trkpt lat="-9.1093245" lon="148.2804402"/>
      <trkpt lat="-9.1092457" lon="148.2805554"/>
      <trkpt lat="-9.1091757" lon="148.2807175"/>
      <trkpt lat="-9.1090854" lon="148.2808611"/>
      <trkpt lat="-9.1089667" lon="148.2809640"/>
      <trkpt lat="-9.1088077" lon="148.2810171"/>
      <trkpt lat="-9.1086287" lon="148.2810253"/>
      <trkpt lat="-9.1084567" lon="148.2809973"/>
      <trkpt lat="-9.1082880" lon="148.2809408"/>
      <trkpt lat="-9.1081205" lon="148.2808866"/>
      <trkpt lat="-9.1079465" lon="148.2808723"/>
      <trkpt lat="-9.1077690" lon="148.2808873"/>
      <trkpt lat="-9.1075901" lon="148.2809134"/>
      <trkpt lat="-9.1074144" lon="148.2809465"/>
      <trkpt lat="-9.1072390" lon="148.2809791"/>
      <trkpt lat="-9.1070641" lon="148.2809960"/>
      <trkpt lat="-9.1068871" lon="148.2809799"/>
      <trkpt lat="-9.1067126" lon="148.2809368"/>
      <trkpt lat="-9.1065419" lon="148.2808814"/>
      <trkpt lat="-9.1063695" lon="148.2808388"/>
      <trkpt lat="-9.1061938" lon="148.2808181"/>
      <trkpt lat="-9.1060143" lon="148.2808096"/>
      <trkpt lat="-9.1058416" lon="148.2807750"/>
      <trkpt lat="-9.1056756" lon="148.2807612"/>
      <trkpt lat="-9.1055345" lon="148.2807194"/>
      <trkpt lat="-9.1054079" lon="148.2806605"/>
      <trkpt lat="-9.1053056" lon="148.2805263"/>
      <trkpt lat="-9.1052036" lon="148.2803793"/>
      <trkpt lat="-9.1051047" lon="148.2802292"/>
      <trkpt lat="-9.1050100" lon="148.2800787"/>
      <trkpt lat="-9.1049334" lon="148.2799198"/>
      <trkpt lat="-9.1048812" lon="148.2797496"/>
      <trkpt lat="-9.1048407" lon="148.2795732"/>
      <trkpt lat="-9.1048246" lon="148.2793957"/>
      <trkpt lat="-9.1048433" lon="148.2792243"/>
      <trkpt lat="-9.1049021" lon="148.2790598"/>
      <trkpt lat="-9.1049557" lon="148.2788951"/>
      <trkpt lat="-9.1049935" lon="148.2787248"/>
      <trkpt lat="-9.1050159" lon="148.2785483"/>
      <trkpt lat="-9.1050393" lon="148.2783724"/>
      <trkpt lat="-9.1050363" lon="148.2781979"/>
      <trkpt lat="-9.1050201" lon="148.2780219"/>
      <trkpt lat="-9.1049918" lon="148.2778446"/>
      <trkpt lat="-9.1049413" lon="148.2777152"/>
      <trkpt lat="-9.1048393" lon="148.2776226"/>
      <trkpt lat="-9.1047146" lon="148.2775382"/>
      <trkpt lat="-9.1046188" lon="148.2774051"/>
      <trkpt lat="-9.1045369" lon="148.2772493"/>
      <trkpt lat="-9.1044566" lon="148.2770922"/>
      <trkpt lat="-9.1043581" lon="148.2769437"/>
      <trkpt lat="-9.1043323" lon="148.2768568"/>
      <trkpt lat="-9.1043079" lon="148.2767811"/>
      <trkpt lat="-9.1043325" lon="148.2767533"/>
      <trkpt lat="-9.1043739" lon="148.2766755"/>
      <trkpt lat="-9.1044363" lon="148.2765795"/>
      <trkpt lat="-9.1044911" lon="148.2764264"/>
      <trkpt lat="-9.1045098" lon="148.2762486"/>
      <trkpt lat="-9.1045429" lon="148.2760709"/>
      <trkpt lat="-9.1045486" lon="148.2759009"/>
      <trkpt lat="-9.1044928" lon="148.2757540"/>
      <trkpt lat="-9.1043938" lon="148.2756201"/>
      <trkpt lat="-9.1042636" lon="148.2755006"/>
      <trkpt lat="-9.1041388" lon="148.2753740"/>
      <trkpt lat="-9.1039965" lon="148.2752694"/>
      <trkpt lat="-9.1038553" lon="148.2751777"/>
      <trkpt lat="-9.1037471" lon="148.2750688"/>
      <trkpt lat="-9.1036667" lon="148.2749317"/>
      <trkpt lat="-9.1036105" lon="148.2747633"/>
      <trkpt lat="-9.1035491" lon="148.2745959"/>
      <trkpt lat="-9.1034954" lon="148.2744241"/>
      <trkpt lat="-9.1034424" lon="148.2742515"/>
      <trkpt lat="-9.1033612" lon="148.2740970"/>
      <trkpt lat="-9.1032642" lon="148.2739513"/>
      <trkpt lat="-9.1031530" lon="148.2738170"/>
      <trkpt lat="-9.1030696" lon="148.2736648"/>
      <trkpt lat="-9.1030004" lon="148.2735051"/>
      <trkpt lat="-9.1029401" lon="148.2733378"/>
      <trkpt lat="-9.1029073" lon="148.2731714"/>
      <trkpt lat="-9.1028899" lon="148.2730044"/>
      <trkpt lat="-9.1028966" lon="148.2728297"/>
      <trkpt lat="-9.1028834" lon="148.2726542"/>
      <trkpt lat="-9.1028452" lon="148.2724822"/>
      <trkpt lat="-9.1027795" lon="148.2723181"/>
      <trkpt lat="-9.1026764" lon="148.2721746"/>
      <trkpt lat="-9.1025436" lon="148.2720679"/>
      <trkpt lat="-9.1023942" lon="148.2719756"/>
      <trkpt lat="-9.1022326" lon="148.2719087"/>
      <trkpt lat="-9.1021217" lon="148.2718770"/>
      <trkpt lat="-9.1020008" lon="148.2718669"/>
      <trkpt lat="-9.1019012" lon="148.2718231"/>
      <trkpt lat="-9.1017797" lon="148.2717086"/>
      <trkpt lat="-9.1016896" lon="148.2715573"/>
      <trkpt lat="-9.1016028" lon="148.2714017"/>
      <trkpt lat="-9.1015173" lon="148.2712449"/>
      <trkpt lat="-9.1014423" lon="148.2710825"/>
      <trkpt lat="-9.1013914" lon="148.2709108"/>
      <trkpt lat="-9.1013525" lon="148.2707339"/>
      <trkpt lat="-9.1013320" lon="148.2705568"/>
      <trkpt lat="-9.1013442" lon="148.2703855"/>
      <trkpt lat="-9.1013760" lon="148.2702130"/>
      <trkpt lat="-9.1014177" lon="148.2700583"/>
      <trkpt lat="-9.1014838" lon="148.2699355"/>
      <trkpt lat="-9.1015963" lon="148.2698555"/>
      <trkpt lat="-9.1017554" lon="148.2698242"/>
      <trkpt lat="-9.1019227" lon="148.2698214"/>
      <trkpt lat="-9.1020933" lon="148.2698621"/>
      <trkpt lat="-9.1022405" lon="148.2698783"/>
      <trkpt lat="-9.1023424" lon="148.2699390"/>
      <trkpt lat="-9.1024369" lon="148.2699701"/>
      <trkpt lat="-9.1025469" lon="148.2700374"/>
      <trkpt lat="-9.1026667" lon="148.2700176"/>
      <trkpt lat="-9.1027664" lon="148.2700168"/>
      <trkpt lat="-9.1028332" lon="148.2699960"/>
      <trkpt lat="-9.1028738" lon="148.2700131"/>
      <trkpt lat="-9.1029149" lon="148.2700046"/>
      <trkpt lat="-9.1029648" lon="148.2699916"/>
      <trkpt lat="-9.1030593" lon="148.2699691"/>
      <trkpt lat="-9.1031621" lon="148.2699258"/>
      <trkpt lat="-9.1032900" lon="148.2699161"/>
      <trkpt lat="-9.1034344" lon="148.2699228"/>
      <trkpt lat="-9.1035879" lon="148.2699942"/>
      <trkpt lat="-9.1037472" lon="148.2700306"/>
      <trkpt lat="-9.1038926" lon="148.2700912"/>
      <trkpt lat="-9.1040479" lon="148.2701227"/>
      <trkpt lat="-9.1041732" lon="148.2702004"/>
      <trkpt lat="-9.1042478" lon="148.2703039"/>
      <trkpt lat="-9.1042728" lon="148.2704451"/>
      <trkpt lat="-9.1042574" lon="148.2706051"/>
      <trkpt lat="-9.1042968" lon="148.2707436"/>
      <trkpt lat="-9.1043845" lon="148.2708173"/>
      <trkpt lat="-9.1045367" lon="148.2708058"/>
      <trkpt lat="-9.1046991" lon="148.2707457"/>
      <trkpt lat="-9.1048650" lon="148.2706875"/>
      <trkpt lat="-9.1050100" lon="148.2706077"/>
      <trkpt lat="-9.1051331" lon="148.2705020"/>
      <trkpt lat="-9.1052394" lon="148.2703949"/>
      <trkpt lat="-9.1053662" lon="148.2703111"/>
      <trkpt lat="-9.1055039" lon="148.2702596"/>
      <trkpt lat="-9.1056496" lon="148.2702668"/>
      <trkpt lat="-9.1057849" lon="148.2703392"/>
      <trkpt lat="-9.1059274" lon="148.2704323"/>
      <trkpt lat="-9.1060184" lon="148.2705405"/>
      <trkpt lat="-9.1061055" lon="148.2706360"/>
      <trkpt lat="-9.1061782" lon="148.2707618"/>
      <trkpt lat="-9.1063007" lon="148.2708711"/>
      <trkpt lat="-9.1064441" lon="148.2709483"/>
      <trkpt lat="-9.1066012" lon="148.2709886"/>
      <trkpt lat="-9.1067335" lon="148.2710485"/>
      <trkpt lat="-9.1068587" lon="148.2711364"/>
      <trkpt lat="-9.1069898" lon="148.2712224"/>
      <trkpt lat="-9.1071517" lon="148.2712690"/>
      <trkpt lat="-9.1073133" lon="148.2713083"/>
    </trkseg>
    <trkseg>
      <trkpt lat="-9.1073300" lon="148.2712967"/>
      <trkpt lat="-9.1074607" lon="148.2712689"/>
      <trkpt lat="-9.1076046" lon="148.2712655"/>
      <trkpt lat="-9.1077642" lon="148.2712761"/>
      <trkpt lat="-9.1079366" lon="148.2712853"/>
      <trkpt lat="-9.1081126" lon="148.2712720"/>
      <trkpt lat="-9.1082846" lon="148.2712304"/>
      <trkpt lat="-9.1084523" lon="148.2711695"/>
      <trkpt lat="-9.1086072" lon="148.2710818"/>
      <trkpt lat="-9.1087644" lon="148.2710009"/>
      <trkpt lat="-9.1089253" lon="148.2709468"/>
      <trkpt lat="-9.1090920" lon="148.2709606"/>
      <trkpt lat="-9.1092444" lon="148.2710362"/>
      <trkpt lat="-9.1093826" lon="148.2711453"/>
      <trkpt lat="-9.1095205" lon="148.2712367"/>
      <trkpt lat="-9.1096695" lon="148.2712944"/>
      <trkpt lat="-9.1098193" lon="148.2713074"/>
      <trkpt lat="-9.1099617" lon="148.2712711"/>
      <trkpt lat="-9.1101031" lon="148.2712240"/>
      <trkpt lat="-9.1102474" lon="148.2711500"/>
      <trkpt lat="-9.1104059" lon="148.2711184"/>
      <trkpt lat="-9.1105539" lon="148.2711333"/>
      <trkpt lat="-9.1106855" lon="148.2712331"/>
      <trkpt lat="-9.1107746" lon="148.2713822"/>
      <trkpt lat="-9.1108414" lon="148.2715414"/>
      <trkpt lat="-9.1109036" lon="148.2717016"/>
      <trkpt lat="-9.1109877" lon="148.2718508"/>
      <trkpt lat="-9.1110910" lon="148.2719919"/>
      <trkpt lat="-9.1111735" lon="148.2721370"/>
      <trkpt lat="-9.1112698" lon="148.2722562"/>
      <trkpt lat="-9.1113738" lon="148.2723425"/>
      <trkpt lat="-9.1115213" lon="148.2723433"/>
      <trkpt lat="-9.1116636" lon="148.2723047"/>
      <trkpt lat="-9.1117662" lon="148.2721948"/>
      <trkpt lat="-9.1118342" lon="148.2720572"/>
      <trkpt lat="-9.1118815" lon="148.2718894"/>
      <trkpt lat="-9.1119794" lon="148.2717839"/>
      <trkpt lat="-9.1121111" lon="148.2717017"/>
      <trkpt lat="-9.1122715" lon="148.2716452"/>
      <trkpt lat="-9.1124243" lon="148.2715580"/>
      <trkpt lat="-9.1125664" lon="148.2714615"/>
      <trkpt lat="-9.1127026" lon="148.2713928"/>
      <trkpt lat="-9.1128463" lon="148.2713595"/>
      <trkpt lat="-9.1130091" lon="148.2713837"/>
      <trkpt lat="-9.1131657" lon="148.2714464"/>
      <trkpt lat="-9.1133146" lon="148.2715267"/>
      <trkpt lat="-9.1134621" lon="148.2715734"/>
      <trkpt lat="-9.1136254" lon="148.2715643"/>
      <trkpt lat="-9.1137953" lon="148.2715107"/>
      <trkpt lat="-9.1139669" lon="148.2714732"/>
      <trkpt lat="-9.1141316" lon="148.2714808"/>
      <trkpt lat="-9.1142993" lon="148.2715210"/>
      <trkpt lat="-9.1144657" lon="148.2715670"/>
      <trkpt lat="-9.1146383" lon="148.2715867"/>
    </trkseg>
    <trkseg>
      <trkpt lat="-9.1167083" lon="148.2734367"/>
      <trkpt lat="-9.1166977" lon="148.2734276"/>
      <trkpt lat="-9.1166644" lon="148.2734320"/>
      <trkpt lat="-9.1166213" lon="148.2734242"/>
      <trkpt lat="-9.1166386" lon="148.2733967"/>
      <trkpt lat="-9.1166017" lon="148.2733959"/>
      <trkpt lat="-9.1165431" lon="148.2734228"/>
      <trkpt lat="-9.1164676" lon="148.2734253"/>
      <trkpt lat="-9.1164333" lon="148.2733767"/>
    </trkseg>
    <trkseg>
      <trkpt lat="-9.1165367" lon="148.2734000"/>
      <trkpt lat="-9.1166415" lon="148.2735056"/>
      <trkpt lat="-9.1166391" lon="148.2735774"/>
      <trkpt lat="-9.1165284" lon="148.2736122"/>
      <trkpt lat="-9.1164161" lon="148.2735677"/>
      <trkpt lat="-9.1163913" lon="148.2734682"/>
      <trkpt lat="-9.1164587" lon="148.2733783"/>
      <trkpt lat="-9.1165221" lon="148.2733567"/>
      <trkpt lat="-9.1165600" lon="148.2734117"/>
    </trkseg>
  </trk>
</gpx>
