<?xml version="1.0" encoding="UTF-8"?>
<gpx version="1.1" creator="MCA Maps — Managalas clan boundary survey"
     xmlns="http://www.topografix.com/GPX/1/1"
     xmlns:xsi="http://www.w3.org/2001/XMLSchema-instance"
     xsi:schemaLocation="http://www.topografix.com/GPX/1/1 http://www.topografix.com/GPX/1/1/gpx.xsd">
  <metadata>
    <name>Asoro — clan land boundary</name>
    <desc>Asoro, Zone 2. 22.8 km walked; 8.0 km still to walk in 2 gaps</desc>
    <time>2026-08-16T00:00:00Z</time>
  </metadata>
  <wpt lat="-9.3079617" lon="148.3599650">
    <name>GAP 1 OF 2 START</name>
    <desc>3.07 km not walked. This straight line is not a boundary — it joins the two ends so the shape can be closed on paper. Asoro, Zone 2.</desc>
    <sym>Flag</sym>
  </wpt>
  <wpt lat="-9.2807133" lon="148.3545850">
    <name>GAP 1 OF 2 END</name>
    <desc>3.07 km not walked. This straight line is not a boundary — it joins the two ends so the shape can be closed on paper. Asoro, Zone 2.</desc>
    <sym>Flag</sym>
  </wpt>
  <wpt lat="-9.2167333" lon="148.3593800">
    <name>GAP 2 OF 2 START</name>
    <desc>4.92 km not walked. This straight line is not a boundary — it joins the two ends so the shape can be closed on paper. Asoro, Zone 2.</desc>
    <sym>Flag</sym>
  </wpt>
  <wpt lat="-9.2204450" lon="148.3147750">
    <name>GAP 2 OF 2 END</name>
    <desc>4.92 km not walked. This straight line is not a boundary — it joins the two ends so the shape can be closed on paper. Asoro, Zone 2.</desc>
    <sym>Flag</sym>
  </wpt>
  <trk>
    <name>GAP 1 OF 2 - NOT WALKED - 3.07 km</name>
    <desc>3.07 km not walked. This straight line is not a boundary — it joins the two ends so the shape can be closed on paper. Asoro, Zone 2.</desc>
    <type>not-walked</type>
    <trkseg>
      <trkpt lat="-9.3079617" lon="148.3599650"/>
      <trkpt lat="-9.2807133" lon="148.3545850"/>
    </trkseg>
  </trk>
  <trk>
    <name>GAP 2 OF 2 - NOT WALKED - 4.92 km</name>
    <desc>4.92 km not walked. This straight line is not a boundary — it joins the two ends so the shape can be closed on paper. Asoro, Zone 2.</desc>
    <type>not-walked</type>
    <trkseg>
      <trkpt lat="-9.2167333" lon="148.3593800"/>
      <trkpt lat="-9.2204450" lon="148.3147750"/>
    </trkseg>
  </trk>
  <trk>
    <name>Asoro - Gilford Amakana</name>
    <desc>Walked by Gilford Amakana. 22.8 km, 10 track(s), recorded on the ground. Asoro, Zone 2.</desc>
    <type>walked-boundary</type>
    <trkseg>
      <trkpt lat="-9.2937967" lon="148.3481100"/>
      <trkpt lat="-9.2937942" lon="148.3480380"/>
      <trkpt lat="-9.2938310" lon="148.3479195"/>
      <trkpt lat="-9.2939074" lon="148.3477545"/>
      <trkpt lat="-9.2939837" lon="148.3475895"/>
      <trkpt lat="-9.2940601" lon="148.3474244"/>
      <trkpt lat="-9.2941364" lon="148.3472594"/>
      <trkpt lat="-9.2942127" lon="148.3470943"/>
      <trkpt lat="-9.2942891" lon="148.3469293"/>
      <trkpt lat="-9.2943648" lon="148.3467640"/>
      <trkpt lat="-9.2944368" lon="148.3465971"/>
      <trkpt lat="-9.2945052" lon="148.3464286"/>
      <trkpt lat="-9.2945707" lon="148.3462589"/>
      <trkpt lat="-9.2946361" lon="148.3460891"/>
      <trkpt lat="-9.2947015" lon="148.3459194"/>
      <trkpt lat="-9.2947669" lon="148.3457497"/>
      <trkpt lat="-9.2948323" lon="148.3455799"/>
      <trkpt lat="-9.2948977" lon="148.3454102"/>
      <trkpt lat="-9.2949631" lon="148.3452405"/>
      <trkpt lat="-9.2950285" lon="148.3450707"/>
      <trkpt lat="-9.2951017" lon="148.3449063"/>
      <trkpt lat="-9.2951971" lon="148.3447571"/>
      <trkpt lat="-9.2953150" lon="148.3446231"/>
      <trkpt lat="-9.2954474" lon="148.3444991"/>
      <trkpt lat="-9.2955799" lon="148.3443752"/>
      <trkpt lat="-9.2957123" lon="148.3442512"/>
      <trkpt lat="-9.2958448" lon="148.3441272"/>
      <trkpt lat="-9.2959798" lon="148.3440071"/>
      <trkpt lat="-9.2961246" lon="148.3439009"/>
      <trkpt lat="-9.2962790" lon="148.3438086"/>
      <trkpt lat="-9.2964403" lon="148.3437264"/>
      <trkpt lat="-9.2966017" lon="148.3436442"/>
      <trkpt lat="-9.2967631" lon="148.3435620"/>
      <trkpt lat="-9.2969244" lon="148.3434798"/>
      <trkpt lat="-9.2970858" lon="148.3433976"/>
      <trkpt lat="-9.2972472" lon="148.3433154"/>
      <trkpt lat="-9.2974086" lon="148.3432332"/>
      <trkpt lat="-9.2975699" lon="148.3431510"/>
      <trkpt lat="-9.2977313" lon="148.3430688"/>
      <trkpt lat="-9.2978291" lon="148.3429746"/>
      <trkpt lat="-9.2978329" lon="148.3428627"/>
      <trkpt lat="-9.2977426" lon="148.3427329"/>
      <trkpt lat="-9.2976218" lon="148.3425974"/>
      <trkpt lat="-9.2975010" lon="148.3424619"/>
      <trkpt lat="-9.2973806" lon="148.3423261"/>
      <trkpt lat="-9.2972610" lon="148.3421896"/>
      <trkpt lat="-9.2971422" lon="148.3420523"/>
      <trkpt lat="-9.2970239" lon="148.3419146"/>
      <trkpt lat="-9.2969055" lon="148.3417769"/>
      <trkpt lat="-9.2967872" lon="148.3416393"/>
      <trkpt lat="-9.2966688" lon="148.3415016"/>
      <trkpt lat="-9.2965505" lon="148.3413639"/>
      <trkpt lat="-9.2964322" lon="148.3412262"/>
      <trkpt lat="-9.2963138" lon="148.3410886"/>
      <trkpt lat="-9.2961955" lon="148.3409509"/>
      <trkpt lat="-9.2960771" lon="148.3408132"/>
      <trkpt lat="-9.2959588" lon="148.3406755"/>
      <trkpt lat="-9.2958404" lon="148.3405379"/>
      <trkpt lat="-9.2957221" lon="148.3404002"/>
      <trkpt lat="-9.2956038" lon="148.3402625"/>
      <trkpt lat="-9.2954854" lon="148.3401249"/>
      <trkpt lat="-9.2953671" lon="148.3399872"/>
      <trkpt lat="-9.2952531" lon="148.3398462"/>
      <trkpt lat="-9.2951455" lon="148.3397004"/>
      <trkpt lat="-9.2950441" lon="148.3395498"/>
      <trkpt lat="-9.2949446" lon="148.3393977"/>
      <trkpt lat="-9.2948451" lon="148.3392457"/>
      <trkpt lat="-9.2947456" lon="148.3390937"/>
      <trkpt lat="-9.2946461" lon="148.3389416"/>
      <trkpt lat="-9.2945466" lon="148.3387896"/>
      <trkpt lat="-9.2944471" lon="148.3386376"/>
      <trkpt lat="-9.2943476" lon="148.3384855"/>
      <trkpt lat="-9.2942481" lon="148.3383335"/>
      <trkpt lat="-9.2941291" lon="148.3382049"/>
      <trkpt lat="-9.2939879" lon="148.3381029"/>
      <trkpt lat="-9.2938245" lon="148.3380276"/>
      <trkpt lat="-9.2936585" lon="148.3379554"/>
      <trkpt lat="-9.2934924" lon="148.3378832"/>
      <trkpt lat="-9.2933264" lon="148.3378110"/>
      <trkpt lat="-9.2931604" lon="148.3377388"/>
      <trkpt lat="-9.2929944" lon="148.3376666"/>
      <trkpt lat="-9.2928283" lon="148.3375944"/>
      <trkpt lat="-9.2926623" lon="148.3375223"/>
      <trkpt lat="-9.2924963" lon="148.3374501"/>
      <trkpt lat="-9.2923303" lon="148.3373779"/>
      <trkpt lat="-9.2921642" lon="148.3373057"/>
      <trkpt lat="-9.2919982" lon="148.3372335"/>
      <trkpt lat="-9.2918322" lon="148.3371613"/>
      <trkpt lat="-9.2916661" lon="148.3370891"/>
      <trkpt lat="-9.2915001" lon="148.3370170"/>
      <trkpt lat="-9.2913341" lon="148.3369448"/>
      <trkpt lat="-9.2911681" lon="148.3368726"/>
      <trkpt lat="-9.2910020" lon="148.3368004"/>
      <trkpt lat="-9.2908360" lon="148.3367282"/>
      <trkpt lat="-9.2906700" lon="148.3366560"/>
      <trkpt lat="-9.2905040" lon="148.3365838"/>
      <trkpt lat="-9.2903379" lon="148.3365117"/>
      <trkpt lat="-9.2901719" lon="148.3364395"/>
      <trkpt lat="-9.2900059" lon="148.3363673"/>
      <trkpt lat="-9.2899015" lon="148.3363226"/>
      <trkpt lat="-9.2898197" lon="148.3362927"/>
      <trkpt lat="-9.2897746" lon="148.3362292"/>
      <trkpt lat="-9.2897048" lon="148.3361044"/>
      <trkpt lat="-9.2896433" lon="148.3359354"/>
      <trkpt lat="-9.2895526" lon="148.3357869"/>
      <trkpt lat="-9.2894329" lon="148.3356590"/>
      <trkpt lat="-9.2892899" lon="148.3355475"/>
      <trkpt lat="-9.2891469" lon="148.3354360"/>
      <trkpt lat="-9.2890040" lon="148.3353245"/>
      <trkpt lat="-9.2888610" lon="148.3352130"/>
      <trkpt lat="-9.2887180" lon="148.3351015"/>
      <trkpt lat="-9.2885751" lon="148.3349900"/>
      <trkpt lat="-9.2884321" lon="148.3348785"/>
      <trkpt lat="-9.2882892" lon="148.3347670"/>
      <trkpt lat="-9.2881462" lon="148.3346555"/>
      <trkpt lat="-9.2880032" lon="148.3345440"/>
      <trkpt lat="-9.2878603" lon="148.3344325"/>
      <trkpt lat="-9.2877173" lon="148.3343210"/>
      <trkpt lat="-9.2875743" lon="148.3342095"/>
      <trkpt lat="-9.2874285" lon="148.3341108"/>
      <trkpt lat="-9.2872892" lon="148.3340786"/>
      <trkpt lat="-9.2871859" lon="148.3340664"/>
      <trkpt lat="-9.2871238" lon="148.3340551"/>
      <trkpt lat="-9.2870431" lon="148.3340220"/>
      <trkpt lat="-9.2869141" lon="148.3340135"/>
      <trkpt lat="-9.2867347" lon="148.3340362"/>
      <trkpt lat="-9.2865713" lon="148.3340799"/>
      <trkpt lat="-9.2864339" lon="148.3341648"/>
      <trkpt lat="-9.2863065" lon="148.3342563"/>
      <trkpt lat="-9.2862002" lon="148.3343737"/>
      <trkpt lat="-9.2860929" lon="148.3344316"/>
      <trkpt lat="-9.2859940" lon="148.3344314"/>
      <trkpt lat="-9.2858764" lon="148.3343325"/>
      <trkpt lat="-9.2857523" lon="148.3342001"/>
      <trkpt lat="-9.2856282" lon="148.3340676"/>
      <trkpt lat="-9.2855041" lon="148.3339352"/>
      <trkpt lat="-9.2853800" lon="148.3338028"/>
      <trkpt lat="-9.2852559" lon="148.3336703"/>
      <trkpt lat="-9.2851319" lon="148.3335379"/>
      <trkpt lat="-9.2850078" lon="148.3334055"/>
      <trkpt lat="-9.2848837" lon="148.3332730"/>
      <trkpt lat="-9.2847596" lon="148.3331406"/>
      <trkpt lat="-9.2846355" lon="148.3330082"/>
      <trkpt lat="-9.2845114" lon="148.3328757"/>
      <trkpt lat="-9.2843839" lon="148.3327472"/>
      <trkpt lat="-9.2842493" lon="148.3326266"/>
      <trkpt lat="-9.2841076" lon="148.3325141"/>
      <trkpt lat="-9.2839622" lon="148.3324058"/>
      <trkpt lat="-9.2838169" lon="148.3322974"/>
      <trkpt lat="-9.2836716" lon="148.3321891"/>
      <trkpt lat="-9.2835263" lon="148.3320807"/>
      <trkpt lat="-9.2833809" lon="148.3319723"/>
      <trkpt lat="-9.2832356" lon="148.3318640"/>
      <trkpt lat="-9.2830903" lon="148.3317556"/>
      <trkpt lat="-9.2829412" lon="148.3316616"/>
      <trkpt lat="-9.2827897" lon="148.3316362"/>
      <trkpt lat="-9.2826462" lon="148.3316899"/>
      <trkpt lat="-9.2825224" lon="148.3317833"/>
      <trkpt lat="-9.2824148" lon="148.3317943"/>
      <trkpt lat="-9.2823130" lon="148.3317129"/>
      <trkpt lat="-9.2822091" lon="148.3315638"/>
      <trkpt lat="-9.2821052" lon="148.3314148"/>
      <trkpt lat="-9.2820013" lon="148.3312658"/>
      <trkpt lat="-9.2818974" lon="148.3311168"/>
      <trkpt lat="-9.2817935" lon="148.3309678"/>
      <trkpt lat="-9.2816896" lon="148.3308188"/>
      <trkpt lat="-9.2815857" lon="148.3306698"/>
      <trkpt lat="-9.2814818" lon="148.3305208"/>
      <trkpt lat="-9.2813779" lon="148.3303718"/>
      <trkpt lat="-9.2812740" lon="148.3302228"/>
      <trkpt lat="-9.2811700" lon="148.3300738"/>
      <trkpt lat="-9.2810661" lon="148.3299248"/>
      <trkpt lat="-9.2809622" lon="148.3297758"/>
      <trkpt lat="-9.2808583" lon="148.3296268"/>
      <trkpt lat="-9.2807544" lon="148.3294778"/>
      <trkpt lat="-9.2806505" lon="148.3293288"/>
      <trkpt lat="-9.2805466" lon="148.3291798"/>
      <trkpt lat="-9.2804427" lon="148.3290307"/>
      <trkpt lat="-9.2803388" lon="148.3288817"/>
      <trkpt lat="-9.2802349" lon="148.3287327"/>
      <trkpt lat="-9.2801310" lon="148.3285837"/>
      <trkpt lat="-9.2800270" lon="148.3284347"/>
      <trkpt lat="-9.2799231" lon="148.3282857"/>
      <trkpt lat="-9.2798192" lon="148.3281367"/>
      <trkpt lat="-9.2797153" lon="148.3279877"/>
      <trkpt lat="-9.2796114" lon="148.3278387"/>
      <trkpt lat="-9.2795075" lon="148.3276897"/>
      <trkpt lat="-9.2794036" lon="148.3275407"/>
      <trkpt lat="-9.2792997" lon="148.3273917"/>
      <trkpt lat="-9.2791958" lon="148.3272427"/>
      <trkpt lat="-9.2790919" lon="148.3270937"/>
      <trkpt lat="-9.2789879" lon="148.3269447"/>
      <trkpt lat="-9.2788840" lon="148.3267957"/>
      <trkpt lat="-9.2787801" lon="148.3266467"/>
      <trkpt lat="-9.2786762" lon="148.3264977"/>
      <trkpt lat="-9.2785723" lon="148.3263487"/>
      <trkpt lat="-9.2784684" lon="148.3261997"/>
      <trkpt lat="-9.2783645" lon="148.3260507"/>
      <trkpt lat="-9.2782606" lon="148.3259016"/>
      <trkpt lat="-9.2781567" lon="148.3257526"/>
      <trkpt lat="-9.2780527" lon="148.3256036"/>
      <trkpt lat="-9.2779488" lon="148.3254546"/>
      <trkpt lat="-9.2778449" lon="148.3253056"/>
      <trkpt lat="-9.2777410" lon="148.3251566"/>
      <trkpt lat="-9.2776371" lon="148.3250076"/>
      <trkpt lat="-9.2775332" lon="148.3248586"/>
      <trkpt lat="-9.2774293" lon="148.3247096"/>
      <trkpt lat="-9.2773254" lon="148.3245606"/>
      <trkpt lat="-9.2772215" lon="148.3244116"/>
      <trkpt lat="-9.2771175" lon="148.3242626"/>
      <trkpt lat="-9.2770136" lon="148.3241136"/>
      <trkpt lat="-9.2769097" lon="148.3239646"/>
      <trkpt lat="-9.2768587" lon="148.3238721"/>
      <trkpt lat="-9.2768847" lon="148.3238491"/>
      <trkpt lat="-9.2769194" lon="148.3238533"/>
      <trkpt lat="-9.2769214" lon="148.3238791"/>
      <trkpt lat="-9.2768667" lon="148.3239133"/>
    </trkseg>
    <trkseg>
      <trkpt lat="-9.2368683" lon="148.3114750"/>
      <trkpt lat="-9.2366947" lon="148.3115261"/>
      <trkpt lat="-9.2365211" lon="148.3115771"/>
      <trkpt lat="-9.2363475" lon="148.3116282"/>
      <trkpt lat="-9.2361739" lon="148.3116792"/>
      <trkpt lat="-9.2360003" lon="148.3117303"/>
      <trkpt lat="-9.2358267" lon="148.3117813"/>
      <trkpt lat="-9.2356531" lon="148.3118324"/>
      <trkpt lat="-9.2354796" lon="148.3118834"/>
      <trkpt lat="-9.2353060" lon="148.3119345"/>
      <trkpt lat="-9.2351324" lon="148.3119856"/>
      <trkpt lat="-9.2349588" lon="148.3120366"/>
      <trkpt lat="-9.2347852" lon="148.3120877"/>
      <trkpt lat="-9.2346116" lon="148.3121387"/>
      <trkpt lat="-9.2344380" lon="148.3121898"/>
      <trkpt lat="-9.2342644" lon="148.3122408"/>
      <trkpt lat="-9.2340908" lon="148.3122919"/>
      <trkpt lat="-9.2339172" lon="148.3123430"/>
      <trkpt lat="-9.2337436" lon="148.3123940"/>
      <trkpt lat="-9.2335700" lon="148.3124451"/>
      <trkpt lat="-9.2333964" lon="148.3124961"/>
      <trkpt lat="-9.2332228" lon="148.3125472"/>
      <trkpt lat="-9.2330492" lon="148.3125982"/>
      <trkpt lat="-9.2328756" lon="148.3126493"/>
      <trkpt lat="-9.2327021" lon="148.3127003"/>
      <trkpt lat="-9.2325285" lon="148.3127514"/>
      <trkpt lat="-9.2323549" lon="148.3128025"/>
      <trkpt lat="-9.2321813" lon="148.3128535"/>
      <trkpt lat="-9.2320077" lon="148.3129046"/>
      <trkpt lat="-9.2318341" lon="148.3129556"/>
      <trkpt lat="-9.2316605" lon="148.3130067"/>
      <trkpt lat="-9.2314869" lon="148.3130577"/>
      <trkpt lat="-9.2313133" lon="148.3131088"/>
      <trkpt lat="-9.2311397" lon="148.3131598"/>
      <trkpt lat="-9.2309661" lon="148.3132109"/>
      <trkpt lat="-9.2307925" lon="148.3132619"/>
      <trkpt lat="-9.2306189" lon="148.3133130"/>
      <trkpt lat="-9.2304453" lon="148.3133641"/>
      <trkpt lat="-9.2302717" lon="148.3134151"/>
      <trkpt lat="-9.2300981" lon="148.3134662"/>
      <trkpt lat="-9.2299246" lon="148.3135172"/>
      <trkpt lat="-9.2297510" lon="148.3135683"/>
      <trkpt lat="-9.2295774" lon="148.3136193"/>
      <trkpt lat="-9.2294038" lon="148.3136704"/>
      <trkpt lat="-9.2292302" lon="148.3137214"/>
      <trkpt lat="-9.2290566" lon="148.3137725"/>
      <trkpt lat="-9.2288830" lon="148.3138236"/>
      <trkpt lat="-9.2287094" lon="148.3138746"/>
      <trkpt lat="-9.2285358" lon="148.3139257"/>
      <trkpt lat="-9.2283622" lon="148.3139767"/>
      <trkpt lat="-9.2281886" lon="148.3140278"/>
      <trkpt lat="-9.2280150" lon="148.3140788"/>
      <trkpt lat="-9.2278414" lon="148.3141299"/>
      <trkpt lat="-9.2276718" lon="148.3141665"/>
      <trkpt lat="-9.2275199" lon="148.3141408"/>
      <trkpt lat="-9.2273723" lon="148.3140806"/>
      <trkpt lat="-9.2272214" lon="148.3140050"/>
      <trkpt lat="-9.2270503" lon="148.3139707"/>
      <trkpt lat="-9.2268728" lon="148.3139499"/>
      <trkpt lat="-9.2266923" lon="148.3139380"/>
      <trkpt lat="-9.2265119" lon="148.3139261"/>
      <trkpt lat="-9.2263314" lon="148.3139142"/>
      <trkpt lat="-9.2261509" lon="148.3139024"/>
      <trkpt lat="-9.2259705" lon="148.3138905"/>
      <trkpt lat="-9.2257900" lon="148.3138786"/>
      <trkpt lat="-9.2256095" lon="148.3138667"/>
      <trkpt lat="-9.2254291" lon="148.3138548"/>
      <trkpt lat="-9.2252486" lon="148.3138430"/>
      <trkpt lat="-9.2250695" lon="148.3138474"/>
      <trkpt lat="-9.2248919" lon="148.3138699"/>
      <trkpt lat="-9.2247158" lon="148.3139103"/>
      <trkpt lat="-9.2245399" lon="148.3139524"/>
      <trkpt lat="-9.2243639" lon="148.3139945"/>
      <trkpt lat="-9.2241880" lon="148.3140366"/>
      <trkpt lat="-9.2240120" lon="148.3140787"/>
      <trkpt lat="-9.2238360" lon="148.3141208"/>
      <trkpt lat="-9.2236601" lon="148.3141628"/>
      <trkpt lat="-9.2234841" lon="148.3142049"/>
      <trkpt lat="-9.2233082" lon="148.3142470"/>
      <trkpt lat="-9.2231322" lon="148.3142891"/>
      <trkpt lat="-9.2229563" lon="148.3143312"/>
      <trkpt lat="-9.2227803" lon="148.3143733"/>
      <trkpt lat="-9.2226044" lon="148.3144153"/>
      <trkpt lat="-9.2224284" lon="148.3144574"/>
      <trkpt lat="-9.2222525" lon="148.3144995"/>
      <trkpt lat="-9.2220765" lon="148.3145416"/>
      <trkpt lat="-9.2219006" lon="148.3145837"/>
      <trkpt lat="-9.2217246" lon="148.3146258"/>
      <trkpt lat="-9.2215487" lon="148.3146678"/>
      <trkpt lat="-9.2213727" lon="148.3147099"/>
      <trkpt lat="-9.2211967" lon="148.3147520"/>
      <trkpt lat="-9.2210208" lon="148.3147941"/>
      <trkpt lat="-9.2208448" lon="148.3148362"/>
      <trkpt lat="-9.2206997" lon="148.3148843"/>
      <trkpt lat="-9.2206415" lon="148.3149475"/>
      <trkpt lat="-9.2205956" lon="148.3149664"/>
      <trkpt lat="-9.2205480" lon="148.3149196"/>
      <trkpt lat="-9.2204608" lon="148.3148355"/>
      <trkpt lat="-9.2204489" lon="148.3147946"/>
      <trkpt lat="-9.2204497" lon="148.3147870"/>
      <trkpt lat="-9.2204450" lon="148.3147750"/>
    </trkseg>
    <trkseg>
      <trkpt lat="-9.2167333" lon="148.3593800"/>
      <trkpt lat="-9.2168989" lon="148.3593298"/>
      <trkpt lat="-9.2170527" lon="148.3592486"/>
      <trkpt lat="-9.2171946" lon="148.3591363"/>
      <trkpt lat="-9.2173358" lon="148.3590225"/>
      <trkpt lat="-9.2174769" lon="148.3589087"/>
      <trkpt lat="-9.2176180" lon="148.3587949"/>
      <trkpt lat="-9.2177592" lon="148.3586811"/>
      <trkpt lat="-9.2179003" lon="148.3585673"/>
      <trkpt lat="-9.2180415" lon="148.3584535"/>
      <trkpt lat="-9.2181826" lon="148.3583397"/>
      <trkpt lat="-9.2183238" lon="148.3582259"/>
      <trkpt lat="-9.2184649" lon="148.3581121"/>
      <trkpt lat="-9.2186061" lon="148.3579983"/>
      <trkpt lat="-9.2187472" lon="148.3578845"/>
      <trkpt lat="-9.2188884" lon="148.3577707"/>
      <trkpt lat="-9.2190295" lon="148.3576569"/>
      <trkpt lat="-9.2191707" lon="148.3575431"/>
      <trkpt lat="-9.2193118" lon="148.3574293"/>
      <trkpt lat="-9.2194530" lon="148.3573155"/>
      <trkpt lat="-9.2195941" lon="148.3572017"/>
      <trkpt lat="-9.2197353" lon="148.3570879"/>
      <trkpt lat="-9.2198764" lon="148.3569741"/>
      <trkpt lat="-9.2200176" lon="148.3568603"/>
      <trkpt lat="-9.2201587" lon="148.3567465"/>
      <trkpt lat="-9.2202998" lon="148.3566327"/>
      <trkpt lat="-9.2204410" lon="148.3565189"/>
      <trkpt lat="-9.2205821" lon="148.3564051"/>
      <trkpt lat="-9.2207233" lon="148.3562913"/>
      <trkpt lat="-9.2208644" lon="148.3561775"/>
      <trkpt lat="-9.2210056" lon="148.3560637"/>
      <trkpt lat="-9.2211049" lon="148.3559491"/>
      <trkpt lat="-9.2212132" lon="148.3558502"/>
      <trkpt lat="-9.2213306" lon="148.3557669"/>
      <trkpt lat="-9.2214988" lon="148.3557001"/>
      <trkpt lat="-9.2216670" lon="148.3556332"/>
      <trkpt lat="-9.2218352" lon="148.3555663"/>
      <trkpt lat="-9.2220034" lon="148.3554994"/>
      <trkpt lat="-9.2221716" lon="148.3554325"/>
      <trkpt lat="-9.2223398" lon="148.3553657"/>
      <trkpt lat="-9.2225080" lon="148.3552988"/>
      <trkpt lat="-9.2226762" lon="148.3552319"/>
      <trkpt lat="-9.2228444" lon="148.3551650"/>
      <trkpt lat="-9.2230126" lon="148.3550982"/>
      <trkpt lat="-9.2231808" lon="148.3550313"/>
      <trkpt lat="-9.2233490" lon="148.3549644"/>
      <trkpt lat="-9.2235172" lon="148.3548975"/>
      <trkpt lat="-9.2236854" lon="148.3548306"/>
      <trkpt lat="-9.2238536" lon="148.3547638"/>
      <trkpt lat="-9.2240218" lon="148.3546969"/>
      <trkpt lat="-9.2241900" lon="148.3546300"/>
      <trkpt lat="-9.2243582" lon="148.3545631"/>
      <trkpt lat="-9.2245264" lon="148.3544962"/>
      <trkpt lat="-9.2246946" lon="148.3544294"/>
      <trkpt lat="-9.2248628" lon="148.3543625"/>
      <trkpt lat="-9.2250310" lon="148.3542956"/>
      <trkpt lat="-9.2251992" lon="148.3542287"/>
      <trkpt lat="-9.2253674" lon="148.3541618"/>
      <trkpt lat="-9.2255356" lon="148.3540950"/>
      <trkpt lat="-9.2257038" lon="148.3540281"/>
      <trkpt lat="-9.2258720" lon="148.3539612"/>
      <trkpt lat="-9.2260402" lon="148.3538943"/>
      <trkpt lat="-9.2262084" lon="148.3538274"/>
      <trkpt lat="-9.2263766" lon="148.3537606"/>
      <trkpt lat="-9.2265448" lon="148.3536937"/>
      <trkpt lat="-9.2267130" lon="148.3536268"/>
      <trkpt lat="-9.2268812" lon="148.3535599"/>
      <trkpt lat="-9.2270494" lon="148.3534930"/>
      <trkpt lat="-9.2272176" lon="148.3534262"/>
      <trkpt lat="-9.2273858" lon="148.3533593"/>
      <trkpt lat="-9.2275540" lon="148.3532924"/>
      <trkpt lat="-9.2277222" lon="148.3532255"/>
      <trkpt lat="-9.2278904" lon="148.3531586"/>
      <trkpt lat="-9.2280586" lon="148.3530918"/>
      <trkpt lat="-9.2282268" lon="148.3530249"/>
      <trkpt lat="-9.2283950" lon="148.3529580"/>
      <trkpt lat="-9.2285632" lon="148.3528911"/>
      <trkpt lat="-9.2287314" lon="148.3528242"/>
      <trkpt lat="-9.2288996" lon="148.3527574"/>
      <trkpt lat="-9.2290678" lon="148.3526905"/>
      <trkpt lat="-9.2292360" lon="148.3526236"/>
      <trkpt lat="-9.2294042" lon="148.3525567"/>
      <trkpt lat="-9.2295724" lon="148.3524898"/>
      <trkpt lat="-9.2297406" lon="148.3524230"/>
      <trkpt lat="-9.2299088" lon="148.3523561"/>
      <trkpt lat="-9.2300770" lon="148.3522892"/>
      <trkpt lat="-9.2302452" lon="148.3522223"/>
      <trkpt lat="-9.2304134" lon="148.3521554"/>
      <trkpt lat="-9.2305835" lon="148.3521049"/>
      <trkpt lat="-9.2307571" lon="148.3520857"/>
      <trkpt lat="-9.2309342" lon="148.3520978"/>
      <trkpt lat="-9.2311131" lon="148.3521248"/>
      <trkpt lat="-9.2312919" lon="148.3521518"/>
      <trkpt lat="-9.2314708" lon="148.3521788"/>
      <trkpt lat="-9.2316497" lon="148.3522058"/>
      <trkpt lat="-9.2318285" lon="148.3522327"/>
      <trkpt lat="-9.2320074" lon="148.3522597"/>
      <trkpt lat="-9.2321862" lon="148.3522867"/>
      <trkpt lat="-9.2323651" lon="148.3523137"/>
      <trkpt lat="-9.2325439" lon="148.3523407"/>
      <trkpt lat="-9.2327228" lon="148.3523677"/>
      <trkpt lat="-9.2329016" lon="148.3523946"/>
      <trkpt lat="-9.2330805" lon="148.3524216"/>
      <trkpt lat="-9.2332593" lon="148.3524486"/>
      <trkpt lat="-9.2334382" lon="148.3524756"/>
      <trkpt lat="-9.2336170" lon="148.3525026"/>
      <trkpt lat="-9.2337959" lon="148.3525296"/>
      <trkpt lat="-9.2339747" lon="148.3525566"/>
      <trkpt lat="-9.2341536" lon="148.3525835"/>
      <trkpt lat="-9.2343324" lon="148.3526105"/>
      <trkpt lat="-9.2345113" lon="148.3526375"/>
      <trkpt lat="-9.2346901" lon="148.3526645"/>
      <trkpt lat="-9.2348690" lon="148.3526915"/>
      <trkpt lat="-9.2350478" lon="148.3527185"/>
      <trkpt lat="-9.2352267" lon="148.3527455"/>
      <trkpt lat="-9.2354055" lon="148.3527724"/>
      <trkpt lat="-9.2355844" lon="148.3527994"/>
      <trkpt lat="-9.2357632" lon="148.3528264"/>
      <trkpt lat="-9.2359421" lon="148.3528534"/>
      <trkpt lat="-9.2361209" lon="148.3528804"/>
      <trkpt lat="-9.2362998" lon="148.3529074"/>
      <trkpt lat="-9.2364787" lon="148.3529343"/>
      <trkpt lat="-9.2366575" lon="148.3529613"/>
      <trkpt lat="-9.2368364" lon="148.3529883"/>
      <trkpt lat="-9.2370152" lon="148.3530153"/>
      <trkpt lat="-9.2371941" lon="148.3530423"/>
      <trkpt lat="-9.2373729" lon="148.3530693"/>
      <trkpt lat="-9.2375518" lon="148.3530963"/>
      <trkpt lat="-9.2377306" lon="148.3531232"/>
      <trkpt lat="-9.2379095" lon="148.3531502"/>
      <trkpt lat="-9.2380883" lon="148.3531772"/>
      <trkpt lat="-9.2382672" lon="148.3532042"/>
      <trkpt lat="-9.2384460" lon="148.3532312"/>
      <trkpt lat="-9.2386249" lon="148.3532582"/>
      <trkpt lat="-9.2388037" lon="148.3532852"/>
      <trkpt lat="-9.2389826" lon="148.3533121"/>
      <trkpt lat="-9.2391614" lon="148.3533391"/>
      <trkpt lat="-9.2393403" lon="148.3533661"/>
      <trkpt lat="-9.2395191" lon="148.3533931"/>
      <trkpt lat="-9.2396980" lon="148.3534201"/>
      <trkpt lat="-9.2398768" lon="148.3534471"/>
      <trkpt lat="-9.2400557" lon="148.3534741"/>
      <trkpt lat="-9.2402345" lon="148.3535011"/>
      <trkpt lat="-9.2404134" lon="148.3535280"/>
      <trkpt lat="-9.2405922" lon="148.3535550"/>
      <trkpt lat="-9.2407711" lon="148.3535820"/>
      <trkpt lat="-9.2409499" lon="148.3536090"/>
      <trkpt lat="-9.2411288" lon="148.3536360"/>
      <trkpt lat="-9.2413076" lon="148.3536630"/>
      <trkpt lat="-9.2414865" lon="148.3536900"/>
      <trkpt lat="-9.2416653" lon="148.3537169"/>
      <trkpt lat="-9.2418442" lon="148.3537439"/>
      <trkpt lat="-9.2420230" lon="148.3537709"/>
      <trkpt lat="-9.2422019" lon="148.3537979"/>
      <trkpt lat="-9.2423808" lon="148.3538249"/>
      <trkpt lat="-9.2425596" lon="148.3538519"/>
      <trkpt lat="-9.2427385" lon="148.3538789"/>
      <trkpt lat="-9.2429173" lon="148.3539058"/>
      <trkpt lat="-9.2430962" lon="148.3539328"/>
      <trkpt lat="-9.2432750" lon="148.3539598"/>
      <trkpt lat="-9.2434539" lon="148.3539868"/>
      <trkpt lat="-9.2436327" lon="148.3540138"/>
      <trkpt lat="-9.2438116" lon="148.3540408"/>
      <trkpt lat="-9.2439904" lon="148.3540678"/>
      <trkpt lat="-9.2441693" lon="148.3540948"/>
      <trkpt lat="-9.2443481" lon="148.3541217"/>
      <trkpt lat="-9.2445270" lon="148.3541487"/>
      <trkpt lat="-9.2447058" lon="148.3541757"/>
      <trkpt lat="-9.2448847" lon="148.3542027"/>
      <trkpt lat="-9.2450635" lon="148.3542297"/>
      <trkpt lat="-9.2452424" lon="148.3542567"/>
      <trkpt lat="-9.2454212" lon="148.3542837"/>
      <trkpt lat="-9.2456001" lon="148.3543107"/>
      <trkpt lat="-9.2457789" lon="148.3543376"/>
      <trkpt lat="-9.2459578" lon="148.3543646"/>
      <trkpt lat="-9.2461366" lon="148.3543916"/>
      <trkpt lat="-9.2463155" lon="148.3544186"/>
      <trkpt lat="-9.2464943" lon="148.3544456"/>
      <trkpt lat="-9.2466732" lon="148.3544726"/>
      <trkpt lat="-9.2468520" lon="148.3544996"/>
      <trkpt lat="-9.2470309" lon="148.3545266"/>
      <trkpt lat="-9.2472097" lon="148.3545535"/>
      <trkpt lat="-9.2473886" lon="148.3545805"/>
      <trkpt lat="-9.2475674" lon="148.3546075"/>
      <trkpt lat="-9.2477463" lon="148.3546345"/>
      <trkpt lat="-9.2479251" lon="148.3546615"/>
      <trkpt lat="-9.2481040" lon="148.3546885"/>
      <trkpt lat="-9.2482828" lon="148.3547155"/>
      <trkpt lat="-9.2484617" lon="148.3547425"/>
      <trkpt lat="-9.2486405" lon="148.3547694"/>
      <trkpt lat="-9.2488194" lon="148.3547964"/>
      <trkpt lat="-9.2489983" lon="148.3548234"/>
      <trkpt lat="-9.2491771" lon="148.3548504"/>
      <trkpt lat="-9.2493560" lon="148.3548774"/>
      <trkpt lat="-9.2495348" lon="148.3549044"/>
      <trkpt lat="-9.2497137" lon="148.3549314"/>
      <trkpt lat="-9.2498925" lon="148.3549584"/>
      <trkpt lat="-9.2500714" lon="148.3549854"/>
      <trkpt lat="-9.2502502" lon="148.3550123"/>
      <trkpt lat="-9.2504291" lon="148.3550393"/>
      <trkpt lat="-9.2506079" lon="148.3550663"/>
      <trkpt lat="-9.2507868" lon="148.3550933"/>
      <trkpt lat="-9.2509656" lon="148.3551203"/>
      <trkpt lat="-9.2511445" lon="148.3551473"/>
      <trkpt lat="-9.2513233" lon="148.3551743"/>
      <trkpt lat="-9.2515022" lon="148.3552013"/>
      <trkpt lat="-9.2516810" lon="148.3552283"/>
      <trkpt lat="-9.2518599" lon="148.3552552"/>
      <trkpt lat="-9.2520387" lon="148.3552822"/>
      <trkpt lat="-9.2522176" lon="148.3553092"/>
      <trkpt lat="-9.2523964" lon="148.3553362"/>
      <trkpt lat="-9.2525753" lon="148.3553632"/>
      <trkpt lat="-9.2527541" lon="148.3553902"/>
      <trkpt lat="-9.2529330" lon="148.3554172"/>
      <trkpt lat="-9.2531118" lon="148.3554442"/>
      <trkpt lat="-9.2532907" lon="148.3554712"/>
      <trkpt lat="-9.2534695" lon="148.3554981"/>
      <trkpt lat="-9.2536484" lon="148.3555251"/>
      <trkpt lat="-9.2538272" lon="148.3555521"/>
      <trkpt lat="-9.2540061" lon="148.3555791"/>
      <trkpt lat="-9.2541849" lon="148.3556061"/>
      <trkpt lat="-9.2543638" lon="148.3556331"/>
      <trkpt lat="-9.2545426" lon="148.3556601"/>
      <trkpt lat="-9.2547215" lon="148.3556871"/>
      <trkpt lat="-9.2549003" lon="148.3557141"/>
      <trkpt lat="-9.2550792" lon="148.3557410"/>
      <trkpt lat="-9.2552580" lon="148.3557680"/>
      <trkpt lat="-9.2554369" lon="148.3557950"/>
      <trkpt lat="-9.2556157" lon="148.3558220"/>
      <trkpt lat="-9.2557946" lon="148.3558490"/>
      <trkpt lat="-9.2559734" lon="148.3558760"/>
      <trkpt lat="-9.2561523" lon="148.3559030"/>
      <trkpt lat="-9.2563311" lon="148.3559300"/>
      <trkpt lat="-9.2565100" lon="148.3559570"/>
      <trkpt lat="-9.2566888" lon="148.3559840"/>
      <trkpt lat="-9.2568677" lon="148.3560109"/>
      <trkpt lat="-9.2570465" lon="148.3560379"/>
      <trkpt lat="-9.2572254" lon="148.3560649"/>
      <trkpt lat="-9.2574042" lon="148.3560919"/>
      <trkpt lat="-9.2575831" lon="148.3561189"/>
      <trkpt lat="-9.2577619" lon="148.3561459"/>
      <trkpt lat="-9.2579408" lon="148.3561729"/>
      <trkpt lat="-9.2581196" lon="148.3561999"/>
      <trkpt lat="-9.2582985" lon="148.3562269"/>
      <trkpt lat="-9.2584774" lon="148.3562539"/>
      <trkpt lat="-9.2586562" lon="148.3562808"/>
      <trkpt lat="-9.2588351" lon="148.3563078"/>
      <trkpt lat="-9.2590139" lon="148.3563348"/>
      <trkpt lat="-9.2591928" lon="148.3563618"/>
      <trkpt lat="-9.2593716" lon="148.3563888"/>
      <trkpt lat="-9.2595505" lon="148.3564158"/>
      <trkpt lat="-9.2597293" lon="148.3564428"/>
      <trkpt lat="-9.2599082" lon="148.3564698"/>
      <trkpt lat="-9.2600870" lon="148.3564968"/>
      <trkpt lat="-9.2602659" lon="148.3565238"/>
      <trkpt lat="-9.2604447" lon="148.3565508"/>
      <trkpt lat="-9.2606236" lon="148.3565777"/>
      <trkpt lat="-9.2608024" lon="148.3566047"/>
      <trkpt lat="-9.2609813" lon="148.3566317"/>
      <trkpt lat="-9.2611601" lon="148.3566587"/>
      <trkpt lat="-9.2613390" lon="148.3566857"/>
      <trkpt lat="-9.2615178" lon="148.3567127"/>
      <trkpt lat="-9.2616967" lon="148.3567397"/>
      <trkpt lat="-9.2618755" lon="148.3567667"/>
      <trkpt lat="-9.2620544" lon="148.3567937"/>
      <trkpt lat="-9.2622332" lon="148.3568207"/>
      <trkpt lat="-9.2624121" lon="148.3568477"/>
      <trkpt lat="-9.2625909" lon="148.3568746"/>
      <trkpt lat="-9.2627698" lon="148.3569016"/>
      <trkpt lat="-9.2629486" lon="148.3569286"/>
      <trkpt lat="-9.2631275" lon="148.3569556"/>
      <trkpt lat="-9.2633063" lon="148.3569826"/>
      <trkpt lat="-9.2634852" lon="148.3570096"/>
      <trkpt lat="-9.2636640" lon="148.3570366"/>
      <trkpt lat="-9.2638429" lon="148.3570636"/>
      <trkpt lat="-9.2640217" lon="148.3570906"/>
      <trkpt lat="-9.2642006" lon="148.3571176"/>
      <trkpt lat="-9.2643794" lon="148.3571446"/>
      <trkpt lat="-9.2645583" lon="148.3571716"/>
      <trkpt lat="-9.2647371" lon="148.3571985"/>
      <trkpt lat="-9.2649160" lon="148.3572255"/>
      <trkpt lat="-9.2650948" lon="148.3572525"/>
      <trkpt lat="-9.2652737" lon="148.3572795"/>
      <trkpt lat="-9.2654525" lon="148.3573065"/>
      <trkpt lat="-9.2656314" lon="148.3573335"/>
      <trkpt lat="-9.2658102" lon="148.3573605"/>
      <trkpt lat="-9.2659891" lon="148.3573875"/>
      <trkpt lat="-9.2661679" lon="148.3574145"/>
      <trkpt lat="-9.2663468" lon="148.3574415"/>
      <trkpt lat="-9.2665256" lon="148.3574685"/>
      <trkpt lat="-9.2667045" lon="148.3574955"/>
      <trkpt lat="-9.2668833" lon="148.3575224"/>
      <trkpt lat="-9.2670622" lon="148.3575494"/>
      <trkpt lat="-9.2672410" lon="148.3575764"/>
      <trkpt lat="-9.2674199" lon="148.3576034"/>
      <trkpt lat="-9.2675987" lon="148.3576304"/>
      <trkpt lat="-9.2677776" lon="148.3576574"/>
      <trkpt lat="-9.2679564" lon="148.3576844"/>
      <trkpt lat="-9.2681353" lon="148.3577114"/>
      <trkpt lat="-9.2682689" lon="148.3577805"/>
      <trkpt lat="-9.2683870" lon="148.3578168"/>
      <trkpt lat="-9.2685038" lon="148.3578287"/>
      <trkpt lat="-9.2686646" lon="148.3577740"/>
      <trkpt lat="-9.2688395" lon="148.3577277"/>
      <trkpt lat="-9.2690144" lon="148.3576814"/>
      <trkpt lat="-9.2691893" lon="148.3576351"/>
      <trkpt lat="-9.2693642" lon="148.3575888"/>
      <trkpt lat="-9.2695392" lon="148.3575425"/>
      <trkpt lat="-9.2697141" lon="148.3574963"/>
      <trkpt lat="-9.2698890" lon="148.3574500"/>
      <trkpt lat="-9.2700639" lon="148.3574037"/>
      <trkpt lat="-9.2702388" lon="148.3573574"/>
      <trkpt lat="-9.2704137" lon="148.3573111"/>
      <trkpt lat="-9.2705886" lon="148.3572648"/>
      <trkpt lat="-9.2707635" lon="148.3572185"/>
      <trkpt lat="-9.2709384" lon="148.3571722"/>
      <trkpt lat="-9.2711133" lon="148.3571259"/>
      <trkpt lat="-9.2712882" lon="148.3570796"/>
      <trkpt lat="-9.2714631" lon="148.3570333"/>
      <trkpt lat="-9.2716380" lon="148.3569870"/>
      <trkpt lat="-9.2718129" lon="148.3569407"/>
      <trkpt lat="-9.2719878" lon="148.3568944"/>
      <trkpt lat="-9.2721627" lon="148.3568482"/>
      <trkpt lat="-9.2723376" lon="148.3568019"/>
      <trkpt lat="-9.2725125" lon="148.3567556"/>
      <trkpt lat="-9.2726874" lon="148.3567093"/>
      <trkpt lat="-9.2728623" lon="148.3566630"/>
      <trkpt lat="-9.2730372" lon="148.3566167"/>
      <trkpt lat="-9.2732122" lon="148.3565704"/>
      <trkpt lat="-9.2733871" lon="148.3565241"/>
      <trkpt lat="-9.2735620" lon="148.3564778"/>
      <trkpt lat="-9.2737369" lon="148.3564315"/>
      <trkpt lat="-9.2739118" lon="148.3563852"/>
      <trkpt lat="-9.2740867" lon="148.3563389"/>
      <trkpt lat="-9.2742616" lon="148.3562926"/>
      <trkpt lat="-9.2744365" lon="148.3562463"/>
      <trkpt lat="-9.2746114" lon="148.3562001"/>
      <trkpt lat="-9.2747863" lon="148.3561538"/>
      <trkpt lat="-9.2749612" lon="148.3561075"/>
      <trkpt lat="-9.2751361" lon="148.3560612"/>
      <trkpt lat="-9.2753110" lon="148.3560149"/>
      <trkpt lat="-9.2754859" lon="148.3559686"/>
      <trkpt lat="-9.2756608" lon="148.3559223"/>
      <trkpt lat="-9.2758357" lon="148.3558760"/>
      <trkpt lat="-9.2760106" lon="148.3558297"/>
      <trkpt lat="-9.2761855" lon="148.3557834"/>
      <trkpt lat="-9.2763604" lon="148.3557371"/>
      <trkpt lat="-9.2765353" lon="148.3556908"/>
      <trkpt lat="-9.2767102" lon="148.3556445"/>
      <trkpt lat="-9.2768851" lon="148.3555982"/>
      <trkpt lat="-9.2770601" lon="148.3555519"/>
      <trkpt lat="-9.2772350" lon="148.3555057"/>
      <trkpt lat="-9.2774099" lon="148.3554594"/>
      <trkpt lat="-9.2775848" lon="148.3554131"/>
      <trkpt lat="-9.2777597" lon="148.3553668"/>
      <trkpt lat="-9.2779346" lon="148.3553205"/>
      <trkpt lat="-9.2781095" lon="148.3552742"/>
      <trkpt lat="-9.2782844" lon="148.3552279"/>
      <trkpt lat="-9.2784593" lon="148.3551816"/>
      <trkpt lat="-9.2786342" lon="148.3551353"/>
      <trkpt lat="-9.2788091" lon="148.3550890"/>
      <trkpt lat="-9.2789840" lon="148.3550427"/>
      <trkpt lat="-9.2791589" lon="148.3549964"/>
      <trkpt lat="-9.2793338" lon="148.3549501"/>
      <trkpt lat="-9.2795087" lon="148.3549038"/>
      <trkpt lat="-9.2796836" lon="148.3548575"/>
      <trkpt lat="-9.2798585" lon="148.3548112"/>
      <trkpt lat="-9.2800334" lon="148.3547650"/>
      <trkpt lat="-9.2802083" lon="148.3547187"/>
      <trkpt lat="-9.2803832" lon="148.3546724"/>
      <trkpt lat="-9.2805516" lon="148.3546278"/>
      <trkpt lat="-9.2807133" lon="148.3545850"/>
    </trkseg>
    <trkseg>
      <trkpt lat="-9.2895517" lon="148.3500633"/>
      <trkpt lat="-9.2897140" lon="148.3501297"/>
      <trkpt lat="-9.2898837" lon="148.3501814"/>
      <trkpt lat="-9.2900607" lon="148.3502185"/>
      <trkpt lat="-9.2902378" lon="148.3502555"/>
      <trkpt lat="-9.2904149" lon="148.3502925"/>
      <trkpt lat="-9.2905919" lon="148.3503295"/>
      <trkpt lat="-9.2907690" lon="148.3503665"/>
      <trkpt lat="-9.2909461" lon="148.3504035"/>
      <trkpt lat="-9.2910820" lon="148.3504319"/>
      <trkpt lat="-9.2911767" lon="148.3504517"/>
    </trkseg>
    <trkseg>
      <trkpt lat="-9.2913450" lon="148.3506133"/>
      <trkpt lat="-9.2915085" lon="148.3506910"/>
      <trkpt lat="-9.2916721" lon="148.3507687"/>
      <trkpt lat="-9.2918356" lon="148.3508464"/>
      <trkpt lat="-9.2919844" lon="148.3509321"/>
      <trkpt lat="-9.2921290" lon="148.3510071"/>
      <trkpt lat="-9.2922594" lon="148.3511013"/>
      <trkpt lat="-9.2923903" lon="148.3512070"/>
      <trkpt lat="-9.2925110" lon="148.3513426"/>
      <trkpt lat="-9.2926317" lon="148.3514781"/>
      <trkpt lat="-9.2927524" lon="148.3516137"/>
      <trkpt lat="-9.2928731" lon="148.3517493"/>
      <trkpt lat="-9.2929938" lon="148.3518848"/>
      <trkpt lat="-9.2931145" lon="148.3520204"/>
      <trkpt lat="-9.2932352" lon="148.3521560"/>
      <trkpt lat="-9.2933559" lon="148.3522916"/>
      <trkpt lat="-9.2934766" lon="148.3524271"/>
      <trkpt lat="-9.2935973" lon="148.3525627"/>
      <trkpt lat="-9.2937180" lon="148.3526983"/>
      <trkpt lat="-9.2938387" lon="148.3528339"/>
      <trkpt lat="-9.2939594" lon="148.3529694"/>
      <trkpt lat="-9.2940801" lon="148.3531050"/>
      <trkpt lat="-9.2942009" lon="148.3532406"/>
      <trkpt lat="-9.2943216" lon="148.3533762"/>
      <trkpt lat="-9.2944423" lon="148.3535117"/>
      <trkpt lat="-9.2945630" lon="148.3536473"/>
      <trkpt lat="-9.2946837" lon="148.3537829"/>
      <trkpt lat="-9.2948044" lon="148.3539185"/>
      <trkpt lat="-9.2949251" lon="148.3540540"/>
      <trkpt lat="-9.2950458" lon="148.3541896"/>
      <trkpt lat="-9.2951665" lon="148.3543252"/>
      <trkpt lat="-9.2952872" lon="148.3544608"/>
      <trkpt lat="-9.2954079" lon="148.3545963"/>
      <trkpt lat="-9.2955286" lon="148.3547319"/>
      <trkpt lat="-9.2956493" lon="148.3548675"/>
      <trkpt lat="-9.2957700" lon="148.3550031"/>
      <trkpt lat="-9.2958907" lon="148.3551386"/>
      <trkpt lat="-9.2960114" lon="148.3552742"/>
      <trkpt lat="-9.2961029" lon="148.3553769"/>
      <trkpt lat="-9.2961650" lon="148.3554467"/>
    </trkseg>
    <trkseg>
      <trkpt lat="-9.3017033" lon="148.3591417"/>
      <trkpt lat="-9.3017512" lon="148.3590960"/>
      <trkpt lat="-9.3018369" lon="148.3591157"/>
      <trkpt lat="-9.3019604" lon="148.3592007"/>
      <trkpt lat="-9.3021234" lon="148.3592794"/>
      <trkpt lat="-9.3022865" lon="148.3593581"/>
      <trkpt lat="-9.3024496" lon="148.3594368"/>
      <trkpt lat="-9.3026127" lon="148.3595107"/>
      <trkpt lat="-9.3027281" lon="148.3595772"/>
      <trkpt lat="-9.3027650" lon="148.3596731"/>
      <trkpt lat="-9.3027363" lon="148.3597687"/>
      <trkpt lat="-9.3026900" lon="148.3598667"/>
    </trkseg>
    <trkseg>
      <trkpt lat="-9.3033633" lon="148.3590300"/>
      <trkpt lat="-9.3033108" lon="148.3591863"/>
      <trkpt lat="-9.3033380" lon="148.3592646"/>
      <trkpt lat="-9.3034513" lon="148.3592941"/>
      <trkpt lat="-9.3036246" lon="148.3592848"/>
      <trkpt lat="-9.3038040" lon="148.3593068"/>
      <trkpt lat="-9.3039287" lon="148.3592919"/>
      <trkpt lat="-9.3040399" lon="148.3592423"/>
      <trkpt lat="-9.3041480" lon="148.3591755"/>
      <trkpt lat="-9.3042955" lon="148.3591780"/>
      <trkpt lat="-9.3044453" lon="148.3592369"/>
      <trkpt lat="-9.3045647" lon="148.3593418"/>
      <trkpt lat="-9.3046390" lon="148.3594599"/>
      <trkpt lat="-9.3047020" lon="148.3595005"/>
      <trkpt lat="-9.3047900" lon="148.3594972"/>
      <trkpt lat="-9.3049373" lon="148.3594352"/>
      <trkpt lat="-9.3050480" lon="148.3594207"/>
      <trkpt lat="-9.3051083" lon="148.3594133"/>
    </trkseg>
    <trkseg>
      <trkpt lat="-9.3055833" lon="148.3595000"/>
      <trkpt lat="-9.3057524" lon="148.3595395"/>
      <trkpt lat="-9.3059223" lon="148.3595887"/>
      <trkpt lat="-9.3060946" lon="148.3596420"/>
      <trkpt lat="-9.3062692" lon="148.3596880"/>
      <trkpt lat="-9.3064435" lon="148.3597353"/>
      <trkpt lat="-9.3066177" lon="148.3597717"/>
      <trkpt lat="-9.3067883" lon="148.3597775"/>
      <trkpt lat="-9.3069567" lon="148.3597697"/>
      <trkpt lat="-9.3071227" lon="148.3597556"/>
      <trkpt lat="-9.3072818" lon="148.3597524"/>
      <trkpt lat="-9.3074414" lon="148.3597670"/>
      <trkpt lat="-9.3076000" lon="148.3598100"/>
      <trkpt lat="-9.3077664" lon="148.3598813"/>
      <trkpt lat="-9.3078869" lon="148.3599330"/>
      <trkpt lat="-9.3079617" lon="148.3599650"/>
    </trkseg>
    <trkseg>
      <trkpt lat="-9.3079617" lon="148.3598517"/>
      <trkpt lat="-9.3081304" lon="148.3597860"/>
      <trkpt lat="-9.3082990" lon="148.3597203"/>
      <trkpt lat="-9.3084598" lon="148.3596411"/>
      <trkpt lat="-9.3086080" lon="148.3595419"/>
      <trkpt lat="-9.3087436" lon="148.3594227"/>
      <trkpt lat="-9.3088744" lon="148.3592970"/>
      <trkpt lat="-9.3090051" lon="148.3591712"/>
      <trkpt lat="-9.3091164" lon="148.3590348"/>
      <trkpt lat="-9.3091952" lon="148.3588807"/>
      <trkpt lat="-9.3092373" lon="148.3587437"/>
      <trkpt lat="-9.3092521" lon="148.3587198"/>
      <trkpt lat="-9.3092791" lon="148.3587625"/>
      <trkpt lat="-9.3093251" lon="148.3587752"/>
      <trkpt lat="-9.3094200" lon="148.3587134"/>
      <trkpt lat="-9.3094901" lon="148.3585994"/>
      <trkpt lat="-9.3095328" lon="148.3585626"/>
      <trkpt lat="-9.3095762" lon="148.3585040"/>
      <trkpt lat="-9.3096757" lon="148.3584647"/>
      <trkpt lat="-9.3098238" lon="148.3583662"/>
      <trkpt lat="-9.3099705" lon="148.3582629"/>
      <trkpt lat="-9.3100972" lon="148.3581366"/>
      <trkpt lat="-9.3102062" lon="148.3579943"/>
      <trkpt lat="-9.3103001" lon="148.3578397"/>
      <trkpt lat="-9.3103891" lon="148.3576813"/>
      <trkpt lat="-9.3104782" lon="148.3575228"/>
      <trkpt lat="-9.3105673" lon="148.3573643"/>
      <trkpt lat="-9.3106563" lon="148.3572059"/>
      <trkpt lat="-9.3107179" lon="148.3571314"/>
      <trkpt lat="-9.3107424" lon="148.3571700"/>
      <trkpt lat="-9.3107298" lon="148.3573217"/>
      <trkpt lat="-9.3106976" lon="148.3574550"/>
      <trkpt lat="-9.3106486" lon="148.3574734"/>
      <trkpt lat="-9.3105938" lon="148.3573723"/>
      <trkpt lat="-9.3105399" lon="148.3572004"/>
      <trkpt lat="-9.3104851" lon="148.3570279"/>
      <trkpt lat="-9.3104362" lon="148.3568555"/>
      <trkpt lat="-9.3104032" lon="148.3566803"/>
      <trkpt lat="-9.3103945" lon="148.3564997"/>
      <trkpt lat="-9.3103923" lon="148.3563177"/>
      <trkpt lat="-9.3103980" lon="148.3561361"/>
      <trkpt lat="-9.3104121" lon="148.3559550"/>
      <trkpt lat="-9.3104347" lon="148.3557744"/>
      <trkpt lat="-9.3104578" lon="148.3555938"/>
      <trkpt lat="-9.3104809" lon="148.3554132"/>
      <trkpt lat="-9.3104937" lon="148.3552322"/>
      <trkpt lat="-9.3104814" lon="148.3550579"/>
      <trkpt lat="-9.3104157" lon="148.3549042"/>
      <trkpt lat="-9.3103069" lon="148.3547715"/>
      <trkpt lat="-9.3101698" lon="148.3546527"/>
      <trkpt lat="-9.3100327" lon="148.3545340"/>
      <trkpt lat="-9.3098956" lon="148.3544153"/>
      <trkpt lat="-9.3097478" lon="148.3543184"/>
      <trkpt lat="-9.3095867" lon="148.3542488"/>
      <trkpt lat="-9.3094122" lon="148.3542064"/>
      <trkpt lat="-9.3092352" lon="148.3541693"/>
      <trkpt lat="-9.3090581" lon="148.3541322"/>
      <trkpt lat="-9.3088811" lon="148.3540951"/>
      <trkpt lat="-9.3087074" lon="148.3540488"/>
      <trkpt lat="-9.3085405" lon="148.3539849"/>
      <trkpt lat="-9.3083801" lon="148.3539033"/>
      <trkpt lat="-9.3082230" lon="148.3538132"/>
      <trkpt lat="-9.3080659" lon="148.3537230"/>
      <trkpt lat="-9.3079088" lon="148.3536329"/>
      <trkpt lat="-9.3077516" lon="148.3535427"/>
      <trkpt lat="-9.3075945" lon="148.3534526"/>
      <trkpt lat="-9.3075072" lon="148.3534296"/>
      <trkpt lat="-9.3075044" lon="148.3534881"/>
      <trkpt lat="-9.3075791" lon="148.3536254"/>
      <trkpt lat="-9.3075790" lon="148.3537439"/>
      <trkpt lat="-9.3074893" lon="148.3538295"/>
      <trkpt lat="-9.3073170" lon="148.3538846"/>
      <trkpt lat="-9.3071446" lon="148.3539398"/>
      <trkpt lat="-9.3069712" lon="148.3539885"/>
      <trkpt lat="-9.3067949" lon="148.3540206"/>
      <trkpt lat="-9.3066158" lon="148.3540362"/>
      <trkpt lat="-9.3064382" lon="148.3540344"/>
      <trkpt lat="-9.3062805" lon="148.3539857"/>
      <trkpt lat="-9.3061425" lon="148.3538900"/>
      <trkpt lat="-9.3060212" lon="148.3537550"/>
      <trkpt lat="-9.3058999" lon="148.3536200"/>
      <trkpt lat="-9.3057785" lon="148.3534850"/>
      <trkpt lat="-9.3056572" lon="148.3533500"/>
      <trkpt lat="-9.3055359" lon="148.3532150"/>
      <trkpt lat="-9.3054146" lon="148.3530799"/>
      <trkpt lat="-9.3052932" lon="148.3529449"/>
      <trkpt lat="-9.3051719" lon="148.3528099"/>
      <trkpt lat="-9.3050506" lon="148.3526749"/>
      <trkpt lat="-9.3049292" lon="148.3525399"/>
      <trkpt lat="-9.3048079" lon="148.3524049"/>
      <trkpt lat="-9.3047166" lon="148.3523071"/>
      <trkpt lat="-9.3046505" lon="148.3522171"/>
      <trkpt lat="-9.3045992" lon="148.3521172"/>
      <trkpt lat="-9.3045328" lon="148.3519700"/>
      <trkpt lat="-9.3044560" lon="148.3518051"/>
      <trkpt lat="-9.3043792" lon="148.3516403"/>
      <trkpt lat="-9.3043024" lon="148.3514754"/>
      <trkpt lat="-9.3042256" lon="148.3513106"/>
      <trkpt lat="-9.3041489" lon="148.3511458"/>
      <trkpt lat="-9.3040721" lon="148.3509809"/>
      <trkpt lat="-9.3039953" lon="148.3508161"/>
      <trkpt lat="-9.3039185" lon="148.3506512"/>
      <trkpt lat="-9.3038417" lon="148.3504864"/>
      <trkpt lat="-9.3037650" lon="148.3503216"/>
      <trkpt lat="-9.3036882" lon="148.3501567"/>
      <trkpt lat="-9.3036114" lon="148.3499919"/>
      <trkpt lat="-9.3035346" lon="148.3498270"/>
      <trkpt lat="-9.3034578" lon="148.3496622"/>
      <trkpt lat="-9.3033811" lon="148.3494973"/>
      <trkpt lat="-9.3033024" lon="148.3493353"/>
      <trkpt lat="-9.3031892" lon="148.3492235"/>
      <trkpt lat="-9.3030415" lon="148.3491622"/>
      <trkpt lat="-9.3028611" lon="148.3491484"/>
      <trkpt lat="-9.3026808" lon="148.3491347"/>
      <trkpt lat="-9.3025005" lon="148.3491209"/>
      <trkpt lat="-9.3023201" lon="148.3491072"/>
      <trkpt lat="-9.3021398" lon="148.3490934"/>
      <trkpt lat="-9.3019595" lon="148.3490796"/>
      <trkpt lat="-9.3017791" lon="148.3490659"/>
      <trkpt lat="-9.3015988" lon="148.3490521"/>
      <trkpt lat="-9.3014185" lon="148.3490384"/>
      <trkpt lat="-9.3012382" lon="148.3490246"/>
      <trkpt lat="-9.3010578" lon="148.3490108"/>
      <trkpt lat="-9.3008775" lon="148.3489971"/>
      <trkpt lat="-9.3006972" lon="148.3489833"/>
      <trkpt lat="-9.3005168" lon="148.3489696"/>
      <trkpt lat="-9.3003365" lon="148.3489558"/>
      <trkpt lat="-9.3001562" lon="148.3489421"/>
      <trkpt lat="-9.2999758" lon="148.3489283"/>
      <trkpt lat="-9.2997955" lon="148.3489145"/>
      <trkpt lat="-9.2996152" lon="148.3489008"/>
      <trkpt lat="-9.2994348" lon="148.3488870"/>
      <trkpt lat="-9.2992545" lon="148.3488733"/>
      <trkpt lat="-9.2990742" lon="148.3488595"/>
      <trkpt lat="-9.2988938" lon="148.3488458"/>
      <trkpt lat="-9.2987135" lon="148.3488320"/>
      <trkpt lat="-9.2985332" lon="148.3488182"/>
      <trkpt lat="-9.2983528" lon="148.3488045"/>
      <trkpt lat="-9.2981725" lon="148.3487907"/>
      <trkpt lat="-9.2979922" lon="148.3487770"/>
      <trkpt lat="-9.2978118" lon="148.3487632"/>
      <trkpt lat="-9.2976315" lon="148.3487495"/>
      <trkpt lat="-9.2974512" lon="148.3487357"/>
      <trkpt lat="-9.2972708" lon="148.3487219"/>
      <trkpt lat="-9.2970905" lon="148.3487082"/>
      <trkpt lat="-9.2969102" lon="148.3486944"/>
      <trkpt lat="-9.2967298" lon="148.3486807"/>
      <trkpt lat="-9.2965495" lon="148.3486669"/>
      <trkpt lat="-9.2963692" lon="148.3486532"/>
      <trkpt lat="-9.2961888" lon="148.3486394"/>
      <trkpt lat="-9.2960085" lon="148.3486256"/>
      <trkpt lat="-9.2958282" lon="148.3486119"/>
      <trkpt lat="-9.2956478" lon="148.3485981"/>
      <trkpt lat="-9.2954675" lon="148.3485844"/>
      <trkpt lat="-9.2952872" lon="148.3485706"/>
      <trkpt lat="-9.2951068" lon="148.3485569"/>
      <trkpt lat="-9.2949265" lon="148.3485431"/>
      <trkpt lat="-9.2947462" lon="148.3485293"/>
      <trkpt lat="-9.2945658" lon="148.3485156"/>
      <trkpt lat="-9.2943855" lon="148.3485018"/>
      <trkpt lat="-9.2942052" lon="148.3484881"/>
      <trkpt lat="-9.2940248" lon="148.3484743"/>
      <trkpt lat="-9.2938445" lon="148.3484606"/>
      <trkpt lat="-9.2937085" lon="148.3484218"/>
      <trkpt lat="-9.2936486" lon="148.3483439"/>
      <trkpt lat="-9.2936650" lon="148.3482267"/>
    </trkseg>
    <trkseg>
      <trkpt lat="-9.2768217" lon="148.3240450"/>
      <trkpt lat="-9.2769219" lon="148.3239719"/>
      <trkpt lat="-9.2769153" lon="148.3239060"/>
      <trkpt lat="-9.2768019" lon="148.3238421"/>
      <trkpt lat="-9.2766331" lon="148.3237817"/>
      <trkpt lat="-9.2764641" lon="148.3237170"/>
      <trkpt lat="-9.2762947" lon="148.3236530"/>
      <trkpt lat="-9.2761254" lon="148.3235890"/>
      <trkpt lat="-9.2759561" lon="148.3235250"/>
      <trkpt lat="-9.2757868" lon="148.3234611"/>
      <trkpt lat="-9.2756175" lon="148.3233971"/>
      <trkpt lat="-9.2754481" lon="148.3233331"/>
      <trkpt lat="-9.2752788" lon="148.3232692"/>
      <trkpt lat="-9.2751095" lon="148.3232052"/>
      <trkpt lat="-9.2749402" lon="148.3231412"/>
      <trkpt lat="-9.2747709" lon="148.3230773"/>
      <trkpt lat="-9.2746015" lon="148.3230133"/>
      <trkpt lat="-9.2744322" lon="148.3229493"/>
      <trkpt lat="-9.2742629" lon="148.3228854"/>
      <trkpt lat="-9.2740936" lon="148.3228214"/>
      <trkpt lat="-9.2739243" lon="148.3227574"/>
      <trkpt lat="-9.2737549" lon="148.3226935"/>
      <trkpt lat="-9.2735856" lon="148.3226295"/>
      <trkpt lat="-9.2734163" lon="148.3225655"/>
      <trkpt lat="-9.2732470" lon="148.3225016"/>
      <trkpt lat="-9.2730777" lon="148.3224376"/>
      <trkpt lat="-9.2729083" lon="148.3223736"/>
      <trkpt lat="-9.2727390" lon="148.3223096"/>
      <trkpt lat="-9.2725697" lon="148.3222457"/>
      <trkpt lat="-9.2724004" lon="148.3221817"/>
      <trkpt lat="-9.2722311" lon="148.3221177"/>
      <trkpt lat="-9.2720617" lon="148.3220538"/>
      <trkpt lat="-9.2718924" lon="148.3219898"/>
      <trkpt lat="-9.2717231" lon="148.3219258"/>
      <trkpt lat="-9.2715538" lon="148.3218619"/>
      <trkpt lat="-9.2713845" lon="148.3217979"/>
      <trkpt lat="-9.2712151" lon="148.3217339"/>
      <trkpt lat="-9.2710467" lon="148.3216679"/>
      <trkpt lat="-9.2708807" lon="148.3215962"/>
      <trkpt lat="-9.2707171" lon="148.3215190"/>
      <trkpt lat="-9.2705550" lon="148.3214382"/>
      <trkpt lat="-9.2703929" lon="148.3213575"/>
      <trkpt lat="-9.2702309" lon="148.3212767"/>
      <trkpt lat="-9.2700688" lon="148.3211960"/>
      <trkpt lat="-9.2699067" lon="148.3211152"/>
      <trkpt lat="-9.2697446" lon="148.3210345"/>
      <trkpt lat="-9.2695825" lon="148.3209537"/>
      <trkpt lat="-9.2694204" lon="148.3208730"/>
      <trkpt lat="-9.2692583" lon="148.3207922"/>
      <trkpt lat="-9.2690962" lon="148.3207115"/>
      <trkpt lat="-9.2689342" lon="148.3206307"/>
      <trkpt lat="-9.2687721" lon="148.3205500"/>
      <trkpt lat="-9.2686100" lon="148.3204692"/>
      <trkpt lat="-9.2684479" lon="148.3203885"/>
      <trkpt lat="-9.2682860" lon="148.3203073"/>
      <trkpt lat="-9.2681252" lon="148.3202242"/>
      <trkpt lat="-9.2679654" lon="148.3201390"/>
      <trkpt lat="-9.2678064" lon="148.3200521"/>
      <trkpt lat="-9.2676475" lon="148.3199653"/>
      <trkpt lat="-9.2674885" lon="148.3198784"/>
      <trkpt lat="-9.2673296" lon="148.3197916"/>
      <trkpt lat="-9.2671706" lon="148.3197047"/>
      <trkpt lat="-9.2670117" lon="148.3196179"/>
      <trkpt lat="-9.2668527" lon="148.3195310"/>
      <trkpt lat="-9.2666938" lon="148.3194442"/>
      <trkpt lat="-9.2665349" lon="148.3193573"/>
      <trkpt lat="-9.2663759" lon="148.3192705"/>
      <trkpt lat="-9.2662170" lon="148.3191836"/>
      <trkpt lat="-9.2660580" lon="148.3190968"/>
      <trkpt lat="-9.2658991" lon="148.3190099"/>
      <trkpt lat="-9.2657401" lon="148.3189231"/>
      <trkpt lat="-9.2655895" lon="148.3188246"/>
      <trkpt lat="-9.2654438" lon="148.3187187"/>
      <trkpt lat="-9.2653023" lon="148.3186061"/>
      <trkpt lat="-9.2651564" lon="148.3184986"/>
      <trkpt lat="-9.2650098" lon="148.3183921"/>
      <trkpt lat="-9.2648631" lon="148.3182855"/>
      <trkpt lat="-9.2647165" lon="148.3181790"/>
      <trkpt lat="-9.2645698" lon="148.3180724"/>
      <trkpt lat="-9.2644232" lon="148.3179659"/>
      <trkpt lat="-9.2642766" lon="148.3178593"/>
      <trkpt lat="-9.2641299" lon="148.3177528"/>
      <trkpt lat="-9.2639833" lon="148.3176462"/>
      <trkpt lat="-9.2638366" lon="148.3175397"/>
      <trkpt lat="-9.2636900" lon="148.3174331"/>
      <trkpt lat="-9.2635434" lon="148.3173266"/>
      <trkpt lat="-9.2633967" lon="148.3172200"/>
      <trkpt lat="-9.2632501" lon="148.3171135"/>
      <trkpt lat="-9.2631034" lon="148.3170069"/>
      <trkpt lat="-9.2629568" lon="148.3169004"/>
      <trkpt lat="-9.2628101" lon="148.3167938"/>
      <trkpt lat="-9.2626635" lon="148.3166873"/>
      <trkpt lat="-9.2625169" lon="148.3165808"/>
      <trkpt lat="-9.2623702" lon="148.3164742"/>
      <trkpt lat="-9.2622236" lon="148.3163677"/>
      <trkpt lat="-9.2620769" lon="148.3162611"/>
      <trkpt lat="-9.2619303" lon="148.3161546"/>
      <trkpt lat="-9.2617836" lon="148.3160480"/>
      <trkpt lat="-9.2616370" lon="148.3159415"/>
      <trkpt lat="-9.2614904" lon="148.3158349"/>
      <trkpt lat="-9.2613437" lon="148.3157284"/>
      <trkpt lat="-9.2611971" lon="148.3156218"/>
      <trkpt lat="-9.2610504" lon="148.3155153"/>
      <trkpt lat="-9.2608989" lon="148.3154187"/>
      <trkpt lat="-9.2607385" lon="148.3153406"/>
      <trkpt lat="-9.2605690" lon="148.3152809"/>
      <trkpt lat="-9.2603955" lon="148.3152296"/>
      <trkpt lat="-9.2602220" lon="148.3151784"/>
      <trkpt lat="-9.2600484" lon="148.3151271"/>
      <trkpt lat="-9.2598749" lon="148.3150758"/>
      <trkpt lat="-9.2597014" lon="148.3150245"/>
      <trkpt lat="-9.2595279" lon="148.3149732"/>
      <trkpt lat="-9.2593543" lon="148.3149220"/>
      <trkpt lat="-9.2591808" lon="148.3148707"/>
      <trkpt lat="-9.2590073" lon="148.3148194"/>
      <trkpt lat="-9.2588337" lon="148.3147681"/>
      <trkpt lat="-9.2586602" lon="148.3147169"/>
      <trkpt lat="-9.2584867" lon="148.3146656"/>
      <trkpt lat="-9.2583131" lon="148.3146143"/>
      <trkpt lat="-9.2581396" lon="148.3145630"/>
      <trkpt lat="-9.2579661" lon="148.3145117"/>
      <trkpt lat="-9.2577926" lon="148.3144605"/>
      <trkpt lat="-9.2576190" lon="148.3144092"/>
      <trkpt lat="-9.2574455" lon="148.3143579"/>
      <trkpt lat="-9.2572720" lon="148.3143066"/>
      <trkpt lat="-9.2570984" lon="148.3142554"/>
      <trkpt lat="-9.2569249" lon="148.3142041"/>
      <trkpt lat="-9.2567514" lon="148.3141528"/>
      <trkpt lat="-9.2565778" lon="148.3141015"/>
      <trkpt lat="-9.2564043" lon="148.3140503"/>
      <trkpt lat="-9.2562308" lon="148.3139990"/>
      <trkpt lat="-9.2560573" lon="148.3139477"/>
      <trkpt lat="-9.2558837" lon="148.3138964"/>
      <trkpt lat="-9.2557102" lon="148.3138451"/>
      <trkpt lat="-9.2555367" lon="148.3137939"/>
      <trkpt lat="-9.2553631" lon="148.3137426"/>
      <trkpt lat="-9.2551905" lon="148.3136886"/>
      <trkpt lat="-9.2550195" lon="148.3136298"/>
      <trkpt lat="-9.2548502" lon="148.3135661"/>
      <trkpt lat="-9.2546816" lon="148.3135002"/>
      <trkpt lat="-9.2545131" lon="148.3134343"/>
      <trkpt lat="-9.2543445" lon="148.3133684"/>
      <trkpt lat="-9.2541759" lon="148.3133024"/>
      <trkpt lat="-9.2540073" lon="148.3132365"/>
      <trkpt lat="-9.2538387" lon="148.3131706"/>
      <trkpt lat="-9.2536701" lon="148.3131047"/>
      <trkpt lat="-9.2535016" lon="148.3130388"/>
      <trkpt lat="-9.2533330" lon="148.3129729"/>
      <trkpt lat="-9.2531644" lon="148.3129070"/>
      <trkpt lat="-9.2529958" lon="148.3128411"/>
      <trkpt lat="-9.2528272" lon="148.3127752"/>
      <trkpt lat="-9.2526586" lon="148.3127093"/>
      <trkpt lat="-9.2524900" lon="148.3126434"/>
      <trkpt lat="-9.2523215" lon="148.3125775"/>
      <trkpt lat="-9.2521529" lon="148.3125116"/>
      <trkpt lat="-9.2519843" lon="148.3124457"/>
      <trkpt lat="-9.2518157" lon="148.3123797"/>
      <trkpt lat="-9.2516471" lon="148.3123138"/>
      <trkpt lat="-9.2514785" lon="148.3122479"/>
      <trkpt lat="-9.2513100" lon="148.3121820"/>
      <trkpt lat="-9.2511414" lon="148.3121161"/>
      <trkpt lat="-9.2509728" lon="148.3120502"/>
      <trkpt lat="-9.2508042" lon="148.3119843"/>
      <trkpt lat="-9.2506356" lon="148.3119184"/>
      <trkpt lat="-9.2504670" lon="148.3118525"/>
      <trkpt lat="-9.2502985" lon="148.3117866"/>
      <trkpt lat="-9.2501299" lon="148.3117207"/>
      <trkpt lat="-9.2499613" lon="148.3116548"/>
      <trkpt lat="-9.2497927" lon="148.3115889"/>
      <trkpt lat="-9.2496241" lon="148.3115230"/>
      <trkpt lat="-9.2494555" lon="148.3114571"/>
      <trkpt lat="-9.2492869" lon="148.3113912"/>
      <trkpt lat="-9.2491184" lon="148.3113252"/>
      <trkpt lat="-9.2489498" lon="148.3112593"/>
      <trkpt lat="-9.2487812" lon="148.3111934"/>
      <trkpt lat="-9.2486126" lon="148.3111275"/>
      <trkpt lat="-9.2484440" lon="148.3110616"/>
      <trkpt lat="-9.2482754" lon="148.3109957"/>
      <trkpt lat="-9.2481069" lon="148.3109298"/>
      <trkpt lat="-9.2479383" lon="148.3108639"/>
      <trkpt lat="-9.2477697" lon="148.3107980"/>
      <trkpt lat="-9.2476011" lon="148.3107321"/>
      <trkpt lat="-9.2474325" lon="148.3106662"/>
      <trkpt lat="-9.2472639" lon="148.3106003"/>
      <trkpt lat="-9.2470953" lon="148.3105344"/>
      <trkpt lat="-9.2469268" lon="148.3104685"/>
      <trkpt lat="-9.2467582" lon="148.3104026"/>
      <trkpt lat="-9.2465896" lon="148.3103367"/>
      <trkpt lat="-9.2464210" lon="148.3102708"/>
      <trkpt lat="-9.2462524" lon="148.3102049"/>
      <trkpt lat="-9.2460838" lon="148.3101390"/>
      <trkpt lat="-9.2459191" lon="148.3100788"/>
      <trkpt lat="-9.2457803" lon="148.3100755"/>
      <trkpt lat="-9.2456382" lon="148.3101048"/>
      <trkpt lat="-9.2454891" lon="148.3101607"/>
      <trkpt lat="-9.2453110" lon="148.3101921"/>
      <trkpt lat="-9.2451329" lon="148.3102235"/>
      <trkpt lat="-9.2449547" lon="148.3102549"/>
      <trkpt lat="-9.2447766" lon="148.3102862"/>
      <trkpt lat="-9.2445984" lon="148.3103176"/>
      <trkpt lat="-9.2444203" lon="148.3103490"/>
      <trkpt lat="-9.2442421" lon="148.3103804"/>
      <trkpt lat="-9.2440640" lon="148.3104118"/>
      <trkpt lat="-9.2438858" lon="148.3104432"/>
      <trkpt lat="-9.2437077" lon="148.3104745"/>
      <trkpt lat="-9.2435296" lon="148.3105059"/>
      <trkpt lat="-9.2433514" lon="148.3105373"/>
      <trkpt lat="-9.2431733" lon="148.3105687"/>
      <trkpt lat="-9.2429951" lon="148.3106001"/>
      <trkpt lat="-9.2428170" lon="148.3106315"/>
      <trkpt lat="-9.2426388" lon="148.3106628"/>
      <trkpt lat="-9.2424607" lon="148.3106942"/>
      <trkpt lat="-9.2422825" lon="148.3107256"/>
      <trkpt lat="-9.2421044" lon="148.3107570"/>
      <trkpt lat="-9.2419262" lon="148.3107884"/>
      <trkpt lat="-9.2417481" lon="148.3108197"/>
      <trkpt lat="-9.2415700" lon="148.3108511"/>
      <trkpt lat="-9.2413918" lon="148.3108825"/>
      <trkpt lat="-9.2412137" lon="148.3109139"/>
      <trkpt lat="-9.2410355" lon="148.3109453"/>
      <trkpt lat="-9.2408574" lon="148.3109767"/>
      <trkpt lat="-9.2406790" lon="148.3110066"/>
      <trkpt lat="-9.2405002" lon="148.3110339"/>
      <trkpt lat="-9.2403211" lon="148.3110586"/>
      <trkpt lat="-9.2401418" lon="148.3110821"/>
      <trkpt lat="-9.2399624" lon="148.3111057"/>
      <trkpt lat="-9.2397831" lon="148.3111293"/>
      <trkpt lat="-9.2396038" lon="148.3111528"/>
      <trkpt lat="-9.2394244" lon="148.3111764"/>
      <trkpt lat="-9.2392451" lon="148.3112000"/>
      <trkpt lat="-9.2390658" lon="148.3112235"/>
      <trkpt lat="-9.2388864" lon="148.3112471"/>
      <trkpt lat="-9.2387071" lon="148.3112707"/>
      <trkpt lat="-9.2385278" lon="148.3112942"/>
      <trkpt lat="-9.2383484" lon="148.3113178"/>
      <trkpt lat="-9.2381691" lon="148.3113414"/>
      <trkpt lat="-9.2379898" lon="148.3113649"/>
      <trkpt lat="-9.2378104" lon="148.3113885"/>
      <trkpt lat="-9.2376311" lon="148.3114121"/>
      <trkpt lat="-9.2374518" lon="148.3114356"/>
      <trkpt lat="-9.2372725" lon="148.3114592"/>
      <trkpt lat="-9.2371008" lon="148.3114817"/>
      <trkpt lat="-9.2369367" lon="148.3115033"/>
    </trkseg>
  </trk>
</gpx>
