<?xml version="1.0" encoding="UTF-8"?>
<gpx version="1.1" creator="MCA Maps — Managalas clan boundary survey"
     xmlns="http://www.topografix.com/GPX/1/1"
     xmlns:xsi="http://www.w3.org/2001/XMLSchema-instance"
     xsi:schemaLocation="http://www.topografix.com/GPX/1/1 http://www.topografix.com/GPX/1/1/gpx.xsd">
  <metadata>
    <name>Bujevi — clan land boundary</name>
    <desc>Bujevi, Zone 2. 5.8 km walked; 4.5 km still to walk in 1 gap</desc>
    <time>2026-08-23T00:00:00Z</time>
  </metadata>
  <wpt lat="-9.1083317" lon="148.2711333">
    <name>GAP 1 OF 1 START</name>
    <desc>4.47 km not walked. This straight line is not a boundary — it joins the two ends so the shape can be closed on paper. Bujevi, Zone 2.</desc>
    <sym>Flag</sym>
  </wpt>
  <wpt lat="-9.0864900" lon="148.2368717">
    <name>GAP 1 OF 1 END</name>
    <desc>4.47 km not walked. This straight line is not a boundary — it joins the two ends so the shape can be closed on paper. Bujevi, Zone 2.</desc>
    <sym>Flag</sym>
  </wpt>
  <trk>
    <name>GAP 1 OF 1 - NOT WALKED - 4.47 km</name>
    <desc>4.47 km not walked. This straight line is not a boundary — it joins the two ends so the shape can be closed on paper. Bujevi, Zone 2.</desc>
    <type>not-walked</type>
    <trkseg>
      <trkpt lat="-9.1083317" lon="148.2711333"/>
      <trkpt lat="-9.0864900" lon="148.2368717"/>
    </trkseg>
  </trk>
  <trk>
    <name>Bujevi - Abel Kajari</name>
    <desc>Walked by Abel Kajari. 5.8 km, 2 track(s), recorded on the ground. Bujevi, Zone 2.</desc>
    <type>walked-boundary</type>
    <trkseg>
      <trkpt lat="-9.1083317" lon="148.2711333"/>
      <trkpt lat="-9.1082316" lon="148.2711447"/>
      <trkpt lat="-9.1080999" lon="148.2711172"/>
      <trkpt lat="-9.1079362" lon="148.2710524"/>
      <trkpt lat="-9.1077631" lon="148.2710252"/>
      <trkpt lat="-9.1075875" lon="148.2710067"/>
      <trkpt lat="-9.1074231" lon="148.2709648"/>
      <trkpt lat="-9.1072814" lon="148.2708715"/>
      <trkpt lat="-9.1071504" lon="148.2707520"/>
      <trkpt lat="-9.1070324" lon="148.2706214"/>
      <trkpt lat="-9.1069229" lon="148.2704837"/>
      <trkpt lat="-9.1068336" lon="148.2703288"/>
      <trkpt lat="-9.1067397" lon="148.2701778"/>
      <trkpt lat="-9.1066418" lon="148.2700298"/>
      <trkpt lat="-9.1065442" lon="148.2698838"/>
      <trkpt lat="-9.1064747" lon="148.2697279"/>
      <trkpt lat="-9.1064202" lon="148.2695637"/>
      <trkpt lat="-9.1063382" lon="148.2694350"/>
      <trkpt lat="-9.1062129" lon="148.2693334"/>
      <trkpt lat="-9.1060500" lon="148.2692659"/>
      <trkpt lat="-9.1058840" lon="148.2692040"/>
      <trkpt lat="-9.1057103" lon="148.2691703"/>
      <trkpt lat="-9.1055335" lon="148.2691448"/>
      <trkpt lat="-9.1053598" lon="148.2691077"/>
      <trkpt lat="-9.1051915" lon="148.2690973"/>
      <trkpt lat="-9.1050353" lon="148.2690834"/>
      <trkpt lat="-9.1049270" lon="148.2690309"/>
      <trkpt lat="-9.1048512" lon="148.2688968"/>
      <trkpt lat="-9.1047956" lon="148.2687261"/>
      <trkpt lat="-9.1047428" lon="148.2685572"/>
      <trkpt lat="-9.1047371" lon="148.2683898"/>
      <trkpt lat="-9.1047780" lon="148.2682214"/>
      <trkpt lat="-9.1048242" lon="148.2680518"/>
      <trkpt lat="-9.1048160" lon="148.2678840"/>
      <trkpt lat="-9.1047666" lon="148.2677149"/>
      <trkpt lat="-9.1046847" lon="148.2675547"/>
      <trkpt lat="-9.1046192" lon="148.2673883"/>
      <trkpt lat="-9.1045355" lon="148.2672371"/>
      <trkpt lat="-9.1044465" lon="148.2670887"/>
      <trkpt lat="-9.1043332" lon="148.2669532"/>
      <trkpt lat="-9.1042100" lon="148.2668252"/>
      <trkpt lat="-9.1040797" lon="148.2667076"/>
      <trkpt lat="-9.1039467" lon="148.2665917"/>
      <trkpt lat="-9.1038158" lon="148.2664733"/>
      <trkpt lat="-9.1036722" lon="148.2663928"/>
      <trkpt lat="-9.1035316" lon="148.2663106"/>
      <trkpt lat="-9.1033871" lon="148.2662396"/>
      <trkpt lat="-9.1032449" lon="148.2661536"/>
      <trkpt lat="-9.1030841" lon="148.2661151"/>
      <trkpt lat="-9.1029196" lon="148.2661096"/>
      <trkpt lat="-9.1027900" lon="148.2661044"/>
      <trkpt lat="-9.1027183" lon="148.2660498"/>
      <trkpt lat="-9.1026466" lon="148.2659673"/>
      <trkpt lat="-9.1026130" lon="148.2658482"/>
      <trkpt lat="-9.1025549" lon="148.2657265"/>
      <trkpt lat="-9.1025125" lon="148.2655798"/>
      <trkpt lat="-9.1024248" lon="148.2654298"/>
      <trkpt lat="-9.1023254" lon="148.2652804"/>
      <trkpt lat="-9.1022528" lon="148.2651192"/>
      <trkpt lat="-9.1022233" lon="148.2649535"/>
      <trkpt lat="-9.1022454" lon="148.2647799"/>
      <trkpt lat="-9.1023024" lon="148.2646082"/>
      <trkpt lat="-9.1023592" lon="148.2644395"/>
      <trkpt lat="-9.1023984" lon="148.2642688"/>
      <trkpt lat="-9.1024084" lon="148.2640960"/>
      <trkpt lat="-9.1024148" lon="148.2639207"/>
      <trkpt lat="-9.1024158" lon="148.2637486"/>
      <trkpt lat="-9.1023790" lon="148.2635946"/>
      <trkpt lat="-9.1023076" lon="148.2634445"/>
      <trkpt lat="-9.1022066" lon="148.2633019"/>
      <trkpt lat="-9.1021415" lon="148.2631399"/>
      <trkpt lat="-9.1020766" lon="148.2630222"/>
      <trkpt lat="-9.1020611" lon="148.2628996"/>
      <trkpt lat="-9.1020939" lon="148.2627942"/>
      <trkpt lat="-9.1021379" lon="148.2626406"/>
      <trkpt lat="-9.1021665" lon="148.2624805"/>
      <trkpt lat="-9.1021501" lon="148.2623073"/>
      <trkpt lat="-9.1021393" lon="148.2622002"/>
      <trkpt lat="-9.1020993" lon="148.2621062"/>
      <trkpt lat="-9.1020417" lon="148.2620133"/>
      <trkpt lat="-9.1019590" lon="148.2618628"/>
      <trkpt lat="-9.1018969" lon="148.2617002"/>
      <trkpt lat="-9.1018443" lon="148.2615322"/>
      <trkpt lat="-9.1017869" lon="148.2613669"/>
      <trkpt lat="-9.1017284" lon="148.2612021"/>
      <trkpt lat="-9.1016528" lon="148.2610440"/>
      <trkpt lat="-9.1015798" lon="148.2608868"/>
      <trkpt lat="-9.1015074" lon="148.2607308"/>
      <trkpt lat="-9.1014519" lon="148.2605687"/>
      <trkpt lat="-9.1014349" lon="148.2603927"/>
      <trkpt lat="-9.1014000" lon="148.2602242"/>
      <trkpt lat="-9.1013281" lon="148.2600851"/>
      <trkpt lat="-9.1011945" lon="148.2599835"/>
      <trkpt lat="-9.1010359" lon="148.2599051"/>
      <trkpt lat="-9.1008889" lon="148.2598144"/>
      <trkpt lat="-9.1007837" lon="148.2596869"/>
      <trkpt lat="-9.1007028" lon="148.2595345"/>
      <trkpt lat="-9.1006435" lon="148.2593751"/>
      <trkpt lat="-9.1006118" lon="148.2592180"/>
      <trkpt lat="-9.1006148" lon="148.2590544"/>
      <trkpt lat="-9.1006225" lon="148.2588895"/>
      <trkpt lat="-9.1006033" lon="148.2587317"/>
    </trkseg>
    <trkseg>
      <trkpt lat="-9.1006950" lon="148.2588467"/>
      <trkpt lat="-9.1005839" lon="148.2587477"/>
      <trkpt lat="-9.1004811" lon="148.2587239"/>
      <trkpt lat="-9.1003648" lon="148.2587424"/>
      <trkpt lat="-9.1002417" lon="148.2588273"/>
      <trkpt lat="-9.1001084" lon="148.2589130"/>
      <trkpt lat="-9.0999973" lon="148.2590368"/>
      <trkpt lat="-9.0999118" lon="148.2591683"/>
      <trkpt lat="-9.0998273" lon="148.2592960"/>
      <trkpt lat="-9.0997312" lon="148.2594047"/>
      <trkpt lat="-9.0996014" lon="148.2594807"/>
      <trkpt lat="-9.0994625" lon="148.2595170"/>
      <trkpt lat="-9.0993262" lon="148.2595558"/>
      <trkpt lat="-9.0991736" lon="148.2595473"/>
      <trkpt lat="-9.0990565" lon="148.2594903"/>
      <trkpt lat="-9.0989649" lon="148.2593528"/>
      <trkpt lat="-9.0989326" lon="148.2591846"/>
      <trkpt lat="-9.0988893" lon="148.2590226"/>
      <trkpt lat="-9.0988095" lon="148.2588985"/>
      <trkpt lat="-9.0986670" lon="148.2588045"/>
      <trkpt lat="-9.0985807" lon="148.2587704"/>
      <trkpt lat="-9.0985837" lon="148.2587853"/>
      <trkpt lat="-9.0985913" lon="148.2587931"/>
      <trkpt lat="-9.0985224" lon="148.2587624"/>
      <trkpt lat="-9.0984373" lon="148.2586896"/>
      <trkpt lat="-9.0983563" lon="148.2586122"/>
      <trkpt lat="-9.0983008" lon="148.2585249"/>
      <trkpt lat="-9.0982238" lon="148.2584210"/>
      <trkpt lat="-9.0981602" lon="148.2583066"/>
      <trkpt lat="-9.0981313" lon="148.2581702"/>
      <trkpt lat="-9.0980902" lon="148.2580035"/>
      <trkpt lat="-9.0980997" lon="148.2578302"/>
      <trkpt lat="-9.0980981" lon="148.2576601"/>
      <trkpt lat="-9.0980812" lon="148.2575031"/>
      <trkpt lat="-9.0980204" lon="148.2573503"/>
      <trkpt lat="-9.0979316" lon="148.2572151"/>
      <trkpt lat="-9.0978804" lon="148.2570754"/>
      <trkpt lat="-9.0978646" lon="148.2570467"/>
      <trkpt lat="-9.0979028" lon="148.2570190"/>
      <trkpt lat="-9.0979500" lon="148.2569870"/>
      <trkpt lat="-9.0979709" lon="148.2568385"/>
      <trkpt lat="-9.0979331" lon="148.2566859"/>
      <trkpt lat="-9.0978454" lon="148.2565399"/>
      <trkpt lat="-9.0977437" lon="148.2564026"/>
      <trkpt lat="-9.0976614" lon="148.2562517"/>
      <trkpt lat="-9.0975892" lon="148.2560959"/>
      <trkpt lat="-9.0975254" lon="148.2559397"/>
      <trkpt lat="-9.0974647" lon="148.2557973"/>
      <trkpt lat="-9.0974334" lon="148.2557045"/>
      <trkpt lat="-9.0973805" lon="148.2556183"/>
      <trkpt lat="-9.0973001" lon="148.2555290"/>
      <trkpt lat="-9.0972208" lon="148.2554471"/>
      <trkpt lat="-9.0971532" lon="148.2553713"/>
      <trkpt lat="-9.0971336" lon="148.2553747"/>
      <trkpt lat="-9.0970940" lon="148.2553174"/>
      <trkpt lat="-9.0970629" lon="148.2552448"/>
      <trkpt lat="-9.0969796" lon="148.2550974"/>
      <trkpt lat="-9.0968576" lon="148.2549803"/>
      <trkpt lat="-9.0967862" lon="148.2549268"/>
      <trkpt lat="-9.0967618" lon="148.2549049"/>
      <trkpt lat="-9.0967908" lon="148.2548805"/>
      <trkpt lat="-9.0968181" lon="148.2547924"/>
      <trkpt lat="-9.0968170" lon="148.2546589"/>
      <trkpt lat="-9.0967799" lon="148.2545053"/>
      <trkpt lat="-9.0966800" lon="148.2543550"/>
      <trkpt lat="-9.0965980" lon="148.2542486"/>
      <trkpt lat="-9.0965077" lon="148.2541665"/>
      <trkpt lat="-9.0964098" lon="148.2540917"/>
      <trkpt lat="-9.0962826" lon="148.2539802"/>
      <trkpt lat="-9.0961879" lon="148.2538339"/>
      <trkpt lat="-9.0961257" lon="148.2536687"/>
      <trkpt lat="-9.0960845" lon="148.2534929"/>
      <trkpt lat="-9.0960445" lon="148.2533196"/>
      <trkpt lat="-9.0960126" lon="148.2531558"/>
      <trkpt lat="-9.0959925" lon="148.2529917"/>
      <trkpt lat="-9.0959989" lon="148.2528253"/>
      <trkpt lat="-9.0960022" lon="148.2526491"/>
      <trkpt lat="-9.0959765" lon="148.2524830"/>
      <trkpt lat="-9.0958943" lon="148.2523392"/>
      <trkpt lat="-9.0958000" lon="148.2522319"/>
      <trkpt lat="-9.0957426" lon="148.2521502"/>
      <trkpt lat="-9.0956778" lon="148.2520761"/>
      <trkpt lat="-9.0955802" lon="148.2519998"/>
      <trkpt lat="-9.0954400" lon="148.2519002"/>
      <trkpt lat="-9.0952980" lon="148.2517973"/>
      <trkpt lat="-9.0951670" lon="148.2516789"/>
      <trkpt lat="-9.0950296" lon="148.2515697"/>
      <trkpt lat="-9.0949013" lon="148.2514508"/>
      <trkpt lat="-9.0947806" lon="148.2513241"/>
      <trkpt lat="-9.0946626" lon="148.2511915"/>
      <trkpt lat="-9.0945646" lon="148.2510481"/>
      <trkpt lat="-9.0944586" lon="148.2509096"/>
      <trkpt lat="-9.0943683" lon="148.2507596"/>
      <trkpt lat="-9.0942975" lon="148.2506570"/>
      <trkpt lat="-9.0942358" lon="148.2505584"/>
      <trkpt lat="-9.0942213" lon="148.2504952"/>
      <trkpt lat="-9.0941808" lon="148.2503844"/>
      <trkpt lat="-9.0941579" lon="148.2502557"/>
      <trkpt lat="-9.0940810" lon="148.2500991"/>
      <trkpt lat="-9.0939827" lon="148.2499661"/>
      <trkpt lat="-9.0938493" lon="148.2498567"/>
      <trkpt lat="-9.0936990" lon="148.2497792"/>
      <trkpt lat="-9.0935632" lon="148.2496825"/>
      <trkpt lat="-9.0934589" lon="148.2495624"/>
      <trkpt lat="-9.0933619" lon="148.2494194"/>
      <trkpt lat="-9.0932975" lon="148.2492868"/>
      <trkpt lat="-9.0932797" lon="148.2491944"/>
      <trkpt lat="-9.0932555" lon="148.2491241"/>
      <trkpt lat="-9.0932192" lon="148.2490332"/>
      <trkpt lat="-9.0931626" lon="148.2489264"/>
      <trkpt lat="-9.0931187" lon="148.2487952"/>
      <trkpt lat="-9.0930506" lon="148.2486767"/>
      <trkpt lat="-9.0929358" lon="148.2485534"/>
      <trkpt lat="-9.0928271" lon="148.2484186"/>
      <trkpt lat="-9.0927155" lon="148.2482879"/>
      <trkpt lat="-9.0926132" lon="148.2481427"/>
      <trkpt lat="-9.0925496" lon="148.2480051"/>
      <trkpt lat="-9.0925367" lon="148.2478650"/>
    </trkseg>
    <trkseg>
      <trkpt lat="-9.0924317" lon="148.2478567"/>
      <trkpt lat="-9.0924108" lon="148.2476779"/>
      <trkpt lat="-9.0923882" lon="148.2474998"/>
      <trkpt lat="-9.0923376" lon="148.2473332"/>
      <trkpt lat="-9.0922800" lon="148.2471703"/>
      <trkpt lat="-9.0922291" lon="148.2470061"/>
      <trkpt lat="-9.0922029" lon="148.2468312"/>
      <trkpt lat="-9.0922103" lon="148.2466553"/>
      <trkpt lat="-9.0922143" lon="148.2464810"/>
      <trkpt lat="-9.0921964" lon="148.2463611"/>
      <trkpt lat="-9.0921294" lon="148.2462636"/>
      <trkpt lat="-9.0920469" lon="148.2461699"/>
      <trkpt lat="-9.0920098" lon="148.2460429"/>
      <trkpt lat="-9.0920059" lon="148.2458898"/>
      <trkpt lat="-9.0920170" lon="148.2457315"/>
      <trkpt lat="-9.0920348" lon="148.2455660"/>
      <trkpt lat="-9.0920593" lon="148.2454205"/>
      <trkpt lat="-9.0920852" lon="148.2452851"/>
      <trkpt lat="-9.0920815" lon="148.2451445"/>
      <trkpt lat="-9.0920956" lon="148.2450098"/>
      <trkpt lat="-9.0920944" lon="148.2448759"/>
      <trkpt lat="-9.0920870" lon="148.2447345"/>
      <trkpt lat="-9.0920359" lon="148.2445766"/>
      <trkpt lat="-9.0919952" lon="148.2444469"/>
      <trkpt lat="-9.0919623" lon="148.2443764"/>
      <trkpt lat="-9.0919433" lon="148.2443583"/>
    </trkseg>
    <trkseg>
      <trkpt lat="-9.0918617" lon="148.2443017"/>
      <trkpt lat="-9.0917874" lon="148.2441379"/>
      <trkpt lat="-9.0917180" lon="148.2439726"/>
      <trkpt lat="-9.0916771" lon="148.2438458"/>
      <trkpt lat="-9.0916383" lon="148.2438048"/>
      <trkpt lat="-9.0916164" lon="148.2437604"/>
      <trkpt lat="-9.0915810" lon="148.2436727"/>
      <trkpt lat="-9.0915546" lon="148.2434946"/>
      <trkpt lat="-9.0915063" lon="148.2433286"/>
      <trkpt lat="-9.0914281" lon="148.2431821"/>
      <trkpt lat="-9.0913521" lon="148.2430416"/>
      <trkpt lat="-9.0912850" lon="148.2429331"/>
      <trkpt lat="-9.0912615" lon="148.2428481"/>
      <trkpt lat="-9.0912399" lon="148.2427692"/>
      <trkpt lat="-9.0912459" lon="148.2426508"/>
      <trkpt lat="-9.0912424" lon="148.2424908"/>
      <trkpt lat="-9.0912386" lon="148.2423182"/>
      <trkpt lat="-9.0911791" lon="148.2421681"/>
      <trkpt lat="-9.0911042" lon="148.2420774"/>
      <trkpt lat="-9.0910183" lon="148.2420467"/>
    </trkseg>
    <trkseg>
      <trkpt lat="-9.0912000" lon="148.2419483"/>
      <trkpt lat="-9.0912029" lon="148.2417904"/>
      <trkpt lat="-9.0911625" lon="148.2416428"/>
      <trkpt lat="-9.0910485" lon="148.2415652"/>
      <trkpt lat="-9.0909130" lon="148.2415415"/>
      <trkpt lat="-9.0907938" lon="148.2415638"/>
      <trkpt lat="-9.0907442" lon="148.2415707"/>
      <trkpt lat="-9.0907367" lon="148.2415507"/>
      <trkpt lat="-9.0907165" lon="148.2414758"/>
      <trkpt lat="-9.0906580" lon="148.2413974"/>
      <trkpt lat="-9.0905833" lon="148.2413350"/>
    </trkseg>
    <trkseg>
      <trkpt lat="-9.0910117" lon="148.2420733"/>
      <trkpt lat="-9.0908498" lon="148.2421471"/>
      <trkpt lat="-9.0906858" lon="148.2422190"/>
      <trkpt lat="-9.0905189" lon="148.2422703"/>
      <trkpt lat="-9.0903476" lon="148.2422752"/>
      <trkpt lat="-9.0901735" lon="148.2422503"/>
      <trkpt lat="-9.0900042" lon="148.2422482"/>
      <trkpt lat="-9.0898338" lon="148.2422773"/>
      <trkpt lat="-9.0896819" lon="148.2422854"/>
      <trkpt lat="-9.0895492" lon="148.2422197"/>
      <trkpt lat="-9.0894274" lon="148.2421037"/>
      <trkpt lat="-9.0893098" lon="148.2419717"/>
      <trkpt lat="-9.0891944" lon="148.2418380"/>
      <trkpt lat="-9.0890754" lon="148.2417139"/>
      <trkpt lat="-9.0889670" lon="148.2415828"/>
      <trkpt lat="-9.0888426" lon="148.2414662"/>
      <trkpt lat="-9.0887311" lon="148.2413411"/>
      <trkpt lat="-9.0885999" lon="148.2412368"/>
      <trkpt lat="-9.0884700" lon="148.2411367"/>
    </trkseg>
    <trkseg>
      <trkpt lat="-9.0885500" lon="148.2410450"/>
      <trkpt lat="-9.0886008" lon="148.2408900"/>
      <trkpt lat="-9.0886000" lon="148.2408850"/>
    </trkseg>
    <trkseg>
      <trkpt lat="-9.0886050" lon="148.2407850"/>
      <trkpt lat="-9.0885133" lon="148.2406563"/>
      <trkpt lat="-9.0884400" lon="148.2405152"/>
      <trkpt lat="-9.0884170" lon="148.2403627"/>
      <trkpt lat="-9.0884342" lon="148.2402093"/>
      <trkpt lat="-9.0885050" lon="148.2400555"/>
      <trkpt lat="-9.0886044" lon="148.2399076"/>
      <trkpt lat="-9.0887291" lon="148.2397864"/>
      <trkpt lat="-9.0888590" lon="148.2396702"/>
      <trkpt lat="-9.0889281" lon="148.2395474"/>
      <trkpt lat="-9.0889239" lon="148.2393957"/>
      <trkpt lat="-9.0888795" lon="148.2392317"/>
      <trkpt lat="-9.0888815" lon="148.2390634"/>
      <trkpt lat="-9.0889576" lon="148.2389355"/>
      <trkpt lat="-9.0890507" lon="148.2388649"/>
      <trkpt lat="-9.0891333" lon="148.2388483"/>
    </trkseg>
    <trkseg>
      <trkpt lat="-9.0890083" lon="148.2388333"/>
      <trkpt lat="-9.0889936" lon="148.2386556"/>
      <trkpt lat="-9.0890185" lon="148.2384849"/>
      <trkpt lat="-9.0890657" lon="148.2383152"/>
      <trkpt lat="-9.0891090" lon="148.2381477"/>
      <trkpt lat="-9.0891080" lon="148.2379779"/>
      <trkpt lat="-9.0890770" lon="148.2378235"/>
      <trkpt lat="-9.0890757" lon="148.2376877"/>
      <trkpt lat="-9.0891111" lon="148.2375708"/>
      <trkpt lat="-9.0891395" lon="148.2374440"/>
      <trkpt lat="-9.0891511" lon="148.2373626"/>
      <trkpt lat="-9.0891316" lon="148.2372675"/>
      <trkpt lat="-9.0891179" lon="148.2372555"/>
      <trkpt lat="-9.0890538" lon="148.2372270"/>
      <trkpt lat="-9.0889617" lon="148.2372367"/>
    </trkseg>
    <trkseg>
      <trkpt lat="-9.0888483" lon="148.2372333"/>
      <trkpt lat="-9.0886689" lon="148.2372304"/>
      <trkpt lat="-9.0884917" lon="148.2372276"/>
      <trkpt lat="-9.0883164" lon="148.2372259"/>
      <trkpt lat="-9.0881791" lon="148.2372284"/>
      <trkpt lat="-9.0880783" lon="148.2372233"/>
    </trkseg>
    <trkseg>
      <trkpt lat="-9.0879950" lon="148.2371833"/>
      <trkpt lat="-9.0878211" lon="148.2372109"/>
      <trkpt lat="-9.0876458" lon="148.2372351"/>
      <trkpt lat="-9.0874704" lon="148.2372340"/>
      <trkpt lat="-9.0873021" lon="148.2371947"/>
      <trkpt lat="-9.0871340" lon="148.2371367"/>
      <trkpt lat="-9.0869704" lon="148.2370724"/>
      <trkpt lat="-9.0868150" lon="148.2370041"/>
      <trkpt lat="-9.0866599" lon="148.2369351"/>
      <trkpt lat="-9.0865551" lon="148.2368872"/>
      <trkpt lat="-9.0864900" lon="148.2368717"/>
    </trkseg>
    <trkseg>
      <trkpt lat="-9.0864033" lon="148.2368333"/>
      <trkpt lat="-9.0862350" lon="148.2368415"/>
      <trkpt lat="-9.0860750" lon="148.2368225"/>
      <trkpt lat="-9.0859370" lon="148.2367550"/>
      <trkpt lat="-9.0858026" lon="148.2366461"/>
      <trkpt lat="-9.0856634" lon="148.2365392"/>
      <trkpt lat="-9.0855023" lon="148.2364885"/>
      <trkpt lat="-9.0853330" lon="148.2364854"/>
      <trkpt lat="-9.0851922" lon="148.2365019"/>
      <trkpt lat="-9.0850833" lon="148.2365050"/>
    </trkseg>
    <trkseg>
      <trkpt lat="-9.0849583" lon="148.2365333"/>
      <trkpt lat="-9.0847822" lon="148.2365116"/>
      <trkpt lat="-9.0846123" lon="148.2364733"/>
      <trkpt lat="-9.0844508" lon="148.2364147"/>
      <trkpt lat="-9.0843097" lon="148.2363129"/>
      <trkpt lat="-9.0841755" lon="148.2362007"/>
      <trkpt lat="-9.0840358" lon="148.2360987"/>
      <trkpt lat="-9.0839201" lon="148.2360038"/>
      <trkpt lat="-9.0838383" lon="148.2359067"/>
    </trkseg>
  </trk>
</gpx>
