<?xml version="1.0" encoding="UTF-8"?>
<gpx version="1.1" creator="MCA Maps — Managalas clan boundary survey"
     xmlns="http://www.topografix.com/GPX/1/1"
     xmlns:xsi="http://www.w3.org/2001/XMLSchema-instance"
     xsi:schemaLocation="http://www.topografix.com/GPX/1/1 http://www.topografix.com/GPX/1/1/gpx.xsd">
  <metadata>
    <name>Deari — clan land boundary</name>
    <desc>Deari, Zone 3. 13.1 km walked; 8.7 km still to walk in 3 gaps</desc>
    <time>2026-08-18T00:00:00Z</time>
  </metadata>
  <wpt lat="-9.1323144" lon="148.3151331">
    <name>GAP 1 OF 3 START</name>
    <desc>2.16 km not walked. This straight line is not a boundary — it joins the two ends so the shape can be closed on paper. Deari, Zone 3.</desc>
    <sym>Flag</sym>
  </wpt>
  <wpt lat="-9.1308134" lon="148.3347740">
    <name>GAP 1 OF 3 END</name>
    <desc>2.16 km not walked. This straight line is not a boundary — it joins the two ends so the shape can be closed on paper. Deari, Zone 3.</desc>
    <sym>Flag</sym>
  </wpt>
  <wpt lat="-9.1364303" lon="148.3460654">
    <name>GAP 2 OF 3 START</name>
    <desc>3.65 km not walked. This straight line is not a boundary — it joins the two ends so the shape can be closed on paper. Deari, Zone 3.</desc>
    <sym>Flag</sym>
  </wpt>
  <wpt lat="-9.1691977" lon="148.3498195">
    <name>GAP 2 OF 3 END</name>
    <desc>3.65 km not walked. This straight line is not a boundary — it joins the two ends so the shape can be closed on paper. Deari, Zone 3.</desc>
    <sym>Flag</sym>
  </wpt>
  <wpt lat="-9.1813661" lon="148.3501966">
    <name>GAP 3 OF 3 START</name>
    <desc>2.92 km not walked. This straight line is not a boundary — it joins the two ends so the shape can be closed on paper. Deari, Zone 3.</desc>
    <sym>Flag</sym>
  </wpt>
  <wpt lat="-9.1595029" lon="148.3352391">
    <name>GAP 3 OF 3 END</name>
    <desc>2.92 km not walked. This straight line is not a boundary — it joins the two ends so the shape can be closed on paper. Deari, Zone 3.</desc>
    <sym>Flag</sym>
  </wpt>
  <trk>
    <name>GAP 1 OF 3 - NOT WALKED - 2.16 km</name>
    <desc>2.16 km not walked. This straight line is not a boundary — it joins the two ends so the shape can be closed on paper. Deari, Zone 3.</desc>
    <type>not-walked</type>
    <trkseg>
      <trkpt lat="-9.1323144" lon="148.3151331"/>
      <trkpt lat="-9.1308134" lon="148.3347740"/>
    </trkseg>
  </trk>
  <trk>
    <name>GAP 2 OF 3 - NOT WALKED - 3.65 km</name>
    <desc>3.65 km not walked. This straight line is not a boundary — it joins the two ends so the shape can be closed on paper. Deari, Zone 3.</desc>
    <type>not-walked</type>
    <trkseg>
      <trkpt lat="-9.1364303" lon="148.3460654"/>
      <trkpt lat="-9.1691977" lon="148.3498195"/>
    </trkseg>
  </trk>
  <trk>
    <name>GAP 3 OF 3 - NOT WALKED - 2.92 km</name>
    <desc>2.92 km not walked. This straight line is not a boundary — it joins the two ends so the shape can be closed on paper. Deari, Zone 3.</desc>
    <type>not-walked</type>
    <trkseg>
      <trkpt lat="-9.1813661" lon="148.3501966"/>
      <trkpt lat="-9.1595029" lon="148.3352391"/>
    </trkseg>
  </trk>
  <trk>
    <name>Deari - Anthony Irimari</name>
    <desc>Walked by Anthony Irimari. 5.3 km, 2 track(s), recorded on the ground. Deari, Zone 3.</desc>
    <type>walked-boundary</type>
    <trkseg>
      <trkpt lat="-9.1033685" lon="148.3090547"/>
      <trkpt lat="-9.1034023" lon="148.3092313"/>
      <trkpt lat="-9.1034139" lon="148.3094100"/>
      <trkpt lat="-9.1033861" lon="148.3095822"/>
      <trkpt lat="-9.1033671" lon="148.3097529"/>
      <trkpt lat="-9.1033718" lon="148.3099218"/>
      <trkpt lat="-9.1034316" lon="148.3100907"/>
      <trkpt lat="-9.1035154" lon="148.3102461"/>
      <trkpt lat="-9.1035810" lon="148.3104037"/>
      <trkpt lat="-9.1036346" lon="148.3105554"/>
      <trkpt lat="-9.1036976" lon="148.3106660"/>
      <trkpt lat="-9.1037824" lon="148.3107717"/>
      <trkpt lat="-9.1038527" lon="148.3108919"/>
      <trkpt lat="-9.1038687" lon="148.3110675"/>
      <trkpt lat="-9.1038702" lon="148.3112429"/>
      <trkpt lat="-9.1039195" lon="148.3113856"/>
      <trkpt lat="-9.1040157" lon="148.3115057"/>
      <trkpt lat="-9.1041233" lon="148.3116275"/>
      <trkpt lat="-9.1041987" lon="148.3117648"/>
      <trkpt lat="-9.1042671" lon="148.3118275"/>
      <trkpt lat="-9.1043145" lon="148.3118319"/>
      <trkpt lat="-9.1043759" lon="148.3118080"/>
      <trkpt lat="-9.1044020" lon="148.3118043"/>
      <trkpt lat="-9.1044169" lon="148.3117903"/>
      <trkpt lat="-9.1044079" lon="148.3117612"/>
      <trkpt lat="-9.1043908" lon="148.3117992"/>
      <trkpt lat="-9.1043921" lon="148.3118222"/>
      <trkpt lat="-9.1044128" lon="148.3118352"/>
      <trkpt lat="-9.1044288" lon="148.3117943"/>
      <trkpt lat="-9.1044331" lon="148.3117760"/>
      <trkpt lat="-9.1044275" lon="148.3117911"/>
      <trkpt lat="-9.1044582" lon="148.3118334"/>
    </trkseg>
    <trkseg>
      <trkpt lat="-9.1055530" lon="148.3139637"/>
      <trkpt lat="-9.1057300" lon="148.3139724"/>
      <trkpt lat="-9.1058899" lon="148.3139306"/>
      <trkpt lat="-9.1060116" lon="148.3138257"/>
      <trkpt lat="-9.1061143" lon="148.3136839"/>
      <trkpt lat="-9.1062228" lon="148.3135484"/>
      <trkpt lat="-9.1063621" lon="148.3134490"/>
      <trkpt lat="-9.1065169" lon="148.3134106"/>
      <trkpt lat="-9.1066825" lon="148.3134052"/>
      <trkpt lat="-9.1068554" lon="148.3134081"/>
      <trkpt lat="-9.1070298" lon="148.3134106"/>
      <trkpt lat="-9.1071910" lon="148.3134557"/>
      <trkpt lat="-9.1073371" lon="148.3135530"/>
      <trkpt lat="-9.1074735" lon="148.3136720"/>
      <trkpt lat="-9.1075685" lon="148.3137550"/>
      <trkpt lat="-9.1076237" lon="148.3138001"/>
    </trkseg>
    <trkseg>
      <trkpt lat="-9.1595029" lon="148.3352391"/>
      <trkpt lat="-9.1594461" lon="148.3350796"/>
      <trkpt lat="-9.1593612" lon="148.3349508"/>
      <trkpt lat="-9.1593078" lon="148.3348242"/>
      <trkpt lat="-9.1593166" lon="148.3346899"/>
      <trkpt lat="-9.1593914" lon="148.3345283"/>
      <trkpt lat="-9.1594389" lon="148.3343648"/>
      <trkpt lat="-9.1594133" lon="148.3342075"/>
      <trkpt lat="-9.1593309" lon="148.3340554"/>
      <trkpt lat="-9.1592451" lon="148.3339048"/>
      <trkpt lat="-9.1592253" lon="148.3337442"/>
      <trkpt lat="-9.1592492" lon="148.3335807"/>
      <trkpt lat="-9.1592562" lon="148.3334223"/>
      <trkpt lat="-9.1591972" lon="148.3332790"/>
      <trkpt lat="-9.1591337" lon="148.3331606"/>
      <trkpt lat="-9.1590713" lon="148.3330431"/>
      <trkpt lat="-9.1590263" lon="148.3329116"/>
      <trkpt lat="-9.1589632" lon="148.3327634"/>
      <trkpt lat="-9.1589012" lon="148.3326205"/>
      <trkpt lat="-9.1589188" lon="148.3325260"/>
      <trkpt lat="-9.1589714" lon="148.3324333"/>
      <trkpt lat="-9.1591040" lon="148.3323605"/>
      <trkpt lat="-9.1591374" lon="148.3322718"/>
      <trkpt lat="-9.1591589" lon="148.3322286"/>
      <trkpt lat="-9.1591579" lon="148.3322071"/>
      <trkpt lat="-9.1591807" lon="148.3322228"/>
      <trkpt lat="-9.1591555" lon="148.3322531"/>
      <trkpt lat="-9.1591347" lon="148.3322512"/>
      <trkpt lat="-9.1591072" lon="148.3321894"/>
      <trkpt lat="-9.1590642" lon="148.3321260"/>
      <trkpt lat="-9.1589346" lon="148.3321277"/>
      <trkpt lat="-9.1587838" lon="148.3321822"/>
      <trkpt lat="-9.1586598" lon="148.3321691"/>
      <trkpt lat="-9.1585334" lon="148.3321174"/>
      <trkpt lat="-9.1583982" lon="148.3320810"/>
      <trkpt lat="-9.1582423" lon="148.3321320"/>
      <trkpt lat="-9.1580888" lon="148.3321807"/>
      <trkpt lat="-9.1579479" lon="148.3321608"/>
      <trkpt lat="-9.1578383" lon="148.3320692"/>
      <trkpt lat="-9.1577782" lon="148.3319626"/>
      <trkpt lat="-9.1577679" lon="148.3319328"/>
      <trkpt lat="-9.1577568" lon="148.3319027"/>
      <trkpt lat="-9.1576961" lon="148.3318716"/>
      <trkpt lat="-9.1575773" lon="148.3317811"/>
      <trkpt lat="-9.1574219" lon="148.3316984"/>
      <trkpt lat="-9.1572945" lon="148.3315891"/>
      <trkpt lat="-9.1571647" lon="148.3314799"/>
      <trkpt lat="-9.1570987" lon="148.3313776"/>
      <trkpt lat="-9.1570065" lon="148.3313355"/>
      <trkpt lat="-9.1569122" lon="148.3313285"/>
      <trkpt lat="-9.1568113" lon="148.3312977"/>
      <trkpt lat="-9.1567759" lon="148.3312031"/>
      <trkpt lat="-9.1567713" lon="148.3310470"/>
      <trkpt lat="-9.1567050" lon="148.3309298"/>
      <trkpt lat="-9.1565714" lon="148.3308757"/>
      <trkpt lat="-9.1564484" lon="148.3308183"/>
      <trkpt lat="-9.1563345" lon="148.3307342"/>
      <trkpt lat="-9.1562140" lon="148.3306364"/>
      <trkpt lat="-9.1560913" lon="148.3305373"/>
      <trkpt lat="-9.1559611" lon="148.3304589"/>
      <trkpt lat="-9.1558325" lon="148.3304053"/>
      <trkpt lat="-9.1556634" lon="148.3303985"/>
      <trkpt lat="-9.1554996" lon="148.3303787"/>
      <trkpt lat="-9.1553884" lon="148.3302836"/>
      <trkpt lat="-9.1553209" lon="148.3301460"/>
      <trkpt lat="-9.1552676" lon="148.3299924"/>
      <trkpt lat="-9.1551767" lon="148.3298569"/>
      <trkpt lat="-9.1550463" lon="148.3297455"/>
      <trkpt lat="-9.1548937" lon="148.3296859"/>
      <trkpt lat="-9.1547282" lon="148.3296622"/>
      <trkpt lat="-9.1546162" lon="148.3296169"/>
      <trkpt lat="-9.1545132" lon="148.3295319"/>
      <trkpt lat="-9.1544069" lon="148.3294448"/>
      <trkpt lat="-9.1542451" lon="148.3293924"/>
      <trkpt lat="-9.1540983" lon="148.3293230"/>
      <trkpt lat="-9.1539595" lon="148.3292814"/>
      <trkpt lat="-9.1538213" lon="148.3292754"/>
      <trkpt lat="-9.1536579" lon="148.3293098"/>
      <trkpt lat="-9.1534867" lon="148.3293136"/>
      <trkpt lat="-9.1533103" lon="148.3293072"/>
      <trkpt lat="-9.1531449" lon="148.3293084"/>
      <trkpt lat="-9.1529802" lon="148.3293054"/>
      <trkpt lat="-9.1528631" lon="148.3292455"/>
      <trkpt lat="-9.1527846" lon="148.3291266"/>
      <trkpt lat="-9.1527285" lon="148.3289737"/>
      <trkpt lat="-9.1526297" lon="148.3288405"/>
      <trkpt lat="-9.1524899" lon="148.3287443"/>
      <trkpt lat="-9.1523408" lon="148.3286791"/>
      <trkpt lat="-9.1522102" lon="148.3286145"/>
      <trkpt lat="-9.1520832" lon="148.3285415"/>
      <trkpt lat="-9.1519438" lon="148.3284685"/>
      <trkpt lat="-9.1517796" lon="148.3284317"/>
      <trkpt lat="-9.1516062" lon="148.3284341"/>
      <trkpt lat="-9.1514371" lon="148.3284599"/>
      <trkpt lat="-9.1512805" lon="148.3285086"/>
      <trkpt lat="-9.1511248" lon="148.3285265"/>
      <trkpt lat="-9.1509634" lon="148.3285340"/>
      <trkpt lat="-9.1507998" lon="148.3284814"/>
      <trkpt lat="-9.1506419" lon="148.3284176"/>
      <trkpt lat="-9.1504977" lon="148.3283178"/>
      <trkpt lat="-9.1503520" lon="148.3282130"/>
      <trkpt lat="-9.1501969" lon="148.3281325"/>
      <trkpt lat="-9.1500273" lon="148.3280975"/>
      <trkpt lat="-9.1498490" lon="148.3280928"/>
      <trkpt lat="-9.1496780" lon="148.3280704"/>
      <trkpt lat="-9.1495201" lon="148.3280065"/>
      <trkpt lat="-9.1493757" lon="148.3279060"/>
      <trkpt lat="-9.1492295" lon="148.3278034"/>
      <trkpt lat="-9.1490986" lon="148.3277028"/>
      <trkpt lat="-9.1489880" lon="148.3275951"/>
      <trkpt lat="-9.1489256" lon="148.3274837"/>
      <trkpt lat="-9.1489038" lon="148.3273831"/>
      <trkpt lat="-9.1489100" lon="148.3273259"/>
      <trkpt lat="-9.1488935" lon="148.3273198"/>
      <trkpt lat="-9.1488931" lon="148.3272893"/>
      <trkpt lat="-9.1488879" lon="148.3272183"/>
      <trkpt lat="-9.1488910" lon="148.3270701"/>
      <trkpt lat="-9.1488167" lon="148.3269412"/>
      <trkpt lat="-9.1487322" lon="148.3268015"/>
      <trkpt lat="-9.1486570" lon="148.3266696"/>
      <trkpt lat="-9.1486592" lon="148.3265175"/>
      <trkpt lat="-9.1486366" lon="148.3263976"/>
      <trkpt lat="-9.1486785" lon="148.3263005"/>
      <trkpt lat="-9.1486958" lon="148.3262572"/>
      <trkpt lat="-9.1487484" lon="148.3262370"/>
      <trkpt lat="-9.1487450" lon="148.3262717"/>
      <trkpt lat="-9.1486967" lon="148.3263365"/>
      <trkpt lat="-9.1486165" lon="148.3263986"/>
      <trkpt lat="-9.1485938" lon="148.3264073"/>
      <trkpt lat="-9.1485974" lon="148.3263716"/>
      <trkpt lat="-9.1486273" lon="148.3263487"/>
      <trkpt lat="-9.1485807" lon="148.3262958"/>
      <trkpt lat="-9.1485203" lon="148.3262006"/>
      <trkpt lat="-9.1484428" lon="148.3260386"/>
      <trkpt lat="-9.1483859" lon="148.3258732"/>
      <trkpt lat="-9.1483299" lon="148.3257100"/>
      <trkpt lat="-9.1483057" lon="148.3255443"/>
      <trkpt lat="-9.1482870" lon="148.3253771"/>
      <trkpt lat="-9.1482857" lon="148.3252001"/>
      <trkpt lat="-9.1482513" lon="148.3250265"/>
      <trkpt lat="-9.1481828" lon="148.3248600"/>
      <trkpt lat="-9.1480874" lon="148.3247087"/>
      <trkpt lat="-9.1479794" lon="148.3245673"/>
      <trkpt lat="-9.1478459" lon="148.3244551"/>
      <trkpt lat="-9.1476959" lon="148.3243670"/>
      <trkpt lat="-9.1475375" lon="148.3242896"/>
      <trkpt lat="-9.1473943" lon="148.3241923"/>
      <trkpt lat="-9.1472933" lon="148.3240559"/>
      <trkpt lat="-9.1472181" lon="148.3238980"/>
      <trkpt lat="-9.1471471" lon="148.3237349"/>
      <trkpt lat="-9.1470597" lon="148.3235787"/>
      <trkpt lat="-9.1469607" lon="148.3234271"/>
      <trkpt lat="-9.1468781" lon="148.3232669"/>
      <trkpt lat="-9.1467848" lon="148.3231156"/>
      <trkpt lat="-9.1466948" lon="148.3229631"/>
      <trkpt lat="-9.1465964" lon="148.3228161"/>
      <trkpt lat="-9.1465257" lon="148.3226935"/>
      <trkpt lat="-9.1465087" lon="148.3226309"/>
      <trkpt lat="-9.1464764" lon="148.3226589"/>
      <trkpt lat="-9.1464737" lon="148.3226901"/>
      <trkpt lat="-9.1464210" lon="148.3226599"/>
      <trkpt lat="-9.1463917" lon="148.3225381"/>
      <trkpt lat="-9.1463193" lon="148.3223849"/>
      <trkpt lat="-9.1462285" lon="148.3222450"/>
      <trkpt lat="-9.1461456" lon="148.3221007"/>
      <trkpt lat="-9.1460879" lon="148.3219442"/>
      <trkpt lat="-9.1460489" lon="148.3217736"/>
      <trkpt lat="-9.1460069" lon="148.3216067"/>
      <trkpt lat="-9.1459456" lon="148.3214431"/>
      <trkpt lat="-9.1459193" lon="148.3212756"/>
      <trkpt lat="-9.1459052" lon="148.3211013"/>
      <trkpt lat="-9.1459102" lon="148.3209225"/>
      <trkpt lat="-9.1458941" lon="148.3207424"/>
      <trkpt lat="-9.1458639" lon="148.3205655"/>
      <trkpt lat="-9.1458057" lon="148.3204011"/>
      <trkpt lat="-9.1457004" lon="148.3202850"/>
      <trkpt lat="-9.1455573" lon="148.3201996"/>
      <trkpt lat="-9.1453942" lon="148.3201289"/>
      <trkpt lat="-9.1452417" lon="148.3200353"/>
      <trkpt lat="-9.1451010" lon="148.3199268"/>
      <trkpt lat="-9.1449658" lon="148.3198109"/>
      <trkpt lat="-9.1448251" lon="148.3197051"/>
      <trkpt lat="-9.1446694" lon="148.3196228"/>
      <trkpt lat="-9.1445066" lon="148.3195503"/>
      <trkpt lat="-9.1443534" lon="148.3194607"/>
      <trkpt lat="-9.1442207" lon="148.3193431"/>
      <trkpt lat="-9.1440986" lon="148.3192853"/>
      <trkpt lat="-9.1439717" lon="148.3192987"/>
      <trkpt lat="-9.1438278" lon="148.3193852"/>
      <trkpt lat="-9.1436696" lon="148.3194653"/>
      <trkpt lat="-9.1435074" lon="148.3195419"/>
      <trkpt lat="-9.1433450" lon="148.3195664"/>
      <trkpt lat="-9.1431881" lon="148.3195360"/>
      <trkpt lat="-9.1430334" lon="148.3194469"/>
      <trkpt lat="-9.1428731" lon="148.3193834"/>
      <trkpt lat="-9.1427110" lon="148.3193823"/>
      <trkpt lat="-9.1425563" lon="148.3194551"/>
      <trkpt lat="-9.1424127" lon="148.3195629"/>
      <trkpt lat="-9.1423127" lon="148.3196622"/>
      <trkpt lat="-9.1422462" lon="148.3196963"/>
      <trkpt lat="-9.1422849" lon="148.3196885"/>
      <trkpt lat="-9.1423817" lon="148.3196251"/>
      <trkpt lat="-9.1425335" lon="148.3195457"/>
      <trkpt lat="-9.1426530" lon="148.3194332"/>
      <trkpt lat="-9.1427734" lon="148.3193608"/>
      <trkpt lat="-9.1428104" lon="148.3193123"/>
      <trkpt lat="-9.1428012" lon="148.3193110"/>
      <trkpt lat="-9.1427233" lon="148.3192860"/>
      <trkpt lat="-9.1427276" lon="148.3192746"/>
      <trkpt lat="-9.1428091" lon="148.3192621"/>
      <trkpt lat="-9.1429285" lon="148.3192234"/>
      <trkpt lat="-9.1429812" lon="148.3191386"/>
      <trkpt lat="-9.1429194" lon="148.3190474"/>
      <trkpt lat="-9.1427784" lon="148.3189984"/>
      <trkpt lat="-9.1426016" lon="148.3189874"/>
      <trkpt lat="-9.1424445" lon="148.3189349"/>
      <trkpt lat="-9.1423452" lon="148.3188235"/>
      <trkpt lat="-9.1422951" lon="148.3186665"/>
      <trkpt lat="-9.1422270" lon="148.3185405"/>
      <trkpt lat="-9.1421013" lon="148.3184712"/>
      <trkpt lat="-9.1419363" lon="148.3184239"/>
      <trkpt lat="-9.1417829" lon="148.3183482"/>
      <trkpt lat="-9.1416422" lon="148.3182386"/>
      <trkpt lat="-9.1415054" lon="148.3181351"/>
      <trkpt lat="-9.1413601" lon="148.3180931"/>
      <trkpt lat="-9.1412160" lon="148.3180598"/>
      <trkpt lat="-9.1410644" lon="148.3180608"/>
      <trkpt lat="-9.1409106" lon="148.3180591"/>
      <trkpt lat="-9.1407474" lon="148.3180643"/>
      <trkpt lat="-9.1405774" lon="148.3180603"/>
      <trkpt lat="-9.1404046" lon="148.3180286"/>
      <trkpt lat="-9.1402347" lon="148.3179932"/>
      <trkpt lat="-9.1400842" lon="148.3180012"/>
      <trkpt lat="-9.1399502" lon="148.3180527"/>
      <trkpt lat="-9.1398159" lon="148.3181042"/>
      <trkpt lat="-9.1396739" lon="148.3180781"/>
      <trkpt lat="-9.1395187" lon="148.3180206"/>
      <trkpt lat="-9.1393825" lon="148.3179494"/>
      <trkpt lat="-9.1392735" lon="148.3178585"/>
      <trkpt lat="-9.1391730" lon="148.3177346"/>
      <trkpt lat="-9.1390710" lon="148.3176936"/>
      <trkpt lat="-9.1389552" lon="148.3177586"/>
      <trkpt lat="-9.1388315" lon="148.3178709"/>
      <trkpt lat="-9.1386945" lon="148.3179118"/>
      <trkpt lat="-9.1385380" lon="148.3178812"/>
      <trkpt lat="-9.1383808" lon="148.3178110"/>
      <trkpt lat="-9.1382310" lon="148.3177292"/>
      <trkpt lat="-9.1380962" lon="148.3176520"/>
      <trkpt lat="-9.1379955" lon="148.3175677"/>
      <trkpt lat="-9.1379238" lon="148.3174635"/>
      <trkpt lat="-9.1378370" lon="148.3173538"/>
      <trkpt lat="-9.1377125" lon="148.3172621"/>
      <trkpt lat="-9.1375504" lon="148.3171971"/>
      <trkpt lat="-9.1374009" lon="148.3171107"/>
      <trkpt lat="-9.1372550" lon="148.3170133"/>
      <trkpt lat="-9.1370989" lon="148.3169556"/>
      <trkpt lat="-9.1369310" lon="148.3169457"/>
      <trkpt lat="-9.1367592" lon="148.3169529"/>
      <trkpt lat="-9.1365950" lon="148.3169806"/>
      <trkpt lat="-9.1364491" lon="148.3170542"/>
      <trkpt lat="-9.1363176" lon="148.3171496"/>
      <trkpt lat="-9.1362013" lon="148.3171694"/>
      <trkpt lat="-9.1360731" lon="148.3171008"/>
      <trkpt lat="-9.1359485" lon="148.3169763"/>
      <trkpt lat="-9.1358317" lon="148.3168510"/>
      <trkpt lat="-9.1357845" lon="148.3167118"/>
      <trkpt lat="-9.1357686" lon="148.3165585"/>
      <trkpt lat="-9.1357347" lon="148.3164153"/>
      <trkpt lat="-9.1356186" lon="148.3163351"/>
      <trkpt lat="-9.1354627" lon="148.3162857"/>
      <trkpt lat="-9.1353063" lon="148.3162376"/>
      <trkpt lat="-9.1351632" lon="148.3161820"/>
      <trkpt lat="-9.1350344" lon="148.3161090"/>
      <trkpt lat="-9.1349269" lon="148.3160248"/>
      <trkpt lat="-9.1348048" lon="148.3159364"/>
      <trkpt lat="-9.1346697" lon="148.3158592"/>
      <trkpt lat="-9.1345402" lon="148.3157744"/>
      <trkpt lat="-9.1344487" lon="148.3156393"/>
      <trkpt lat="-9.1343506" lon="148.3155414"/>
      <trkpt lat="-9.1342236" lon="148.3154761"/>
      <trkpt lat="-9.1340687" lon="148.3154939"/>
      <trkpt lat="-9.1339233" lon="148.3155406"/>
      <trkpt lat="-9.1337872" lon="148.3155735"/>
      <trkpt lat="-9.1336602" lon="148.3155309"/>
      <trkpt lat="-9.1335231" lon="148.3154437"/>
      <trkpt lat="-9.1333667" lon="148.3154046"/>
      <trkpt lat="-9.1331997" lon="148.3154000"/>
      <trkpt lat="-9.1330329" lon="148.3154023"/>
      <trkpt lat="-9.1328900" lon="148.3153507"/>
      <trkpt lat="-9.1327414" lon="148.3153196"/>
      <trkpt lat="-9.1325904" lon="148.3153004"/>
      <trkpt lat="-9.1324276" lon="148.3152872"/>
      <trkpt lat="-9.1323350" lon="148.3152319"/>
      <trkpt lat="-9.1323144" lon="148.3151331"/>
    </trkseg>
  </trk>
  <trk>
    <name>Deari - Patrick Dirise</name>
    <desc>Walked by Patrick Dirise. 7.8 km, 3 track(s), recorded on the ground. Deari, Zone 3.</desc>
    <type>walked-boundary</type>
    <trkseg>
      <trkpt lat="-9.1308134" lon="148.3347740"/>
      <trkpt lat="-9.1309346" lon="148.3347555"/>
      <trkpt lat="-9.1310076" lon="148.3347041"/>
      <trkpt lat="-9.1310669" lon="148.3346232"/>
      <trkpt lat="-9.1311669" lon="148.3346018"/>
      <trkpt lat="-9.1312349" lon="148.3346645"/>
      <trkpt lat="-9.1312437" lon="148.3348119"/>
      <trkpt lat="-9.1311988" lon="148.3349848"/>
      <trkpt lat="-9.1311441" lon="148.3351555"/>
      <trkpt lat="-9.1310840" lon="148.3353246"/>
      <trkpt lat="-9.1310126" lon="148.3354882"/>
      <trkpt lat="-9.1309790" lon="148.3356586"/>
      <trkpt lat="-9.1309494" lon="148.3358302"/>
      <trkpt lat="-9.1309493" lon="148.3360072"/>
      <trkpt lat="-9.1309493" lon="148.3361842"/>
      <trkpt lat="-9.1309759" lon="148.3363618"/>
      <trkpt lat="-9.1310002" lon="148.3365404"/>
      <trkpt lat="-9.1310318" lon="148.3367177"/>
      <trkpt lat="-9.1310602" lon="148.3368957"/>
      <trkpt lat="-9.1310971" lon="148.3370725"/>
      <trkpt lat="-9.1311441" lon="148.3372448"/>
      <trkpt lat="-9.1311840" lon="148.3374163"/>
      <trkpt lat="-9.1312440" lon="148.3375801"/>
      <trkpt lat="-9.1312955" lon="148.3377479"/>
      <trkpt lat="-9.1313551" lon="148.3379163"/>
      <trkpt lat="-9.1313846" lon="148.3380924"/>
      <trkpt lat="-9.1314062" lon="148.3382703"/>
      <trkpt lat="-9.1314394" lon="148.3384442"/>
      <trkpt lat="-9.1314873" lon="148.3386167"/>
      <trkpt lat="-9.1315329" lon="148.3387901"/>
      <trkpt lat="-9.1315530" lon="148.3389674"/>
      <trkpt lat="-9.1315556" lon="148.3391479"/>
      <trkpt lat="-9.1315490" lon="148.3393263"/>
      <trkpt lat="-9.1315478" lon="148.3395050"/>
      <trkpt lat="-9.1315618" lon="148.3396819"/>
      <trkpt lat="-9.1315979" lon="148.3398575"/>
      <trkpt lat="-9.1316545" lon="148.3400295"/>
      <trkpt lat="-9.1317315" lon="148.3401916"/>
      <trkpt lat="-9.1318235" lon="148.3403463"/>
      <trkpt lat="-9.1319287" lon="148.3404940"/>
      <trkpt lat="-9.1320264" lon="148.3406464"/>
      <trkpt lat="-9.1321203" lon="148.3407995"/>
      <trkpt lat="-9.1322160" lon="148.3409502"/>
      <trkpt lat="-9.1323222" lon="148.3410942"/>
      <trkpt lat="-9.1324399" lon="148.3412292"/>
      <trkpt lat="-9.1325390" lon="148.3413748"/>
      <trkpt lat="-9.1326215" lon="148.3415292"/>
      <trkpt lat="-9.1326779" lon="148.3417001"/>
      <trkpt lat="-9.1327367" lon="148.3418672"/>
      <trkpt lat="-9.1327873" lon="148.3420343"/>
      <trkpt lat="-9.1328594" lon="148.3421899"/>
      <trkpt lat="-9.1329180" lon="148.3423494"/>
      <trkpt lat="-9.1329906" lon="148.3425059"/>
      <trkpt lat="-9.1330303" lon="148.3426767"/>
      <trkpt lat="-9.1330964" lon="148.3428397"/>
      <trkpt lat="-9.1331449" lon="148.3430064"/>
      <trkpt lat="-9.1332068" lon="148.3431667"/>
      <trkpt lat="-9.1332432" lon="148.3433187"/>
      <trkpt lat="-9.1332784" lon="148.3434006"/>
      <trkpt lat="-9.1333048" lon="148.3434223"/>
      <trkpt lat="-9.1333538" lon="148.3434395"/>
      <trkpt lat="-9.1334475" lon="148.3434958"/>
      <trkpt lat="-9.1335817" lon="148.3435899"/>
      <trkpt lat="-9.1337450" lon="148.3436389"/>
      <trkpt lat="-9.1339029" lon="148.3436954"/>
      <trkpt lat="-9.1340292" lon="148.3437745"/>
      <trkpt lat="-9.1340904" lon="148.3439221"/>
      <trkpt lat="-9.1341246" lon="148.3440912"/>
      <trkpt lat="-9.1341646" lon="148.3442610"/>
      <trkpt lat="-9.1342179" lon="148.3444300"/>
      <trkpt lat="-9.1342456" lon="148.3446030"/>
      <trkpt lat="-9.1342787" lon="148.3447673"/>
      <trkpt lat="-9.1343236" lon="148.3449286"/>
      <trkpt lat="-9.1344077" lon="148.3450804"/>
      <trkpt lat="-9.1344796" lon="148.3452436"/>
      <trkpt lat="-9.1345567" lon="148.3454034"/>
      <trkpt lat="-9.1346438" lon="148.3455542"/>
      <trkpt lat="-9.1347691" lon="148.3456697"/>
      <trkpt lat="-9.1349180" lon="148.3457650"/>
      <trkpt lat="-9.1350709" lon="148.3458343"/>
      <trkpt lat="-9.1352091" lon="148.3459132"/>
      <trkpt lat="-9.1352630" lon="148.3460048"/>
      <trkpt lat="-9.1352268" lon="148.3461253"/>
      <trkpt lat="-9.1351127" lon="148.3462571"/>
      <trkpt lat="-9.1350459" lon="148.3464007"/>
      <trkpt lat="-9.1350637" lon="148.3465295"/>
      <trkpt lat="-9.1351772" lon="148.3466092"/>
      <trkpt lat="-9.1353381" lon="148.3466217"/>
      <trkpt lat="-9.1355059" lon="148.3465743"/>
      <trkpt lat="-9.1356522" lon="148.3464865"/>
      <trkpt lat="-9.1357789" lon="148.3463645"/>
      <trkpt lat="-9.1359103" lon="148.3462482"/>
      <trkpt lat="-9.1360630" lon="148.3461715"/>
      <trkpt lat="-9.1362360" lon="148.3461421"/>
      <trkpt lat="-9.1363399" lon="148.3461298"/>
      <trkpt lat="-9.1363901" lon="148.3461296"/>
      <trkpt lat="-9.1363955" lon="148.3461041"/>
      <trkpt lat="-9.1364303" lon="148.3460654"/>
    </trkseg>
    <trkseg>
      <trkpt lat="-9.1691977" lon="148.3498195"/>
      <trkpt lat="-9.1693767" lon="148.3498286"/>
      <trkpt lat="-9.1695547" lon="148.3498453"/>
      <trkpt lat="-9.1697335" lon="148.3498579"/>
      <trkpt lat="-9.1699106" lon="148.3498589"/>
      <trkpt lat="-9.1700890" lon="148.3498379"/>
      <trkpt lat="-9.1702646" lon="148.3497967"/>
      <trkpt lat="-9.1704390" lon="148.3497512"/>
      <trkpt lat="-9.1706073" lon="148.3497285"/>
      <trkpt lat="-9.1707691" lon="148.3497459"/>
      <trkpt lat="-9.1709322" lon="148.3497931"/>
      <trkpt lat="-9.1710971" lon="148.3498494"/>
      <trkpt lat="-9.1712620" lon="148.3499149"/>
      <trkpt lat="-9.1714261" lon="148.3499855"/>
      <trkpt lat="-9.1715938" lon="148.3500330"/>
      <trkpt lat="-9.1717702" lon="148.3500554"/>
      <trkpt lat="-9.1719444" lon="148.3500598"/>
      <trkpt lat="-9.1721109" lon="148.3500343"/>
      <trkpt lat="-9.1722703" lon="148.3499777"/>
      <trkpt lat="-9.1724309" lon="148.3499145"/>
      <trkpt lat="-9.1725940" lon="148.3498538"/>
      <trkpt lat="-9.1727603" lon="148.3498128"/>
      <trkpt lat="-9.1729177" lon="148.3497941"/>
      <trkpt lat="-9.1730785" lon="148.3497846"/>
      <trkpt lat="-9.1732417" lon="148.3497664"/>
      <trkpt lat="-9.1734134" lon="148.3497292"/>
      <trkpt lat="-9.1735847" lon="148.3496903"/>
      <trkpt lat="-9.1737574" lon="148.3496608"/>
      <trkpt lat="-9.1738672" lon="148.3496951"/>
      <trkpt lat="-9.1739633" lon="148.3497895"/>
      <trkpt lat="-9.1740352" lon="148.3499381"/>
      <trkpt lat="-9.1741179" lon="148.3500724"/>
      <trkpt lat="-9.1741666" lon="148.3502218"/>
      <trkpt lat="-9.1742244" lon="148.3503582"/>
      <trkpt lat="-9.1743370" lon="148.3504544"/>
      <trkpt lat="-9.1745001" lon="148.3504903"/>
      <trkpt lat="-9.1746785" lon="148.3504985"/>
      <trkpt lat="-9.1748397" lon="148.3505352"/>
      <trkpt lat="-9.1749712" lon="148.3505272"/>
      <trkpt lat="-9.1750892" lon="148.3504737"/>
      <trkpt lat="-9.1752008" lon="148.3503520"/>
      <trkpt lat="-9.1753238" lon="148.3502393"/>
      <trkpt lat="-9.1754491" lon="148.3501423"/>
      <trkpt lat="-9.1755630" lon="148.3500371"/>
      <trkpt lat="-9.1756730" lon="148.3500101"/>
      <trkpt lat="-9.1757854" lon="148.3500249"/>
      <trkpt lat="-9.1759190" lon="148.3501201"/>
      <trkpt lat="-9.1760523" lon="148.3502103"/>
      <trkpt lat="-9.1761732" lon="148.3503249"/>
      <trkpt lat="-9.1762737" lon="148.3504535"/>
      <trkpt lat="-9.1763825" lon="148.3505754"/>
      <trkpt lat="-9.1765095" lon="148.3506614"/>
      <trkpt lat="-9.1766639" lon="148.3507094"/>
      <trkpt lat="-9.1768148" lon="148.3506935"/>
      <trkpt lat="-9.1769588" lon="148.3506745"/>
      <trkpt lat="-9.1770918" lon="148.3506823"/>
      <trkpt lat="-9.1772371" lon="148.3507091"/>
      <trkpt lat="-9.1773867" lon="148.3507442"/>
      <trkpt lat="-9.1775401" lon="148.3507168"/>
      <trkpt lat="-9.1776854" lon="148.3506866"/>
      <trkpt lat="-9.1777757" lon="148.3505824"/>
      <trkpt lat="-9.1778081" lon="148.3504440"/>
      <trkpt lat="-9.1777963" lon="148.3502663"/>
      <trkpt lat="-9.1778022" lon="148.3500920"/>
      <trkpt lat="-9.1778713" lon="148.3499420"/>
      <trkpt lat="-9.1779814" lon="148.3498413"/>
      <trkpt lat="-9.1781282" lon="148.3497846"/>
      <trkpt lat="-9.1782502" lon="148.3497303"/>
      <trkpt lat="-9.1783807" lon="148.3496947"/>
      <trkpt lat="-9.1785162" lon="148.3496658"/>
      <trkpt lat="-9.1786783" lon="148.3496907"/>
      <trkpt lat="-9.1788165" lon="148.3497511"/>
      <trkpt lat="-9.1789461" lon="148.3498444"/>
      <trkpt lat="-9.1790707" lon="148.3499192"/>
      <trkpt lat="-9.1792162" lon="148.3499227"/>
      <trkpt lat="-9.1793700" lon="148.3498885"/>
      <trkpt lat="-9.1794762" lon="148.3498038"/>
      <trkpt lat="-9.1795649" lon="148.3497924"/>
      <trkpt lat="-9.1795573" lon="148.3497823"/>
      <trkpt lat="-9.1795769" lon="148.3497879"/>
      <trkpt lat="-9.1796077" lon="148.3497368"/>
      <trkpt lat="-9.1797364" lon="148.3496934"/>
      <trkpt lat="-9.1798710" lon="148.3496362"/>
      <trkpt lat="-9.1800173" lon="148.3495849"/>
      <trkpt lat="-9.1801553" lon="148.3495524"/>
      <trkpt lat="-9.1802946" lon="148.3496077"/>
      <trkpt lat="-9.1804360" lon="148.3496551"/>
      <trkpt lat="-9.1805657" lon="148.3497121"/>
      <trkpt lat="-9.1807145" lon="148.3497484"/>
      <trkpt lat="-9.1808475" lon="148.3498238"/>
      <trkpt lat="-9.1809879" lon="148.3499057"/>
      <trkpt lat="-9.1810946" lon="148.3500175"/>
      <trkpt lat="-9.1812154" lon="148.3501171"/>
      <trkpt lat="-9.1812969" lon="148.3501832"/>
      <trkpt lat="-9.1813661" lon="148.3501966"/>
    </trkseg>
    <trkseg>
      <trkpt lat="-9.1594186" lon="148.3351235"/>
      <trkpt lat="-9.1593706" lon="148.3349511"/>
      <trkpt lat="-9.1593206" lon="148.3347790"/>
      <trkpt lat="-9.1593057" lon="148.3346111"/>
      <trkpt lat="-9.1593221" lon="148.3344373"/>
      <trkpt lat="-9.1593345" lon="148.3342646"/>
      <trkpt lat="-9.1593117" lon="148.3340877"/>
      <trkpt lat="-9.1592710" lon="148.3339107"/>
      <trkpt lat="-9.1592372" lon="148.3337322"/>
      <trkpt lat="-9.1592195" lon="148.3335534"/>
      <trkpt lat="-9.1591968" lon="148.3333767"/>
      <trkpt lat="-9.1591551" lon="148.3332069"/>
      <trkpt lat="-9.1590826" lon="148.3330421"/>
      <trkpt lat="-9.1590206" lon="148.3328759"/>
      <trkpt lat="-9.1590256" lon="148.3327170"/>
      <trkpt lat="-9.1590897" lon="148.3325643"/>
      <trkpt lat="-9.1591382" lon="148.3324215"/>
      <trkpt lat="-9.1590972" lon="148.3322976"/>
      <trkpt lat="-9.1589669" lon="148.3322202"/>
      <trkpt lat="-9.1588103" lon="148.3321921"/>
      <trkpt lat="-9.1586515" lon="148.3321660"/>
      <trkpt lat="-9.1584885" lon="148.3321388"/>
      <trkpt lat="-9.1583232" lon="148.3321400"/>
      <trkpt lat="-9.1581595" lon="148.3321960"/>
      <trkpt lat="-9.1580078" lon="148.3322533"/>
      <trkpt lat="-9.1578984" lon="148.3322287"/>
      <trkpt lat="-9.1578262" lon="148.3321223"/>
      <trkpt lat="-9.1578144" lon="148.3319745"/>
      <trkpt lat="-9.1577731" lon="148.3318836"/>
      <trkpt lat="-9.1577746" lon="148.3318915"/>
      <trkpt lat="-9.1577302" lon="148.3319552"/>
      <trkpt lat="-9.1577611" lon="148.3319984"/>
      <trkpt lat="-9.1577243" lon="148.3319777"/>
      <trkpt lat="-9.1576755" lon="148.3319063"/>
      <trkpt lat="-9.1575468" lon="148.3318142"/>
      <trkpt lat="-9.1574124" lon="148.3317083"/>
      <trkpt lat="-9.1572876" lon="148.3315976"/>
      <trkpt lat="-9.1571885" lon="148.3314699"/>
      <trkpt lat="-9.1571082" lon="148.3313823"/>
      <trkpt lat="-9.1570536" lon="148.3313358"/>
      <trkpt lat="-9.1569890" lon="148.3313346"/>
      <trkpt lat="-9.1568971" lon="148.3313234"/>
      <trkpt lat="-9.1567912" lon="148.3312674"/>
      <trkpt lat="-9.1567450" lon="148.3311692"/>
      <trkpt lat="-9.1567196" lon="148.3310264"/>
      <trkpt lat="-9.1566627" lon="148.3309349"/>
      <trkpt lat="-9.1565470" lon="148.3308818"/>
      <trkpt lat="-9.1564533" lon="148.3308189"/>
      <trkpt lat="-9.1563747" lon="148.3307111"/>
      <trkpt lat="-9.1562651" lon="148.3306051"/>
      <trkpt lat="-9.1561126" lon="148.3305351"/>
      <trkpt lat="-9.1559456" lon="148.3304813"/>
      <trkpt lat="-9.1557781" lon="148.3304444"/>
      <trkpt lat="-9.1556161" lon="148.3304115"/>
      <trkpt lat="-9.1554644" lon="148.3303888"/>
      <trkpt lat="-9.1553639" lon="148.3303156"/>
      <trkpt lat="-9.1553068" lon="148.3301977"/>
      <trkpt lat="-9.1552487" lon="148.3300566"/>
      <trkpt lat="-9.1551678" lon="148.3299082"/>
      <trkpt lat="-9.1550473" lon="148.3297850"/>
      <trkpt lat="-9.1549140" lon="148.3296967"/>
      <trkpt lat="-9.1547532" lon="148.3296737"/>
      <trkpt lat="-9.1546085" lon="148.3296477"/>
      <trkpt lat="-9.1544875" lon="148.3295767"/>
      <trkpt lat="-9.1543702" lon="148.3294827"/>
      <trkpt lat="-9.1542240" lon="148.3294077"/>
      <trkpt lat="-9.1540799" lon="148.3293391"/>
      <trkpt lat="-9.1539475" lon="148.3293101"/>
      <trkpt lat="-9.1538188" lon="148.3293207"/>
      <trkpt lat="-9.1536673" lon="148.3293534"/>
      <trkpt lat="-9.1535019" lon="148.3293358"/>
      <trkpt lat="-9.1533383" lon="148.3293079"/>
      <trkpt lat="-9.1531950" lon="148.3293344"/>
      <trkpt lat="-9.1530517" lon="148.3293684"/>
      <trkpt lat="-9.1529426" lon="148.3293336"/>
      <trkpt lat="-9.1528316" lon="148.3292162"/>
      <trkpt lat="-9.1527617" lon="148.3291071"/>
      <trkpt lat="-9.1526767" lon="148.3290169"/>
      <trkpt lat="-9.1526235" lon="148.3289155"/>
      <trkpt lat="-9.1525461" lon="148.3287943"/>
      <trkpt lat="-9.1524477" lon="148.3286874"/>
      <trkpt lat="-9.1523010" lon="148.3286107"/>
      <trkpt lat="-9.1521368" lon="148.3285399"/>
      <trkpt lat="-9.1519908" lon="148.3284591"/>
      <trkpt lat="-9.1518389" lon="148.3284106"/>
      <trkpt lat="-9.1516956" lon="148.3284118"/>
      <trkpt lat="-9.1515344" lon="148.3284394"/>
      <trkpt lat="-9.1513735" lon="148.3284627"/>
      <trkpt lat="-9.1512046" lon="148.3284741"/>
      <trkpt lat="-9.1510323" lon="148.3284931"/>
      <trkpt lat="-9.1508745" lon="148.3284829"/>
      <trkpt lat="-9.1507193" lon="148.3284339"/>
      <trkpt lat="-9.1505711" lon="148.3283512"/>
      <trkpt lat="-9.1504114" lon="148.3282750"/>
      <trkpt lat="-9.1502508" lon="148.3282133"/>
      <trkpt lat="-9.1500920" lon="148.3281582"/>
      <trkpt lat="-9.1499301" lon="148.3281182"/>
      <trkpt lat="-9.1497633" lon="148.3280787"/>
      <trkpt lat="-9.1496005" lon="148.3280347"/>
      <trkpt lat="-9.1494475" lon="148.3279636"/>
      <trkpt lat="-9.1493114" lon="148.3278561"/>
      <trkpt lat="-9.1491605" lon="148.3277705"/>
      <trkpt lat="-9.1490564" lon="148.3276850"/>
      <trkpt lat="-9.1489668" lon="148.3275988"/>
      <trkpt lat="-9.1489585" lon="148.3274745"/>
      <trkpt lat="-9.1489288" lon="148.3273720"/>
      <trkpt lat="-9.1489471" lon="148.3272925"/>
      <trkpt lat="-9.1489100" lon="148.3272949"/>
      <trkpt lat="-9.1489054" lon="148.3272770"/>
      <trkpt lat="-9.1489201" lon="148.3272549"/>
      <trkpt lat="-9.1489299" lon="148.3271593"/>
      <trkpt lat="-9.1489155" lon="148.3270393"/>
      <trkpt lat="-9.1488157" lon="148.3269170"/>
      <trkpt lat="-9.1487297" lon="148.3267800"/>
      <trkpt lat="-9.1486641" lon="148.3266474"/>
      <trkpt lat="-9.1486580" lon="148.3264820"/>
      <trkpt lat="-9.1486564" lon="148.3263577"/>
      <trkpt lat="-9.1486710" lon="148.3262840"/>
      <trkpt lat="-9.1486962" lon="148.3262501"/>
      <trkpt lat="-9.1487391" lon="148.3262476"/>
      <trkpt lat="-9.1487601" lon="148.3262429"/>
      <trkpt lat="-9.1487204" lon="148.3262546"/>
      <trkpt lat="-9.1486293" lon="148.3262204"/>
      <trkpt lat="-9.1484999" lon="148.3261488"/>
      <trkpt lat="-9.1483920" lon="148.3260204"/>
      <trkpt lat="-9.1483226" lon="148.3258605"/>
      <trkpt lat="-9.1482897" lon="148.3256853"/>
      <trkpt lat="-9.1482628" lon="148.3255088"/>
      <trkpt lat="-9.1482421" lon="148.3253311"/>
      <trkpt lat="-9.1482152" lon="148.3251518"/>
      <trkpt lat="-9.1481591" lon="148.3249870"/>
      <trkpt lat="-9.1480934" lon="148.3248279"/>
      <trkpt lat="-9.1480057" lon="148.3246776"/>
      <trkpt lat="-9.1479105" lon="148.3245339"/>
      <trkpt lat="-9.1477792" lon="148.3244211"/>
      <trkpt lat="-9.1476219" lon="148.3243385"/>
      <trkpt lat="-9.1474601" lon="148.3242643"/>
      <trkpt lat="-9.1473116" lon="148.3241697"/>
      <trkpt lat="-9.1471878" lon="148.3240462"/>
      <trkpt lat="-9.1470936" lon="148.3238965"/>
      <trkpt lat="-9.1470206" lon="148.3237343"/>
      <trkpt lat="-9.1469582" lon="148.3235652"/>
      <trkpt lat="-9.1468851" lon="148.3234012"/>
      <trkpt lat="-9.1468143" lon="148.3232367"/>
      <trkpt lat="-9.1467442" lon="148.3230743"/>
      <trkpt lat="-9.1466619" lon="148.3229218"/>
      <trkpt lat="-9.1465543" lon="148.3227923"/>
      <trkpt lat="-9.1464698" lon="148.3227215"/>
      <trkpt lat="-9.1464551" lon="148.3226380"/>
      <trkpt lat="-9.1464670" lon="148.3225930"/>
      <trkpt lat="-9.1464528" lon="148.3225613"/>
      <trkpt lat="-9.1463772" lon="148.3225348"/>
      <trkpt lat="-9.1463186" lon="148.3224463"/>
      <trkpt lat="-9.1462400" lon="148.3222999"/>
      <trkpt lat="-9.1461564" lon="148.3221575"/>
      <trkpt lat="-9.1460706" lon="148.3220135"/>
      <trkpt lat="-9.1460223" lon="148.3218519"/>
      <trkpt lat="-9.1459856" lon="148.3216822"/>
      <trkpt lat="-9.1459278" lon="148.3215167"/>
      <trkpt lat="-9.1458849" lon="148.3213507"/>
      <trkpt lat="-9.1458803" lon="148.3211784"/>
      <trkpt lat="-9.1458878" lon="148.3210015"/>
      <trkpt lat="-9.1458745" lon="148.3208237"/>
      <trkpt lat="-9.1458347" lon="148.3206472"/>
      <trkpt lat="-9.1457995" lon="148.3204733"/>
      <trkpt lat="-9.1457243" lon="148.3203281"/>
      <trkpt lat="-9.1456085" lon="148.3202264"/>
      <trkpt lat="-9.1454439" lon="148.3201572"/>
      <trkpt lat="-9.1452804" lon="148.3200852"/>
      <trkpt lat="-9.1451283" lon="148.3199900"/>
      <trkpt lat="-9.1449866" lon="148.3198786"/>
      <trkpt lat="-9.1448510" lon="148.3197596"/>
      <trkpt lat="-9.1447054" lon="148.3196605"/>
      <trkpt lat="-9.1445524" lon="148.3195772"/>
      <trkpt lat="-9.1443949" lon="148.3195007"/>
      <trkpt lat="-9.1442570" lon="148.3193943"/>
      <trkpt lat="-9.1441323" lon="148.3193099"/>
      <trkpt lat="-9.1440093" lon="148.3192904"/>
      <trkpt lat="-9.1438696" lon="148.3193423"/>
      <trkpt lat="-9.1437276" lon="148.3194386"/>
      <trkpt lat="-9.1435727" lon="148.3195110"/>
      <trkpt lat="-9.1434220" lon="148.3195758"/>
      <trkpt lat="-9.1432552" lon="148.3195816"/>
      <trkpt lat="-9.1430981" lon="148.3195471"/>
      <trkpt lat="-9.1429406" lon="148.3194672"/>
      <trkpt lat="-9.1427967" lon="148.3194125"/>
      <trkpt lat="-9.1426532" lon="148.3194250"/>
      <trkpt lat="-9.1425110" lon="148.3195022"/>
      <trkpt lat="-9.1423787" lon="148.3195858"/>
      <trkpt lat="-9.1422925" lon="148.3196433"/>
      <trkpt lat="-9.1422956" lon="148.3196561"/>
      <trkpt lat="-9.1423792" lon="148.3196164"/>
      <trkpt lat="-9.1425079" lon="148.3195262"/>
      <trkpt lat="-9.1426403" lon="148.3194061"/>
      <trkpt lat="-9.1427131" lon="148.3192952"/>
      <trkpt lat="-9.1427620" lon="148.3192331"/>
      <trkpt lat="-9.1428207" lon="148.3192083"/>
      <trkpt lat="-9.1428710" lon="148.3191560"/>
      <trkpt lat="-9.1428442" lon="148.3190958"/>
      <trkpt lat="-9.1427055" lon="148.3190215"/>
      <trkpt lat="-9.1425358" lon="148.3189769"/>
      <trkpt lat="-9.1424015" lon="148.3188797"/>
      <trkpt lat="-9.1423171" lon="148.3187387"/>
      <trkpt lat="-9.1422468" lon="148.3185910"/>
      <trkpt lat="-9.1421415" lon="148.3185012"/>
      <trkpt lat="-9.1419922" lon="148.3184495"/>
      <trkpt lat="-9.1418362" lon="148.3183951"/>
      <trkpt lat="-9.1417069" lon="148.3182951"/>
      <trkpt lat="-9.1416163" lon="148.3181720"/>
      <trkpt lat="-9.1415121" lon="148.3180981"/>
      <trkpt lat="-9.1413818" lon="148.3180804"/>
      <trkpt lat="-9.1412257" lon="148.3180738"/>
      <trkpt lat="-9.1410718" lon="148.3180514"/>
      <trkpt lat="-9.1409199" lon="148.3180338"/>
      <trkpt lat="-9.1407491" lon="148.3180595"/>
      <trkpt lat="-9.1405776" lon="148.3180723"/>
      <trkpt lat="-9.1404080" lon="148.3180484"/>
      <trkpt lat="-9.1402439" lon="148.3179912"/>
      <trkpt lat="-9.1401042" lon="148.3180004"/>
      <trkpt lat="-9.1399809" lon="148.3180416"/>
      <trkpt lat="-9.1398583" lon="148.3180754"/>
      <trkpt lat="-9.1397141" lon="148.3180316"/>
      <trkpt lat="-9.1395526" lon="148.3179736"/>
      <trkpt lat="-9.1394123" lon="148.3179012"/>
      <trkpt lat="-9.1392920" lon="148.3178120"/>
      <trkpt lat="-9.1391744" lon="148.3177448"/>
      <trkpt lat="-9.1390391" lon="148.3177586"/>
      <trkpt lat="-9.1388914" lon="148.3178447"/>
      <trkpt lat="-9.1387401" lon="148.3178887"/>
      <trkpt lat="-9.1385844" lon="148.3178739"/>
      <trkpt lat="-9.1384180" lon="148.3178115"/>
      <trkpt lat="-9.1382567" lon="148.3177392"/>
      <trkpt lat="-9.1381045" lon="148.3176504"/>
      <trkpt lat="-9.1379862" lon="148.3175250"/>
      <trkpt lat="-9.1378701" lon="148.3173973"/>
      <trkpt lat="-9.1377401" lon="148.3173003"/>
      <trkpt lat="-9.1375832" lon="148.3172286"/>
      <trkpt lat="-9.1374429" lon="148.3171415"/>
      <trkpt lat="-9.1373057" lon="148.3170395"/>
      <trkpt lat="-9.1371593" lon="148.3169591"/>
      <trkpt lat="-9.1369888" lon="148.3169442"/>
      <trkpt lat="-9.1368179" lon="148.3169320"/>
      <trkpt lat="-9.1366538" lon="148.3169423"/>
      <trkpt lat="-9.1365069" lon="148.3169756"/>
      <trkpt lat="-9.1363812" lon="148.3170795"/>
      <trkpt lat="-9.1362742" lon="148.3171506"/>
      <trkpt lat="-9.1361782" lon="148.3171279"/>
      <trkpt lat="-9.1360747" lon="148.3170164"/>
      <trkpt lat="-9.1359547" lon="148.3168939"/>
      <trkpt lat="-9.1358469" lon="148.3167705"/>
      <trkpt lat="-9.1357908" lon="148.3166298"/>
      <trkpt lat="-9.1357581" lon="148.3164655"/>
      <trkpt lat="-9.1356858" lon="148.3163458"/>
      <trkpt lat="-9.1355458" lon="148.3162882"/>
      <trkpt lat="-9.1353847" lon="148.3162483"/>
      <trkpt lat="-9.1352223" lon="148.3161991"/>
      <trkpt lat="-9.1350724" lon="148.3161165"/>
      <trkpt lat="-9.1349591" lon="148.3160191"/>
      <trkpt lat="-9.1348428" lon="148.3159380"/>
      <trkpt lat="-9.1347154" lon="148.3158673"/>
      <trkpt lat="-9.1345911" lon="148.3157887"/>
      <trkpt lat="-9.1345040" lon="148.3156562"/>
      <trkpt lat="-9.1344249" lon="148.3155291"/>
      <trkpt lat="-9.1342951" lon="148.3154620"/>
      <trkpt lat="-9.1341298" lon="148.3154587"/>
      <trkpt lat="-9.1339701" lon="148.3155078"/>
      <trkpt lat="-9.1338228" lon="148.3155296"/>
      <trkpt lat="-9.1336947" lon="148.3154975"/>
      <trkpt lat="-9.1335593" lon="148.3154253"/>
      <trkpt lat="-9.1334107" lon="148.3153835"/>
      <trkpt lat="-9.1332423" lon="148.3153779"/>
      <trkpt lat="-9.1330721" lon="148.3153960"/>
      <trkpt lat="-9.1329304" lon="148.3153609"/>
      <trkpt lat="-9.1327957" lon="148.3153261"/>
      <trkpt lat="-9.1326535" lon="148.3152771"/>
      <trkpt lat="-9.1324872" lon="148.3152609"/>
      <trkpt lat="-9.1323663" lon="148.3152198"/>
      <trkpt lat="-9.1322841" lon="148.3151976"/>
      <trkpt lat="-9.1322469" lon="148.3151913"/>
      <trkpt lat="-9.1322056" lon="148.3152192"/>
    </trkseg>
  </trk>
</gpx>
