<?xml version="1.0" encoding="UTF-8"?>
<gpx version="1.1" creator="MCA Maps — Managalas clan boundary survey"
     xmlns="http://www.topografix.com/GPX/1/1"
     xmlns:xsi="http://www.w3.org/2001/XMLSchema-instance"
     xsi:schemaLocation="http://www.topografix.com/GPX/1/1 http://www.topografix.com/GPX/1/1/gpx.xsd">
  <metadata>
    <name>Gumuri — clan land boundary</name>
    <desc>Gumuri, Zone 3. 6.8 km walked; 5.5 km still to walk in 1 gap</desc>
    <time>2026-08-16T00:00:00Z</time>
  </metadata>
  <wpt lat="-9.1352846" lon="148.3016943">
    <name>GAP 1 OF 1 START</name>
    <desc>5.49 km not walked. This straight line is not a boundary — it joins the two ends so the shape can be closed on paper. Gumuri, Zone 3.</desc>
    <sym>Flag</sym>
  </wpt>
  <wpt lat="-9.1733418" lon="148.3337562">
    <name>GAP 1 OF 1 END</name>
    <desc>5.49 km not walked. This straight line is not a boundary — it joins the two ends so the shape can be closed on paper. Gumuri, Zone 3.</desc>
    <sym>Flag</sym>
  </wpt>
  <trk>
    <name>GAP 1 OF 1 - NOT WALKED - 5.49 km</name>
    <desc>5.49 km not walked. This straight line is not a boundary — it joins the two ends so the shape can be closed on paper. Gumuri, Zone 3.</desc>
    <type>not-walked</type>
    <trkseg>
      <trkpt lat="-9.1352846" lon="148.3016943"/>
      <trkpt lat="-9.1733418" lon="148.3337562"/>
    </trkseg>
  </trk>
  <trk>
    <name>Gumuri - Gray Saui</name>
    <desc>Walked by Gray Saui. 6.8 km, 1 track(s), recorded on the ground. Gumuri, Zone 3.</desc>
    <type>walked-boundary</type>
    <trkseg>
      <trkpt lat="-9.1742825" lon="148.3357997"/>
      <trkpt lat="-9.1741715" lon="148.3356577"/>
      <trkpt lat="-9.1740559" lon="148.3355195"/>
      <trkpt lat="-9.1739615" lon="148.3353734"/>
      <trkpt lat="-9.1738836" lon="148.3352147"/>
      <trkpt lat="-9.1738074" lon="148.3350546"/>
      <trkpt lat="-9.1737154" lon="148.3348996"/>
      <trkpt lat="-9.1736372" lon="148.3347397"/>
      <trkpt lat="-9.1735859" lon="148.3345682"/>
      <trkpt lat="-9.1735559" lon="148.3343901"/>
      <trkpt lat="-9.1735263" lon="148.3342112"/>
      <trkpt lat="-9.1734776" lon="148.3340389"/>
      <trkpt lat="-9.1734139" lon="148.3338876"/>
      <trkpt lat="-9.1733418" lon="148.3337562"/>
    </trkseg>
    <trkseg>
      <trkpt lat="-9.1732887" lon="148.3336458"/>
      <trkpt lat="-9.1732057" lon="148.3334841"/>
      <trkpt lat="-9.1731229" lon="148.3333223"/>
      <trkpt lat="-9.1730393" lon="148.3331610"/>
      <trkpt lat="-9.1729599" lon="148.3329980"/>
      <trkpt lat="-9.1728902" lon="148.3328310"/>
      <trkpt lat="-9.1728263" lon="148.3326612"/>
      <trkpt lat="-9.1727595" lon="148.3324925"/>
      <trkpt lat="-9.1726828" lon="148.3323279"/>
      <trkpt lat="-9.1726055" lon="148.3321637"/>
      <trkpt lat="-9.1725265" lon="148.3320003"/>
      <trkpt lat="-9.1724520" lon="148.3318352"/>
      <trkpt lat="-9.1723793" lon="148.3316693"/>
      <trkpt lat="-9.1723257" lon="148.3314982"/>
      <trkpt lat="-9.1722828" lon="148.3313246"/>
      <trkpt lat="-9.1722300" lon="148.3311558"/>
      <trkpt lat="-9.1721535" lon="148.3309949"/>
      <trkpt lat="-9.1720495" lon="148.3308469"/>
      <trkpt lat="-9.1719375" lon="148.3307054"/>
      <trkpt lat="-9.1718313" lon="148.3305611"/>
      <trkpt lat="-9.1717319" lon="148.3304115"/>
      <trkpt lat="-9.1716388" lon="148.3302565"/>
      <trkpt lat="-9.1715199" lon="148.3301270"/>
      <trkpt lat="-9.1713777" lon="148.3300289"/>
      <trkpt lat="-9.1712122" lon="148.3299668"/>
      <trkpt lat="-9.1710432" lon="148.3299170"/>
      <trkpt lat="-9.1708711" lon="148.3298805"/>
      <trkpt lat="-9.1706959" lon="148.3298506"/>
      <trkpt lat="-9.1705165" lon="148.3298403"/>
      <trkpt lat="-9.1703379" lon="148.3298433"/>
      <trkpt lat="-9.1701594" lon="148.3298470"/>
      <trkpt lat="-9.1699824" lon="148.3298342"/>
      <trkpt lat="-9.1698167" lon="148.3297777"/>
      <trkpt lat="-9.1696647" lon="148.3296910"/>
      <trkpt lat="-9.1695141" lon="148.3295983"/>
      <trkpt lat="-9.1693550" lon="148.3295198"/>
      <trkpt lat="-9.1691856" lon="148.3294579"/>
      <trkpt lat="-9.1690235" lon="148.3293861"/>
      <trkpt lat="-9.1688699" lon="148.3293004"/>
      <trkpt lat="-9.1687243" lon="148.3292017"/>
      <trkpt lat="-9.1685879" lon="148.3290873"/>
      <trkpt lat="-9.1684574" lon="148.3289661"/>
      <trkpt lat="-9.1683422" lon="148.3288279"/>
      <trkpt lat="-9.1682249" lon="148.3286919"/>
      <trkpt lat="-9.1680968" lon="148.3285700"/>
      <trkpt lat="-9.1679467" lon="148.3284748"/>
      <trkpt lat="-9.1677850" lon="148.3283982"/>
      <trkpt lat="-9.1676214" lon="148.3283266"/>
      <trkpt lat="-9.1674537" lon="148.3282814"/>
      <trkpt lat="-9.1672803" lon="148.3282677"/>
      <trkpt lat="-9.1671078" lon="148.3283032"/>
      <trkpt lat="-9.1669351" lon="148.3283420"/>
      <trkpt lat="-9.1667708" lon="148.3284008"/>
      <trkpt lat="-9.1666297" lon="148.3284791"/>
      <trkpt lat="-9.1665033" lon="148.3285921"/>
      <trkpt lat="-9.1663829" lon="148.3287103"/>
      <trkpt lat="-9.1662374" lon="148.3287741"/>
      <trkpt lat="-9.1660777" lon="148.3288086"/>
      <trkpt lat="-9.1659080" lon="148.3287892"/>
      <trkpt lat="-9.1657359" lon="148.3287617"/>
      <trkpt lat="-9.1655632" lon="148.3287166"/>
      <trkpt lat="-9.1653897" lon="148.3286734"/>
      <trkpt lat="-9.1652179" lon="148.3286275"/>
      <trkpt lat="-9.1650518" lon="148.3285607"/>
      <trkpt lat="-9.1649410" lon="148.3285056"/>
      <trkpt lat="-9.1648768" lon="148.3284545"/>
      <trkpt lat="-9.1648562" lon="148.3283726"/>
      <trkpt lat="-9.1647957" lon="148.3282556"/>
      <trkpt lat="-9.1647078" lon="148.3281078"/>
      <trkpt lat="-9.1646114" lon="148.3279605"/>
      <trkpt lat="-9.1645524" lon="148.3277959"/>
      <trkpt lat="-9.1645175" lon="148.3276221"/>
      <trkpt lat="-9.1645031" lon="148.3274459"/>
      <trkpt lat="-9.1644682" lon="148.3272744"/>
      <trkpt lat="-9.1644499" lon="148.3270987"/>
      <trkpt lat="-9.1644470" lon="148.3269253"/>
      <trkpt lat="-9.1644720" lon="148.3267493"/>
      <trkpt lat="-9.1645056" lon="148.3265806"/>
      <trkpt lat="-9.1645046" lon="148.3264343"/>
      <trkpt lat="-9.1644919" lon="148.3263295"/>
      <trkpt lat="-9.1644154" lon="148.3262496"/>
      <trkpt lat="-9.1643265" lon="148.3261519"/>
      <trkpt lat="-9.1642093" lon="148.3260228"/>
      <trkpt lat="-9.1641077" lon="148.3258771"/>
      <trkpt lat="-9.1639831" lon="148.3257565"/>
      <trkpt lat="-9.1638568" lon="148.3256385"/>
      <trkpt lat="-9.1637114" lon="148.3255430"/>
      <trkpt lat="-9.1635628" lon="148.3254889"/>
      <trkpt lat="-9.1633927" lon="148.3254905"/>
      <trkpt lat="-9.1632321" lon="148.3255511"/>
      <trkpt lat="-9.1630727" lon="148.3255827"/>
      <trkpt lat="-9.1629130" lon="148.3255956"/>
      <trkpt lat="-9.1627451" lon="148.3255451"/>
      <trkpt lat="-9.1626233" lon="148.3255323"/>
      <trkpt lat="-9.1625685" lon="148.3255112"/>
      <trkpt lat="-9.1625457" lon="148.3254733"/>
      <trkpt lat="-9.1624737" lon="148.3254027"/>
      <trkpt lat="-9.1623382" lon="148.3253265"/>
      <trkpt lat="-9.1621739" lon="148.3252648"/>
      <trkpt lat="-9.1620146" lon="148.3251860"/>
      <trkpt lat="-9.1618594" lon="148.3250999"/>
      <trkpt lat="-9.1617059" lon="148.3250079"/>
      <trkpt lat="-9.1615709" lon="148.3249203"/>
      <trkpt lat="-9.1614571" lon="148.3248130"/>
      <trkpt lat="-9.1613684" lon="148.3246861"/>
      <trkpt lat="-9.1612699" lon="148.3245406"/>
      <trkpt lat="-9.1611601" lon="148.3244118"/>
      <trkpt lat="-9.1610161" lon="148.3243217"/>
      <trkpt lat="-9.1608611" lon="148.3242819"/>
      <trkpt lat="-9.1606982" lon="148.3242434"/>
      <trkpt lat="-9.1605722" lon="148.3241646"/>
      <trkpt lat="-9.1604505" lon="148.3240501"/>
      <trkpt lat="-9.1603277" lon="148.3239586"/>
      <trkpt lat="-9.1601798" lon="148.3239050"/>
      <trkpt lat="-9.1600237" lon="148.3238698"/>
      <trkpt lat="-9.1598665" lon="148.3238237"/>
      <trkpt lat="-9.1596992" lon="148.3238167"/>
      <trkpt lat="-9.1595334" lon="148.3238086"/>
      <trkpt lat="-9.1593635" lon="148.3238079"/>
      <trkpt lat="-9.1591899" lon="148.3237860"/>
      <trkpt lat="-9.1590604" lon="148.3237709"/>
      <trkpt lat="-9.1589929" lon="148.3237440"/>
      <trkpt lat="-9.1589977" lon="148.3237232"/>
      <trkpt lat="-9.1590035" lon="148.3237039"/>
      <trkpt lat="-9.1590063" lon="148.3237024"/>
      <trkpt lat="-9.1590030" lon="148.3236914"/>
      <trkpt lat="-9.1590144" lon="148.3236616"/>
      <trkpt lat="-9.1590345" lon="148.3236434"/>
      <trkpt lat="-9.1590331" lon="148.3236291"/>
      <trkpt lat="-9.1590141" lon="148.3236219"/>
      <trkpt lat="-9.1589445" lon="148.3235642"/>
      <trkpt lat="-9.1588346" lon="148.3234839"/>
      <trkpt lat="-9.1586852" lon="148.3234142"/>
      <trkpt lat="-9.1585205" lon="148.3233765"/>
      <trkpt lat="-9.1583831" lon="148.3233130"/>
      <trkpt lat="-9.1583282" lon="148.3233017"/>
      <trkpt lat="-9.1583241" lon="148.3232621"/>
      <trkpt lat="-9.1583114" lon="148.3232379"/>
      <trkpt lat="-9.1582362" lon="148.3231174"/>
      <trkpt lat="-9.1581276" lon="148.3229921"/>
      <trkpt lat="-9.1580011" lon="148.3228858"/>
      <trkpt lat="-9.1578560" lon="148.3228031"/>
      <trkpt lat="-9.1576921" lon="148.3227461"/>
      <trkpt lat="-9.1575339" lon="148.3226705"/>
      <trkpt lat="-9.1573871" lon="148.3225752"/>
      <trkpt lat="-9.1572582" lon="148.3224548"/>
      <trkpt lat="-9.1571712" lon="148.3223704"/>
      <trkpt lat="-9.1571022" lon="148.3222860"/>
      <trkpt lat="-9.1570877" lon="148.3222430"/>
      <trkpt lat="-9.1570332" lon="148.3221608"/>
      <trkpt lat="-9.1569615" lon="148.3220927"/>
      <trkpt lat="-9.1568484" lon="148.3219796"/>
      <trkpt lat="-9.1567588" lon="148.3218617"/>
      <trkpt lat="-9.1567127" lon="148.3217123"/>
      <trkpt lat="-9.1566767" lon="148.3216017"/>
      <trkpt lat="-9.1566710" lon="148.3215502"/>
      <trkpt lat="-9.1566503" lon="148.3215339"/>
      <trkpt lat="-9.1566608" lon="148.3215673"/>
      <trkpt lat="-9.1566688" lon="148.3215783"/>
      <trkpt lat="-9.1566824" lon="148.3215826"/>
      <trkpt lat="-9.1566840" lon="148.3215646"/>
      <trkpt lat="-9.1566689" lon="148.3215552"/>
      <trkpt lat="-9.1566355" lon="148.3215907"/>
      <trkpt lat="-9.1566067" lon="148.3215580"/>
      <trkpt lat="-9.1565874" lon="148.3214807"/>
      <trkpt lat="-9.1565638" lon="148.3213368"/>
      <trkpt lat="-9.1564935" lon="148.3211988"/>
      <trkpt lat="-9.1564327" lon="148.3210868"/>
      <trkpt lat="-9.1563574" lon="148.3209991"/>
      <trkpt lat="-9.1563236" lon="148.3208967"/>
      <trkpt lat="-9.1562603" lon="148.3207537"/>
      <trkpt lat="-9.1562432" lon="148.3205809"/>
      <trkpt lat="-9.1562493" lon="148.3204180"/>
      <trkpt lat="-9.1562796" lon="148.3203188"/>
      <trkpt lat="-9.1563102" lon="148.3202453"/>
      <trkpt lat="-9.1563362" lon="148.3201952"/>
      <trkpt lat="-9.1563572" lon="148.3201437"/>
      <trkpt lat="-9.1564193" lon="148.3201116"/>
      <trkpt lat="-9.1564655" lon="148.3201098"/>
      <trkpt lat="-9.1564773" lon="148.3200612"/>
      <trkpt lat="-9.1564702" lon="148.3200283"/>
      <trkpt lat="-9.1564538" lon="148.3199360"/>
      <trkpt lat="-9.1564873" lon="148.3198231"/>
      <trkpt lat="-9.1565058" lon="148.3196667"/>
      <trkpt lat="-9.1565217" lon="148.3195178"/>
      <trkpt lat="-9.1564783" lon="148.3193912"/>
      <trkpt lat="-9.1563693" lon="148.3192997"/>
      <trkpt lat="-9.1562066" lon="148.3192603"/>
      <trkpt lat="-9.1560390" lon="148.3192863"/>
      <trkpt lat="-9.1558708" lon="148.3193092"/>
      <trkpt lat="-9.1557029" lon="148.3193215"/>
      <trkpt lat="-9.1555299" lon="148.3192889"/>
      <trkpt lat="-9.1553615" lon="148.3192359"/>
      <trkpt lat="-9.1551975" lon="148.3191709"/>
      <trkpt lat="-9.1550505" lon="148.3190778"/>
      <trkpt lat="-9.1549024" lon="148.3189884"/>
      <trkpt lat="-9.1547549" lon="148.3188961"/>
      <trkpt lat="-9.1545892" lon="148.3188401"/>
      <trkpt lat="-9.1544206" lon="148.3187886"/>
      <trkpt lat="-9.1542524" lon="148.3187338"/>
      <trkpt lat="-9.1540903" lon="148.3186592"/>
      <trkpt lat="-9.1539287" lon="148.3185845"/>
      <trkpt lat="-9.1537824" lon="148.3184922"/>
      <trkpt lat="-9.1536418" lon="148.3183950"/>
      <trkpt lat="-9.1535073" lon="148.3182895"/>
      <trkpt lat="-9.1534158" lon="148.3182208"/>
      <trkpt lat="-9.1533199" lon="148.3181678"/>
      <trkpt lat="-9.1532183" lon="148.3181206"/>
      <trkpt lat="-9.1530538" lon="148.3180630"/>
      <trkpt lat="-9.1528889" lon="148.3180471"/>
      <trkpt lat="-9.1527330" lon="148.3180196"/>
      <trkpt lat="-9.1525816" lon="148.3179839"/>
      <trkpt lat="-9.1524868" lon="148.3178781"/>
      <trkpt lat="-9.1523989" lon="148.3177793"/>
      <trkpt lat="-9.1523149" lon="148.3176744"/>
      <trkpt lat="-9.1521818" lon="148.3176507"/>
      <trkpt lat="-9.1520336" lon="148.3176802"/>
      <trkpt lat="-9.1519102" lon="148.3177222"/>
      <trkpt lat="-9.1518401" lon="148.3176714"/>
      <trkpt lat="-9.1518352" lon="148.3175361"/>
      <trkpt lat="-9.1518430" lon="148.3173634"/>
      <trkpt lat="-9.1517965" lon="148.3172081"/>
      <trkpt lat="-9.1516999" lon="148.3170706"/>
      <trkpt lat="-9.1515649" lon="148.3169583"/>
      <trkpt lat="-9.1514592" lon="148.3168472"/>
      <trkpt lat="-9.1514142" lon="148.3168017"/>
      <trkpt lat="-9.1513790" lon="148.3167883"/>
      <trkpt lat="-9.1513692" lon="148.3168145"/>
      <trkpt lat="-9.1513146" lon="148.3167612"/>
      <trkpt lat="-9.1513065" lon="148.3166485"/>
      <trkpt lat="-9.1512721" lon="148.3164779"/>
      <trkpt lat="-9.1512077" lon="148.3163418"/>
      <trkpt lat="-9.1510783" lon="148.3162531"/>
      <trkpt lat="-9.1509259" lon="148.3161920"/>
      <trkpt lat="-9.1507946" lon="148.3161024"/>
      <trkpt lat="-9.1506905" lon="148.3159724"/>
      <trkpt lat="-9.1505967" lon="148.3158199"/>
      <trkpt lat="-9.1505446" lon="148.3156612"/>
      <trkpt lat="-9.1505119" lon="148.3154965"/>
      <trkpt lat="-9.1504647" lon="148.3153495"/>
      <trkpt lat="-9.1503512" lon="148.3152608"/>
      <trkpt lat="-9.1501925" lon="148.3152451"/>
      <trkpt lat="-9.1500316" lon="148.3152966"/>
      <trkpt lat="-9.1498682" lon="148.3153477"/>
      <trkpt lat="-9.1497333" lon="148.3153311"/>
      <trkpt lat="-9.1496278" lon="148.3152307"/>
      <trkpt lat="-9.1495547" lon="148.3150837"/>
      <trkpt lat="-9.1494730" lon="148.3149956"/>
      <trkpt lat="-9.1493551" lon="148.3149853"/>
      <trkpt lat="-9.1492114" lon="148.3150468"/>
      <trkpt lat="-9.1490521" lon="148.3150769"/>
      <trkpt lat="-9.1489358" lon="148.3150201"/>
      <trkpt lat="-9.1488559" lon="148.3148787"/>
      <trkpt lat="-9.1487925" lon="148.3147141"/>
      <trkpt lat="-9.1487289" lon="148.3145508"/>
      <trkpt lat="-9.1486350" lon="148.3144487"/>
      <trkpt lat="-9.1485699" lon="148.3143874"/>
      <trkpt lat="-9.1484979" lon="148.3143587"/>
      <trkpt lat="-9.1484230" lon="148.3142921"/>
      <trkpt lat="-9.1483158" lon="148.3141878"/>
      <trkpt lat="-9.1481844" lon="148.3140682"/>
      <trkpt lat="-9.1480465" lon="148.3139603"/>
      <trkpt lat="-9.1479046" lon="148.3138591"/>
      <trkpt lat="-9.1477648" lon="148.3137550"/>
      <trkpt lat="-9.1476216" lon="148.3136646"/>
      <trkpt lat="-9.1474648" lon="148.3135978"/>
      <trkpt lat="-9.1472958" lon="148.3135433"/>
      <trkpt lat="-9.1471533" lon="148.3134494"/>
      <trkpt lat="-9.1470334" lon="148.3133210"/>
      <trkpt lat="-9.1469244" lon="148.3131797"/>
      <trkpt lat="-9.1468242" lon="148.3130317"/>
      <trkpt lat="-9.1467114" lon="148.3128991"/>
      <trkpt lat="-9.1465795" lon="148.3128026"/>
      <trkpt lat="-9.1464133" lon="148.3127471"/>
      <trkpt lat="-9.1462415" lon="148.3126985"/>
      <trkpt lat="-9.1460772" lon="148.3126275"/>
      <trkpt lat="-9.1459127" lon="148.3125576"/>
      <trkpt lat="-9.1457456" lon="148.3124936"/>
      <trkpt lat="-9.1456460" lon="148.3124135"/>
      <trkpt lat="-9.1456182" lon="148.3122898"/>
      <trkpt lat="-9.1456329" lon="148.3121313"/>
      <trkpt lat="-9.1455717" lon="148.3120212"/>
      <trkpt lat="-9.1454999" lon="148.3119223"/>
      <trkpt lat="-9.1454589" lon="148.3118780"/>
      <trkpt lat="-9.1454332" lon="148.3118310"/>
      <trkpt lat="-9.1454523" lon="148.3118179"/>
      <trkpt lat="-9.1453972" lon="148.3118073"/>
      <trkpt lat="-9.1453655" lon="148.3117413"/>
      <trkpt lat="-9.1452462" lon="148.3116486"/>
      <trkpt lat="-9.1451513" lon="148.3115818"/>
      <trkpt lat="-9.1450255" lon="148.3115552"/>
      <trkpt lat="-9.1449159" lon="148.3115352"/>
      <trkpt lat="-9.1447796" lon="148.3114868"/>
      <trkpt lat="-9.1446639" lon="148.3114913"/>
      <trkpt lat="-9.1445499" lon="148.3115810"/>
      <trkpt lat="-9.1444495" lon="148.3116784"/>
      <trkpt lat="-9.1443918" lon="148.3116844"/>
      <trkpt lat="-9.1443399" lon="148.3116046"/>
      <trkpt lat="-9.1443250" lon="148.3115300"/>
      <trkpt lat="-9.1443192" lon="148.3114600"/>
      <trkpt lat="-9.1443277" lon="148.3113783"/>
      <trkpt lat="-9.1442940" lon="148.3112528"/>
      <trkpt lat="-9.1441855" lon="148.3111527"/>
      <trkpt lat="-9.1440267" lon="148.3110673"/>
      <trkpt lat="-9.1438605" lon="148.3110140"/>
      <trkpt lat="-9.1436972" lon="148.3109890"/>
      <trkpt lat="-9.1435556" lon="148.3109429"/>
      <trkpt lat="-9.1434196" lon="148.3108745"/>
      <trkpt lat="-9.1432761" lon="148.3108015"/>
      <trkpt lat="-9.1431098" lon="148.3107534"/>
      <trkpt lat="-9.1429556" lon="148.3106826"/>
      <trkpt lat="-9.1428104" lon="148.3105907"/>
      <trkpt lat="-9.1426692" lon="148.3105567"/>
      <trkpt lat="-9.1425446" lon="148.3106136"/>
      <trkpt lat="-9.1424348" lon="148.3107301"/>
      <trkpt lat="-9.1423530" lon="148.3108712"/>
      <trkpt lat="-9.1422753" lon="148.3110213"/>
      <trkpt lat="-9.1422152" lon="148.3111794"/>
      <trkpt lat="-9.1421183" lon="148.3112713"/>
      <trkpt lat="-9.1419846" lon="148.3112965"/>
      <trkpt lat="-9.1418092" lon="148.3112726"/>
      <trkpt lat="-9.1416369" lon="148.3112776"/>
      <trkpt lat="-9.1414929" lon="148.3112790"/>
      <trkpt lat="-9.1413624" lon="148.3112819"/>
      <trkpt lat="-9.1412276" lon="148.3112575"/>
      <trkpt lat="-9.1410764" lon="148.3112077"/>
      <trkpt lat="-9.1409131" lon="148.3111695"/>
      <trkpt lat="-9.1407497" lon="148.3111479"/>
      <trkpt lat="-9.1405748" lon="148.3111713"/>
      <trkpt lat="-9.1404254" lon="148.3111369"/>
      <trkpt lat="-9.1402757" lon="148.3110895"/>
      <trkpt lat="-9.1401325" lon="148.3110165"/>
      <trkpt lat="-9.1399761" lon="148.3109728"/>
      <trkpt lat="-9.1398929" lon="148.3109429"/>
      <trkpt lat="-9.1398244" lon="148.3109439"/>
      <trkpt lat="-9.1397554" lon="148.3109981"/>
      <trkpt lat="-9.1396137" lon="148.3110528"/>
      <trkpt lat="-9.1394677" lon="148.3110657"/>
      <trkpt lat="-9.1393210" lon="148.3110360"/>
      <trkpt lat="-9.1391998" lon="148.3109570"/>
      <trkpt lat="-9.1390874" lon="148.3108575"/>
      <trkpt lat="-9.1389904" lon="148.3107176"/>
      <trkpt lat="-9.1388819" lon="148.3105769"/>
      <trkpt lat="-9.1387536" lon="148.3104624"/>
      <trkpt lat="-9.1386002" lon="148.3103809"/>
      <trkpt lat="-9.1384670" lon="148.3103430"/>
      <trkpt lat="-9.1384273" lon="148.3102908"/>
      <trkpt lat="-9.1384345" lon="148.3102033"/>
      <trkpt lat="-9.1384605" lon="148.3100540"/>
      <trkpt lat="-9.1384312" lon="148.3098880"/>
      <trkpt lat="-9.1384191" lon="148.3097138"/>
      <trkpt lat="-9.1384059" lon="148.3095384"/>
      <trkpt lat="-9.1383904" lon="148.3093613"/>
      <trkpt lat="-9.1383429" lon="148.3091900"/>
      <trkpt lat="-9.1382849" lon="148.3090779"/>
      <trkpt lat="-9.1382397" lon="148.3089664"/>
      <trkpt lat="-9.1382093" lon="148.3088496"/>
      <trkpt lat="-9.1381749" lon="148.3086769"/>
      <trkpt lat="-9.1381232" lon="148.3085052"/>
      <trkpt lat="-9.1380705" lon="148.3083331"/>
      <trkpt lat="-9.1379925" lon="148.3081816"/>
      <trkpt lat="-9.1378840" lon="148.3080539"/>
      <trkpt lat="-9.1377587" lon="148.3079324"/>
      <trkpt lat="-9.1376812" lon="148.3077872"/>
      <trkpt lat="-9.1376563" lon="148.3076170"/>
      <trkpt lat="-9.1376505" lon="148.3074422"/>
      <trkpt lat="-9.1376356" lon="148.3072679"/>
      <trkpt lat="-9.1375900" lon="148.3071011"/>
      <trkpt lat="-9.1375502" lon="148.3069332"/>
      <trkpt lat="-9.1375207" lon="148.3067642"/>
      <trkpt lat="-9.1375139" lon="148.3065864"/>
      <trkpt lat="-9.1375238" lon="148.3064145"/>
      <trkpt lat="-9.1375254" lon="148.3062428"/>
      <trkpt lat="-9.1375204" lon="148.3060715"/>
      <trkpt lat="-9.1375196" lon="148.3058979"/>
      <trkpt lat="-9.1374949" lon="148.3057350"/>
      <trkpt lat="-9.1374356" lon="148.3055961"/>
      <trkpt lat="-9.1373619" lon="148.3054693"/>
      <trkpt lat="-9.1372880" lon="148.3053414"/>
      <trkpt lat="-9.1372799" lon="148.3052027"/>
      <trkpt lat="-9.1372709" lon="148.3051080"/>
      <trkpt lat="-9.1372884" lon="148.3050068"/>
      <trkpt lat="-9.1372642" lon="148.3048967"/>
      <trkpt lat="-9.1372196" lon="148.3047321"/>
      <trkpt lat="-9.1371656" lon="148.3045661"/>
      <trkpt lat="-9.1371297" lon="148.3043937"/>
      <trkpt lat="-9.1370987" lon="148.3042206"/>
      <trkpt lat="-9.1370735" lon="148.3040544"/>
      <trkpt lat="-9.1370152" lon="148.3039037"/>
      <trkpt lat="-9.1369473" lon="148.3037521"/>
      <trkpt lat="-9.1368484" lon="148.3036185"/>
      <trkpt lat="-9.1367691" lon="148.3034726"/>
      <trkpt lat="-9.1366998" lon="148.3033867"/>
      <trkpt lat="-9.1366722" lon="148.3033361"/>
      <trkpt lat="-9.1366178" lon="148.3033088"/>
      <trkpt lat="-9.1365256" lon="148.3032469"/>
      <trkpt lat="-9.1363742" lon="148.3031959"/>
      <trkpt lat="-9.1362794" lon="148.3031724"/>
      <trkpt lat="-9.1361995" lon="148.3031299"/>
      <trkpt lat="-9.1361436" lon="148.3030232"/>
      <trkpt lat="-9.1360400" lon="148.3028752"/>
      <trkpt lat="-9.1359432" lon="148.3027234"/>
      <trkpt lat="-9.1358456" lon="148.3025733"/>
      <trkpt lat="-9.1357473" lon="148.3024239"/>
      <trkpt lat="-9.1356463" lon="148.3022837"/>
      <trkpt lat="-9.1355599" lon="148.3021376"/>
      <trkpt lat="-9.1355071" lon="148.3019810"/>
      <trkpt lat="-9.1354497" lon="148.3018335"/>
      <trkpt lat="-9.1353636" lon="148.3017537"/>
      <trkpt lat="-9.1352880" lon="148.3017303"/>
      <trkpt lat="-9.1352581" lon="148.3017261"/>
      <trkpt lat="-9.1352846" lon="148.3016943"/>
    </trkseg>
  </trk>
  <trk>
    <name>Gumuri - Monty Stanford</name>
    <desc>Walked by Monty Stanford. 0.0 km, 1 track(s), recorded on the ground. Gumuri, Zone 3.</desc>
    <type>walked-boundary</type>
    <trkseg>
      <trkpt lat="-9.1734697" lon="148.3341690"/>
      <trkpt lat="-9.1734113" lon="148.3340031"/>
      <trkpt lat="-9.1733853" lon="148.3339651"/>
    </trkseg>
  </trk>
</gpx>
