<?xml version="1.0" encoding="UTF-8"?>
<gpx version="1.1" creator="MCA Maps — Managalas clan boundary survey"
     xmlns="http://www.topografix.com/GPX/1/1"
     xmlns:xsi="http://www.w3.org/2001/XMLSchema-instance"
     xsi:schemaLocation="http://www.topografix.com/GPX/1/1 http://www.topografix.com/GPX/1/1/gpx.xsd">
  <metadata>
    <name>Kasaki — clan land boundary</name>
    <desc>Kasaki, Zone 2. 15.1 km walked; 1.3 km still to walk in 2 gaps. 2 join(s) under the marking threshold are not shown.</desc>
    <time>2026-08-18T00:00:00Z</time>
  </metadata>
  <wpt lat="-9.1471200" lon="148.2738833">
    <name>GAP 1 OF 2 START</name>
    <desc>0.44 km not walked. This straight line is not a boundary — it joins the two ends so the shape can be closed on paper. Kasaki, Zone 2.</desc>
    <sym>Flag</sym>
  </wpt>
  <wpt lat="-9.1480117" lon="148.2699883">
    <name>GAP 1 OF 2 END</name>
    <desc>0.44 km not walked. This straight line is not a boundary — it joins the two ends so the shape can be closed on paper. Kasaki, Zone 2.</desc>
    <sym>Flag</sym>
  </wpt>
  <wpt lat="-9.1248217" lon="148.2660850">
    <name>GAP 2 OF 2 START</name>
    <desc>0.81 km not walked. This straight line is not a boundary — it joins the two ends so the shape can be closed on paper. Kasaki, Zone 2.</desc>
    <sym>Flag</sym>
  </wpt>
  <wpt lat="-9.1276267" lon="148.2729200">
    <name>GAP 2 OF 2 END</name>
    <desc>0.81 km not walked. This straight line is not a boundary — it joins the two ends so the shape can be closed on paper. Kasaki, Zone 2.</desc>
    <sym>Flag</sym>
  </wpt>
  <trk>
    <name>GAP 1 OF 2 - NOT WALKED - 0.44 km</name>
    <desc>0.44 km not walked. This straight line is not a boundary — it joins the two ends so the shape can be closed on paper. Kasaki, Zone 2.</desc>
    <type>not-walked</type>
    <trkseg>
      <trkpt lat="-9.1471200" lon="148.2738833"/>
      <trkpt lat="-9.1480117" lon="148.2699883"/>
    </trkseg>
  </trk>
  <trk>
    <name>GAP 2 OF 2 - NOT WALKED - 0.81 km</name>
    <desc>0.81 km not walked. This straight line is not a boundary — it joins the two ends so the shape can be closed on paper. Kasaki, Zone 2.</desc>
    <type>not-walked</type>
    <trkseg>
      <trkpt lat="-9.1248217" lon="148.2660850"/>
      <trkpt lat="-9.1276267" lon="148.2729200"/>
    </trkseg>
  </trk>
  <trk>
    <name>Kasaki - Ananias Masua</name>
    <desc>Walked by Ananias Masua. 15.1 km, 1 track(s), recorded on the ground. Kasaki, Zone 2.</desc>
    <type>walked-boundary</type>
    <trkseg>
      <trkpt lat="-9.1359433" lon="148.2820250"/>
      <trkpt lat="-9.1358181" lon="148.2821106"/>
      <trkpt lat="-9.1357665" lon="148.2821532"/>
      <trkpt lat="-9.1357585" lon="148.2821724"/>
      <trkpt lat="-9.1357773" lon="148.2821863"/>
      <trkpt lat="-9.1357292" lon="148.2821810"/>
      <trkpt lat="-9.1356582" lon="148.2821079"/>
      <trkpt lat="-9.1356190" lon="148.2819948"/>
      <trkpt lat="-9.1356734" lon="148.2818903"/>
      <trkpt lat="-9.1358109" lon="148.2818258"/>
      <trkpt lat="-9.1359574" lon="148.2817517"/>
      <trkpt lat="-9.1360488" lon="148.2816332"/>
      <trkpt lat="-9.1360823" lon="148.2814674"/>
      <trkpt lat="-9.1360497" lon="148.2812957"/>
      <trkpt lat="-9.1359924" lon="148.2811294"/>
      <trkpt lat="-9.1359549" lon="148.2809685"/>
      <trkpt lat="-9.1359945" lon="148.2808280"/>
      <trkpt lat="-9.1360745" lon="148.2806941"/>
      <trkpt lat="-9.1361561" lon="148.2805630"/>
      <trkpt lat="-9.1362178" lon="148.2804100"/>
      <trkpt lat="-9.1362880" lon="148.2802517"/>
      <trkpt lat="-9.1363783" lon="148.2801007"/>
      <trkpt lat="-9.1364368" lon="148.2799985"/>
      <trkpt lat="-9.1365161" lon="148.2799394"/>
      <trkpt lat="-9.1364990" lon="148.2799114"/>
      <trkpt lat="-9.1365015" lon="148.2799022"/>
      <trkpt lat="-9.1364696" lon="148.2799199"/>
      <trkpt lat="-9.1364973" lon="148.2798923"/>
      <trkpt lat="-9.1365262" lon="148.2798668"/>
      <trkpt lat="-9.1365570" lon="148.2798387"/>
      <trkpt lat="-9.1366407" lon="148.2798497"/>
      <trkpt lat="-9.1367647" lon="148.2798485"/>
      <trkpt lat="-9.1369354" lon="148.2798503"/>
      <trkpt lat="-9.1371033" lon="148.2798479"/>
      <trkpt lat="-9.1372672" lon="148.2798114"/>
      <trkpt lat="-9.1374324" lon="148.2797546"/>
      <trkpt lat="-9.1376005" lon="148.2797103"/>
      <trkpt lat="-9.1377745" lon="148.2797056"/>
      <trkpt lat="-9.1379365" lon="148.2797390"/>
      <trkpt lat="-9.1380448" lon="148.2798446"/>
      <trkpt lat="-9.1381263" lon="148.2799891"/>
      <trkpt lat="-9.1381968" lon="148.2801458"/>
      <trkpt lat="-9.1383146" lon="148.2802706"/>
      <trkpt lat="-9.1384605" lon="148.2803496"/>
      <trkpt lat="-9.1386230" lon="148.2803865"/>
      <trkpt lat="-9.1387906" lon="148.2803950"/>
      <trkpt lat="-9.1389388" lon="148.2804382"/>
      <trkpt lat="-9.1390658" lon="148.2805010"/>
      <trkpt lat="-9.1391606" lon="148.2805079"/>
      <trkpt lat="-9.1392445" lon="148.2804240"/>
      <trkpt lat="-9.1393147" lon="148.2802582"/>
      <trkpt lat="-9.1394129" lon="148.2801241"/>
      <trkpt lat="-9.1395373" lon="148.2800265"/>
      <trkpt lat="-9.1396980" lon="148.2800133"/>
      <trkpt lat="-9.1398635" lon="148.2800474"/>
      <trkpt lat="-9.1399474" lon="148.2801413"/>
      <trkpt lat="-9.1399593" lon="148.2802591"/>
      <trkpt lat="-9.1398883" lon="148.2804012"/>
      <trkpt lat="-9.1398762" lon="148.2805482"/>
      <trkpt lat="-9.1399335" lon="148.2806721"/>
      <trkpt lat="-9.1400757" lon="148.2807619"/>
      <trkpt lat="-9.1402319" lon="148.2808231"/>
      <trkpt lat="-9.1403768" lon="148.2809015"/>
      <trkpt lat="-9.1405108" lon="148.2809895"/>
      <trkpt lat="-9.1406547" lon="148.2810521"/>
      <trkpt lat="-9.1408005" lon="148.2810314"/>
      <trkpt lat="-9.1409419" lon="148.2809489"/>
      <trkpt lat="-9.1410808" lon="148.2808675"/>
      <trkpt lat="-9.1411671" lon="148.2808376"/>
      <trkpt lat="-9.1412232" lon="148.2808479"/>
      <trkpt lat="-9.1412403" lon="148.2808702"/>
      <trkpt lat="-9.1412956" lon="148.2809292"/>
      <trkpt lat="-9.1413901" lon="148.2810069"/>
      <trkpt lat="-9.1415129" lon="148.2811150"/>
      <trkpt lat="-9.1416630" lon="148.2811498"/>
      <trkpt lat="-9.1417684" lon="148.2811076"/>
      <trkpt lat="-9.1418384" lon="148.2809691"/>
      <trkpt lat="-9.1418953" lon="148.2808221"/>
      <trkpt lat="-9.1419586" lon="148.2807532"/>
      <trkpt lat="-9.1420267" lon="148.2807633"/>
    </trkseg>
    <trkseg>
      <trkpt lat="-9.1421033" lon="148.2808233"/>
      <trkpt lat="-9.1421568" lon="148.2809663"/>
      <trkpt lat="-9.1421940" lon="148.2811165"/>
      <trkpt lat="-9.1422375" lon="148.2812676"/>
      <trkpt lat="-9.1423416" lon="148.2813952"/>
      <trkpt lat="-9.1424868" lon="148.2814563"/>
      <trkpt lat="-9.1426495" lon="148.2814521"/>
      <trkpt lat="-9.1428028" lon="148.2814481"/>
      <trkpt lat="-9.1428536" lon="148.2814976"/>
      <trkpt lat="-9.1428361" lon="148.2816264"/>
      <trkpt lat="-9.1427797" lon="148.2817845"/>
      <trkpt lat="-9.1427957" lon="148.2819496"/>
      <trkpt lat="-9.1428652" lon="148.2820206"/>
      <trkpt lat="-9.1429873" lon="148.2820067"/>
      <trkpt lat="-9.1431382" lon="148.2819260"/>
      <trkpt lat="-9.1433011" lon="148.2818551"/>
      <trkpt lat="-9.1434561" lon="148.2817858"/>
      <trkpt lat="-9.1436114" lon="148.2817250"/>
      <trkpt lat="-9.1437545" lon="148.2817305"/>
      <trkpt lat="-9.1438640" lon="148.2818090"/>
      <trkpt lat="-9.1439276" lon="148.2819554"/>
      <trkpt lat="-9.1439364" lon="148.2821184"/>
      <trkpt lat="-9.1439226" lon="148.2822821"/>
      <trkpt lat="-9.1439268" lon="148.2824416"/>
      <trkpt lat="-9.1439867" lon="148.2825867"/>
      <trkpt lat="-9.1441068" lon="148.2827127"/>
      <trkpt lat="-9.1442540" lon="148.2827726"/>
      <trkpt lat="-9.1443852" lon="148.2827364"/>
      <trkpt lat="-9.1445082" lon="148.2826289"/>
      <trkpt lat="-9.1446350" lon="148.2825381"/>
      <trkpt lat="-9.1447657" lon="148.2825503"/>
      <trkpt lat="-9.1448321" lon="148.2826566"/>
      <trkpt lat="-9.1448517" lon="148.2828201"/>
      <trkpt lat="-9.1448645" lon="148.2829893"/>
      <trkpt lat="-9.1449176" lon="148.2831596"/>
      <trkpt lat="-9.1449994" lon="148.2833009"/>
      <trkpt lat="-9.1450523" lon="148.2834464"/>
      <trkpt lat="-9.1451026" lon="148.2835552"/>
      <trkpt lat="-9.1450965" lon="148.2836138"/>
      <trkpt lat="-9.1451060" lon="148.2836230"/>
      <trkpt lat="-9.1451100" lon="148.2836233"/>
    </trkseg>
    <trkseg>
      <trkpt lat="-9.1450033" lon="148.2835800"/>
      <trkpt lat="-9.1451297" lon="148.2835317"/>
      <trkpt lat="-9.1452119" lon="148.2835217"/>
      <trkpt lat="-9.1452500" lon="148.2835500"/>
    </trkseg>
    <trkseg>
      <trkpt lat="-9.1453417" lon="148.2835500"/>
      <trkpt lat="-9.1455097" lon="148.2834848"/>
      <trkpt lat="-9.1456717" lon="148.2834095"/>
      <trkpt lat="-9.1458283" lon="148.2833231"/>
      <trkpt lat="-9.1459802" lon="148.2832292"/>
      <trkpt lat="-9.1460828" lon="148.2831091"/>
      <trkpt lat="-9.1461371" lon="148.2829585"/>
      <trkpt lat="-9.1461338" lon="148.2827838"/>
      <trkpt lat="-9.1461272" lon="148.2826035"/>
      <trkpt lat="-9.1461316" lon="148.2824245"/>
      <trkpt lat="-9.1461490" lon="148.2822452"/>
      <trkpt lat="-9.1461653" lon="148.2820659"/>
      <trkpt lat="-9.1461597" lon="148.2818851"/>
      <trkpt lat="-9.1461553" lon="148.2817055"/>
      <trkpt lat="-9.1461780" lon="148.2815317"/>
      <trkpt lat="-9.1462313" lon="148.2813624"/>
      <trkpt lat="-9.1462486" lon="148.2812087"/>
      <trkpt lat="-9.1462057" lon="148.2810605"/>
      <trkpt lat="-9.1461039" lon="148.2809189"/>
      <trkpt lat="-9.1460022" lon="148.2807730"/>
      <trkpt lat="-9.1459774" lon="148.2806327"/>
      <trkpt lat="-9.1460400" lon="148.2805102"/>
      <trkpt lat="-9.1461878" lon="148.2804093"/>
      <trkpt lat="-9.1463473" lon="148.2803252"/>
      <trkpt lat="-9.1464881" lon="148.2802345"/>
      <trkpt lat="-9.1465576" lon="148.2801131"/>
      <trkpt lat="-9.1465916" lon="148.2799643"/>
      <trkpt lat="-9.1466055" lon="148.2797944"/>
      <trkpt lat="-9.1466422" lon="148.2796674"/>
      <trkpt lat="-9.1466667" lon="148.2795800"/>
    </trkseg>
    <trkseg>
      <trkpt lat="-9.1467650" lon="148.2795867"/>
      <trkpt lat="-9.1467702" lon="148.2794168"/>
      <trkpt lat="-9.1467352" lon="148.2792559"/>
      <trkpt lat="-9.1466432" lon="148.2791239"/>
      <trkpt lat="-9.1465409" lon="148.2789952"/>
      <trkpt lat="-9.1464521" lon="148.2789735"/>
      <trkpt lat="-9.1464386" lon="148.2790327"/>
      <trkpt lat="-9.1464267" lon="148.2791577"/>
      <trkpt lat="-9.1464118" lon="148.2791960"/>
      <trkpt lat="-9.1463242" lon="148.2791545"/>
      <trkpt lat="-9.1462402" lon="148.2790375"/>
      <trkpt lat="-9.1461919" lon="148.2788936"/>
      <trkpt lat="-9.1461687" lon="148.2787234"/>
      <trkpt lat="-9.1461635" lon="148.2785713"/>
      <trkpt lat="-9.1461782" lon="148.2784280"/>
      <trkpt lat="-9.1462647" lon="148.2783078"/>
      <trkpt lat="-9.1463953" lon="148.2782010"/>
      <trkpt lat="-9.1465328" lon="148.2780982"/>
      <trkpt lat="-9.1466436" lon="148.2779860"/>
      <trkpt lat="-9.1467137" lon="148.2778415"/>
      <trkpt lat="-9.1467719" lon="148.2777251"/>
      <trkpt lat="-9.1468028" lon="148.2775934"/>
      <trkpt lat="-9.1468359" lon="148.2774616"/>
      <trkpt lat="-9.1468102" lon="148.2772957"/>
      <trkpt lat="-9.1468222" lon="148.2771405"/>
      <trkpt lat="-9.1468297" lon="148.2770249"/>
      <trkpt lat="-9.1468550" lon="148.2769513"/>
      <trkpt lat="-9.1468303" lon="148.2769036"/>
      <trkpt lat="-9.1468413" lon="148.2768303"/>
      <trkpt lat="-9.1468705" lon="148.2767093"/>
      <trkpt lat="-9.1469291" lon="148.2765526"/>
      <trkpt lat="-9.1469448" lon="148.2763849"/>
      <trkpt lat="-9.1469687" lon="148.2762219"/>
      <trkpt lat="-9.1469693" lon="148.2760609"/>
      <trkpt lat="-9.1469890" lon="148.2758981"/>
      <trkpt lat="-9.1470207" lon="148.2757447"/>
      <trkpt lat="-9.1470543" lon="148.2755864"/>
      <trkpt lat="-9.1470601" lon="148.2754266"/>
      <trkpt lat="-9.1470454" lon="148.2752495"/>
      <trkpt lat="-9.1470207" lon="148.2750743"/>
      <trkpt lat="-9.1470203" lon="148.2749190"/>
      <trkpt lat="-9.1470710" lon="148.2748027"/>
      <trkpt lat="-9.1471979" lon="148.2747276"/>
      <trkpt lat="-9.1473707" lon="148.2746784"/>
      <trkpt lat="-9.1475429" lon="148.2746272"/>
      <trkpt lat="-9.1476767" lon="148.2745473"/>
      <trkpt lat="-9.1477098" lon="148.2744384"/>
      <trkpt lat="-9.1476716" lon="148.2742930"/>
      <trkpt lat="-9.1475719" lon="148.2741494"/>
      <trkpt lat="-9.1474569" lon="148.2740381"/>
      <trkpt lat="-9.1473073" lon="148.2739575"/>
      <trkpt lat="-9.1471897" lon="148.2739170"/>
      <trkpt lat="-9.1471200" lon="148.2738833"/>
    </trkseg>
    <trkseg>
      <trkpt lat="-9.1472100" lon="148.2738617"/>
      <trkpt lat="-9.1472679" lon="148.2737201"/>
      <trkpt lat="-9.1473113" lon="148.2735678"/>
      <trkpt lat="-9.1473138" lon="148.2733998"/>
      <trkpt lat="-9.1473277" lon="148.2732286"/>
      <trkpt lat="-9.1472977" lon="148.2730736"/>
      <trkpt lat="-9.1472500" lon="148.2729400"/>
    </trkseg>
    <trkseg>
      <trkpt lat="-9.1472383" lon="148.2728467"/>
      <trkpt lat="-9.1471911" lon="148.2726846"/>
      <trkpt lat="-9.1471379" lon="148.2725316"/>
      <trkpt lat="-9.1471133" lon="148.2723963"/>
      <trkpt lat="-9.1471724" lon="148.2722612"/>
      <trkpt lat="-9.1472404" lon="148.2721247"/>
      <trkpt lat="-9.1473132" lon="148.2719795"/>
      <trkpt lat="-9.1473893" lon="148.2718377"/>
      <trkpt lat="-9.1474797" lon="148.2717067"/>
      <trkpt lat="-9.1475533" lon="148.2715850"/>
    </trkseg>
    <trkseg>
      <trkpt lat="-9.1474833" lon="148.2715167"/>
      <trkpt lat="-9.1475466" lon="148.2713526"/>
      <trkpt lat="-9.1475784" lon="148.2711822"/>
      <trkpt lat="-9.1475840" lon="148.2710062"/>
      <trkpt lat="-9.1475964" lon="148.2708304"/>
      <trkpt lat="-9.1476199" lon="148.2706558"/>
      <trkpt lat="-9.1476792" lon="148.2705059"/>
      <trkpt lat="-9.1477667" lon="148.2703817"/>
    </trkseg>
    <trkseg>
      <trkpt lat="-9.1473933" lon="148.2703950"/>
      <trkpt lat="-9.1475518" lon="148.2703073"/>
      <trkpt lat="-9.1477103" lon="148.2702197"/>
      <trkpt lat="-9.1478593" lon="148.2701233"/>
      <trkpt lat="-9.1479598" lon="148.2700462"/>
      <trkpt lat="-9.1480117" lon="148.2699883"/>
    </trkseg>
    <trkseg>
      <trkpt lat="-9.1479200" lon="148.2699933"/>
      <trkpt lat="-9.1479095" lon="148.2698230"/>
      <trkpt lat="-9.1479059" lon="148.2696598"/>
      <trkpt lat="-9.1478955" lon="148.2694964"/>
      <trkpt lat="-9.1478955" lon="148.2693290"/>
      <trkpt lat="-9.1478357" lon="148.2691819"/>
      <trkpt lat="-9.1477452" lon="148.2690455"/>
      <trkpt lat="-9.1476593" lon="148.2689102"/>
      <trkpt lat="-9.1476304" lon="148.2687519"/>
      <trkpt lat="-9.1476407" lon="148.2685973"/>
      <trkpt lat="-9.1476321" lon="148.2685053"/>
      <trkpt lat="-9.1475612" lon="148.2684454"/>
      <trkpt lat="-9.1474718" lon="148.2683830"/>
      <trkpt lat="-9.1473678" lon="148.2682713"/>
      <trkpt lat="-9.1472637" lon="148.2681636"/>
      <trkpt lat="-9.1471206" lon="148.2680727"/>
      <trkpt lat="-9.1469683" lon="148.2679889"/>
      <trkpt lat="-9.1468689" lon="148.2679278"/>
      <trkpt lat="-9.1467843" lon="148.2679035"/>
      <trkpt lat="-9.1467165" lon="148.2678938"/>
      <trkpt lat="-9.1465947" lon="148.2678598"/>
      <trkpt lat="-9.1464521" lon="148.2678058"/>
      <trkpt lat="-9.1463040" lon="148.2677285"/>
      <trkpt lat="-9.1461807" lon="148.2676179"/>
      <trkpt lat="-9.1461082" lon="148.2674605"/>
      <trkpt lat="-9.1460500" lon="148.2672940"/>
      <trkpt lat="-9.1459699" lon="148.2671821"/>
      <trkpt lat="-9.1458517" lon="148.2671370"/>
      <trkpt lat="-9.1456946" lon="148.2671418"/>
      <trkpt lat="-9.1455296" lon="148.2671429"/>
      <trkpt lat="-9.1453526" lon="148.2671545"/>
      <trkpt lat="-9.1451796" lon="148.2671937"/>
      <trkpt lat="-9.1450149" lon="148.2672652"/>
      <trkpt lat="-9.1448494" lon="148.2673308"/>
      <trkpt lat="-9.1446941" lon="148.2674112"/>
      <trkpt lat="-9.1445432" lon="148.2674957"/>
      <trkpt lat="-9.1443957" lon="148.2675918"/>
      <trkpt lat="-9.1442359" lon="148.2676650"/>
      <trkpt lat="-9.1440765" lon="148.2677412"/>
      <trkpt lat="-9.1439243" lon="148.2678310"/>
      <trkpt lat="-9.1437858" lon="148.2679469"/>
      <trkpt lat="-9.1436470" lon="148.2680591"/>
      <trkpt lat="-9.1434971" lon="148.2681465"/>
      <trkpt lat="-9.1433377" lon="148.2682200"/>
      <trkpt lat="-9.1431687" lon="148.2682710"/>
      <trkpt lat="-9.1430022" lon="148.2682916"/>
      <trkpt lat="-9.1428294" lon="148.2682867"/>
      <trkpt lat="-9.1426548" lon="148.2682615"/>
      <trkpt lat="-9.1424796" lon="148.2682343"/>
      <trkpt lat="-9.1423050" lon="148.2681966"/>
      <trkpt lat="-9.1421287" lon="148.2681639"/>
      <trkpt lat="-9.1419489" lon="148.2681469"/>
      <trkpt lat="-9.1417704" lon="148.2681486"/>
      <trkpt lat="-9.1415967" lon="148.2681373"/>
      <trkpt lat="-9.1414235" lon="148.2681297"/>
      <trkpt lat="-9.1412494" lon="148.2681058"/>
      <trkpt lat="-9.1410890" lon="148.2681027"/>
      <trkpt lat="-9.1409467" lon="148.2681050"/>
    </trkseg>
    <trkseg>
      <trkpt lat="-9.1408533" lon="148.2681100"/>
      <trkpt lat="-9.1406952" lon="148.2681877"/>
      <trkpt lat="-9.1405299" lon="148.2682370"/>
      <trkpt lat="-9.1403622" lon="148.2682819"/>
      <trkpt lat="-9.1402326" lon="148.2683192"/>
      <trkpt lat="-9.1401450" lon="148.2683617"/>
    </trkseg>
    <trkseg>
      <trkpt lat="-9.1400717" lon="148.2684150"/>
      <trkpt lat="-9.1398939" lon="148.2684118"/>
      <trkpt lat="-9.1397177" lon="148.2684287"/>
      <trkpt lat="-9.1395593" lon="148.2684149"/>
      <trkpt lat="-9.1394391" lon="148.2683349"/>
      <trkpt lat="-9.1393571" lon="148.2681846"/>
      <trkpt lat="-9.1392871" lon="148.2680190"/>
      <trkpt lat="-9.1392105" lon="148.2678557"/>
      <trkpt lat="-9.1391443" lon="148.2676936"/>
      <trkpt lat="-9.1390571" lon="148.2675612"/>
      <trkpt lat="-9.1389933" lon="148.2674883"/>
      <trkpt lat="-9.1389888" lon="148.2674679"/>
      <trkpt lat="-9.1390494" lon="148.2674130"/>
      <trkpt lat="-9.1391090" lon="148.2672927"/>
      <trkpt lat="-9.1391285" lon="148.2671159"/>
      <trkpt lat="-9.1391212" lon="148.2669398"/>
      <trkpt lat="-9.1390859" lon="148.2667731"/>
      <trkpt lat="-9.1390160" lon="148.2666120"/>
      <trkpt lat="-9.1389151" lon="148.2664677"/>
      <trkpt lat="-9.1388042" lon="148.2663356"/>
      <trkpt lat="-9.1386795" lon="148.2662166"/>
      <trkpt lat="-9.1385714" lon="148.2660968"/>
      <trkpt lat="-9.1384796" lon="148.2659631"/>
      <trkpt lat="-9.1384324" lon="148.2658135"/>
      <trkpt lat="-9.1384004" lon="148.2656537"/>
      <trkpt lat="-9.1384097" lon="148.2655452"/>
      <trkpt lat="-9.1384317" lon="148.2654417"/>
      <trkpt lat="-9.1384083" lon="148.2653756"/>
      <trkpt lat="-9.1383099" lon="148.2653199"/>
      <trkpt lat="-9.1381338" lon="148.2653263"/>
      <trkpt lat="-9.1379603" lon="148.2653710"/>
      <trkpt lat="-9.1377914" lon="148.2654322"/>
      <trkpt lat="-9.1376266" lon="148.2655064"/>
      <trkpt lat="-9.1374617" lon="148.2655784"/>
      <trkpt lat="-9.1372950" lon="148.2656457"/>
      <trkpt lat="-9.1371290" lon="148.2657150"/>
      <trkpt lat="-9.1369614" lon="148.2657825"/>
      <trkpt lat="-9.1367926" lon="148.2658465"/>
      <trkpt lat="-9.1366203" lon="148.2659010"/>
      <trkpt lat="-9.1364447" lon="148.2659427"/>
      <trkpt lat="-9.1362672" lon="148.2659755"/>
      <trkpt lat="-9.1361104" lon="148.2659462"/>
      <trkpt lat="-9.1359731" lon="148.2658637"/>
      <trkpt lat="-9.1358837" lon="148.2657640"/>
      <trkpt lat="-9.1358200" lon="148.2657017"/>
    </trkseg>
    <trkseg>
      <trkpt lat="-9.1357767" lon="148.2656150"/>
      <trkpt lat="-9.1356476" lon="148.2655764"/>
      <trkpt lat="-9.1355079" lon="148.2655495"/>
      <trkpt lat="-9.1353689" lon="148.2655166"/>
      <trkpt lat="-9.1352501" lon="148.2653924"/>
      <trkpt lat="-9.1351650" lon="148.2652626"/>
      <trkpt lat="-9.1350790" lon="148.2651418"/>
      <trkpt lat="-9.1349698" lon="148.2650405"/>
      <trkpt lat="-9.1348651" lon="148.2649632"/>
      <trkpt lat="-9.1347883" lon="148.2649133"/>
    </trkseg>
    <trkseg>
      <trkpt lat="-9.1346950" lon="148.2648633"/>
      <trkpt lat="-9.1345800" lon="148.2647405"/>
      <trkpt lat="-9.1345084" lon="148.2645919"/>
      <trkpt lat="-9.1345001" lon="148.2644232"/>
      <trkpt lat="-9.1345035" lon="148.2642486"/>
      <trkpt lat="-9.1345427" lon="148.2640889"/>
      <trkpt lat="-9.1345988" lon="148.2639332"/>
      <trkpt lat="-9.1347056" lon="148.2637990"/>
      <trkpt lat="-9.1347863" lon="148.2636519"/>
      <trkpt lat="-9.1348224" lon="148.2634963"/>
      <trkpt lat="-9.1348407" lon="148.2633260"/>
      <trkpt lat="-9.1348601" lon="148.2631591"/>
      <trkpt lat="-9.1348914" lon="148.2629918"/>
      <trkpt lat="-9.1349328" lon="148.2628309"/>
      <trkpt lat="-9.1349666" lon="148.2627277"/>
      <trkpt lat="-9.1349955" lon="148.2626346"/>
      <trkpt lat="-9.1350496" lon="148.2625786"/>
      <trkpt lat="-9.1351039" lon="148.2624601"/>
      <trkpt lat="-9.1351191" lon="148.2623499"/>
      <trkpt lat="-9.1350371" lon="148.2622102"/>
      <trkpt lat="-9.1349161" lon="148.2620855"/>
      <trkpt lat="-9.1348173" lon="148.2619464"/>
      <trkpt lat="-9.1347530" lon="148.2617919"/>
      <trkpt lat="-9.1347632" lon="148.2616334"/>
      <trkpt lat="-9.1348515" lon="148.2615272"/>
      <trkpt lat="-9.1349488" lon="148.2614951"/>
      <trkpt lat="-9.1349791" lon="148.2614865"/>
      <trkpt lat="-9.1349047" lon="148.2614523"/>
      <trkpt lat="-9.1348147" lon="148.2613791"/>
      <trkpt lat="-9.1347467" lon="148.2613117"/>
    </trkseg>
    <trkseg>
      <trkpt lat="-9.1346850" lon="148.2612433"/>
      <trkpt lat="-9.1345702" lon="148.2611171"/>
      <trkpt lat="-9.1344430" lon="148.2609985"/>
      <trkpt lat="-9.1343005" lon="148.2609088"/>
      <trkpt lat="-9.1341967" lon="148.2607993"/>
      <trkpt lat="-9.1341663" lon="148.2606723"/>
      <trkpt lat="-9.1342313" lon="148.2605356"/>
      <trkpt lat="-9.1343175" lon="148.2603978"/>
      <trkpt lat="-9.1343866" lon="148.2602544"/>
      <trkpt lat="-9.1344103" lon="148.2601193"/>
      <trkpt lat="-9.1344200" lon="148.2600250"/>
    </trkseg>
    <trkseg>
      <trkpt lat="-9.1343967" lon="148.2599367"/>
      <trkpt lat="-9.1344333" lon="148.2600200"/>
    </trkseg>
    <trkseg>
      <trkpt lat="-9.1343783" lon="148.2599467"/>
      <trkpt lat="-9.1342624" lon="148.2599354"/>
      <trkpt lat="-9.1341404" lon="148.2599903"/>
      <trkpt lat="-9.1340181" lon="148.2601177"/>
      <trkpt lat="-9.1338833" lon="148.2602267"/>
      <trkpt lat="-9.1337366" lon="148.2603211"/>
      <trkpt lat="-9.1335967" lon="148.2604183"/>
      <trkpt lat="-9.1334713" lon="148.2605361"/>
      <trkpt lat="-9.1333533" lon="148.2606636"/>
      <trkpt lat="-9.1332113" lon="148.2607676"/>
      <trkpt lat="-9.1330560" lon="148.2608494"/>
      <trkpt lat="-9.1328917" lon="148.2609175"/>
      <trkpt lat="-9.1327253" lon="148.2609816"/>
      <trkpt lat="-9.1325896" lon="148.2610807"/>
      <trkpt lat="-9.1325238" lon="148.2612154"/>
      <trkpt lat="-9.1324730" lon="148.2613711"/>
      <trkpt lat="-9.1323893" lon="148.2614829"/>
      <trkpt lat="-9.1322314" lon="148.2615327"/>
      <trkpt lat="-9.1320545" lon="148.2615408"/>
      <trkpt lat="-9.1319231" lon="148.2615421"/>
      <trkpt lat="-9.1318400" lon="148.2615500"/>
    </trkseg>
    <trkseg>
      <trkpt lat="-9.1317600" lon="148.2614983"/>
      <trkpt lat="-9.1316103" lon="148.2614227"/>
      <trkpt lat="-9.1314459" lon="148.2613778"/>
      <trkpt lat="-9.1312685" lon="148.2613524"/>
      <trkpt lat="-9.1310940" lon="148.2613217"/>
      <trkpt lat="-9.1309511" lon="148.2613385"/>
      <trkpt lat="-9.1308229" lon="148.2614118"/>
      <trkpt lat="-9.1307026" lon="148.2615250"/>
      <trkpt lat="-9.1306055" lon="148.2615959"/>
      <trkpt lat="-9.1305467" lon="148.2616267"/>
    </trkseg>
    <trkseg>
      <trkpt lat="-9.1304750" lon="148.2616917"/>
      <trkpt lat="-9.1303095" lon="148.2617462"/>
      <trkpt lat="-9.1301391" lon="148.2617879"/>
      <trkpt lat="-9.1299759" lon="148.2617855"/>
      <trkpt lat="-9.1298262" lon="148.2617518"/>
      <trkpt lat="-9.1296758" lon="148.2617151"/>
      <trkpt lat="-9.1295119" lon="148.2617021"/>
      <trkpt lat="-9.1293639" lon="148.2617629"/>
      <trkpt lat="-9.1292657" lon="148.2618729"/>
      <trkpt lat="-9.1292120" lon="148.2620210"/>
      <trkpt lat="-9.1292091" lon="148.2620680"/>
      <trkpt lat="-9.1292160" lon="148.2619952"/>
      <trkpt lat="-9.1292242" lon="148.2618207"/>
      <trkpt lat="-9.1291756" lon="148.2616533"/>
      <trkpt lat="-9.1290846" lon="148.2615028"/>
      <trkpt lat="-9.1289626" lon="148.2613708"/>
      <trkpt lat="-9.1288277" lon="148.2612510"/>
      <trkpt lat="-9.1286948" lon="148.2611303"/>
      <trkpt lat="-9.1285689" lon="148.2610029"/>
      <trkpt lat="-9.1284404" lon="148.2608790"/>
      <trkpt lat="-9.1283104" lon="148.2607565"/>
      <trkpt lat="-9.1281891" lon="148.2606280"/>
      <trkpt lat="-9.1280895" lon="148.2604796"/>
      <trkpt lat="-9.1280314" lon="148.2603141"/>
      <trkpt lat="-9.1279570" lon="148.2602066"/>
      <trkpt lat="-9.1278608" lon="148.2601835"/>
      <trkpt lat="-9.1277904" lon="148.2602136"/>
      <trkpt lat="-9.1277654" lon="148.2601982"/>
      <trkpt lat="-9.1277327" lon="148.2601365"/>
      <trkpt lat="-9.1276153" lon="148.2600688"/>
      <trkpt lat="-9.1274420" lon="148.2600254"/>
      <trkpt lat="-9.1272686" lon="148.2599844"/>
      <trkpt lat="-9.1270967" lon="148.2599378"/>
      <trkpt lat="-9.1269238" lon="148.2598895"/>
      <trkpt lat="-9.1267589" lon="148.2598750"/>
      <trkpt lat="-9.1265942" lon="148.2598950"/>
      <trkpt lat="-9.1264367" lon="148.2599587"/>
      <trkpt lat="-9.1262746" lon="148.2599832"/>
      <trkpt lat="-9.1261278" lon="148.2600292"/>
      <trkpt lat="-9.1259757" lon="148.2600375"/>
      <trkpt lat="-9.1258194" lon="148.2600513"/>
      <trkpt lat="-9.1256460" lon="148.2600166"/>
      <trkpt lat="-9.1254707" lon="148.2599765"/>
      <trkpt lat="-9.1252942" lon="148.2599429"/>
      <trkpt lat="-9.1251189" lon="148.2599028"/>
      <trkpt lat="-9.1249457" lon="148.2598603"/>
      <trkpt lat="-9.1247722" lon="148.2598222"/>
      <trkpt lat="-9.1246058" lon="148.2598293"/>
      <trkpt lat="-9.1245009" lon="148.2598879"/>
      <trkpt lat="-9.1244972" lon="148.2599905"/>
      <trkpt lat="-9.1245434" lon="148.2601245"/>
      <trkpt lat="-9.1245694" lon="148.2602854"/>
      <trkpt lat="-9.1245178" lon="148.2604506"/>
      <trkpt lat="-9.1244425" lon="148.2606105"/>
      <trkpt lat="-9.1243448" lon="148.2607590"/>
      <trkpt lat="-9.1242440" lon="148.2609059"/>
      <trkpt lat="-9.1241204" lon="148.2610364"/>
      <trkpt lat="-9.1239902" lon="148.2611606"/>
      <trkpt lat="-9.1238784" lon="148.2612955"/>
      <trkpt lat="-9.1238008" lon="148.2614515"/>
      <trkpt lat="-9.1237293" lon="148.2616126"/>
      <trkpt lat="-9.1236857" lon="148.2617720"/>
      <trkpt lat="-9.1236818" lon="148.2619271"/>
      <trkpt lat="-9.1237462" lon="148.2620869"/>
      <trkpt lat="-9.1238037" lon="148.2622487"/>
      <trkpt lat="-9.1238543" lon="148.2624130"/>
      <trkpt lat="-9.1238889" lon="148.2625848"/>
      <trkpt lat="-9.1239297" lon="148.2627604"/>
      <trkpt lat="-9.1239529" lon="148.2629396"/>
      <trkpt lat="-9.1239831" lon="148.2631167"/>
      <trkpt lat="-9.1240369" lon="148.2632843"/>
      <trkpt lat="-9.1241263" lon="148.2634380"/>
      <trkpt lat="-9.1242045" lon="148.2635933"/>
      <trkpt lat="-9.1242699" lon="148.2637517"/>
      <trkpt lat="-9.1243369" lon="148.2639093"/>
      <trkpt lat="-9.1244233" lon="148.2640612"/>
      <trkpt lat="-9.1245205" lon="148.2642097"/>
      <trkpt lat="-9.1245952" lon="148.2643695"/>
      <trkpt lat="-9.1246389" lon="148.2645228"/>
      <trkpt lat="-9.1246837" lon="148.2646479"/>
      <trkpt lat="-9.1246854" lon="148.2647698"/>
      <trkpt lat="-9.1247009" lon="148.2649020"/>
      <trkpt lat="-9.1247099" lon="148.2650666"/>
      <trkpt lat="-9.1247347" lon="148.2652321"/>
      <trkpt lat="-9.1247360" lon="148.2654012"/>
      <trkpt lat="-9.1247216" lon="148.2655752"/>
      <trkpt lat="-9.1247356" lon="148.2657515"/>
      <trkpt lat="-9.1247746" lon="148.2659214"/>
      <trkpt lat="-9.1248217" lon="148.2660850"/>
    </trkseg>
    <trkseg>
      <trkpt lat="-9.1247650" lon="148.2663483"/>
      <trkpt lat="-9.1247552" lon="148.2664021"/>
      <trkpt lat="-9.1247651" lon="148.2665042"/>
      <trkpt lat="-9.1247799" lon="148.2666606"/>
      <trkpt lat="-9.1248572" lon="148.2668161"/>
      <trkpt lat="-9.1249093" lon="148.2669769"/>
      <trkpt lat="-9.1249810" lon="148.2671271"/>
      <trkpt lat="-9.1250537" lon="148.2672784"/>
      <trkpt lat="-9.1251498" lon="148.2674268"/>
      <trkpt lat="-9.1252320" lon="148.2675683"/>
      <trkpt lat="-9.1252933" lon="148.2677050"/>
    </trkseg>
    <trkseg>
      <trkpt lat="-9.1253717" lon="148.2677533"/>
      <trkpt lat="-9.1254485" lon="148.2679174"/>
      <trkpt lat="-9.1255056" lon="148.2680875"/>
      <trkpt lat="-9.1255445" lon="148.2682634"/>
      <trkpt lat="-9.1255566" lon="148.2684412"/>
      <trkpt lat="-9.1256065" lon="148.2685913"/>
      <trkpt lat="-9.1257059" lon="148.2686821"/>
      <trkpt lat="-9.1258683" lon="148.2687253"/>
      <trkpt lat="-9.1260410" lon="148.2687172"/>
      <trkpt lat="-9.1261811" lon="148.2687456"/>
      <trkpt lat="-9.1262736" lon="148.2688204"/>
      <trkpt lat="-9.1263228" lon="148.2689627"/>
      <trkpt lat="-9.1263583" lon="148.2691167"/>
    </trkseg>
    <trkseg>
      <trkpt lat="-9.1263783" lon="148.2692083"/>
      <trkpt lat="-9.1264595" lon="148.2693692"/>
      <trkpt lat="-9.1265237" lon="148.2695366"/>
      <trkpt lat="-9.1265861" lon="148.2697043"/>
      <trkpt lat="-9.1266388" lon="148.2698732"/>
      <trkpt lat="-9.1266679" lon="148.2700431"/>
      <trkpt lat="-9.1266645" lon="148.2702216"/>
      <trkpt lat="-9.1266537" lon="148.2704021"/>
      <trkpt lat="-9.1266674" lon="148.2705780"/>
      <trkpt lat="-9.1267411" lon="148.2706986"/>
      <trkpt lat="-9.1268546" lon="148.2707937"/>
      <trkpt lat="-9.1269993" lon="148.2708713"/>
      <trkpt lat="-9.1271190" lon="148.2709946"/>
      <trkpt lat="-9.1272229" lon="148.2711369"/>
      <trkpt lat="-9.1273236" lon="148.2712785"/>
      <trkpt lat="-9.1274297" lon="148.2714115"/>
      <trkpt lat="-9.1275091" lon="148.2715469"/>
      <trkpt lat="-9.1275344" lon="148.2717042"/>
      <trkpt lat="-9.1275273" lon="148.2718515"/>
      <trkpt lat="-9.1275250" lon="148.2719750"/>
    </trkseg>
    <trkseg>
      <trkpt lat="-9.1275033" lon="148.2720667"/>
      <trkpt lat="-9.1275225" lon="148.2722445"/>
      <trkpt lat="-9.1275265" lon="148.2724225"/>
      <trkpt lat="-9.1275134" lon="148.2725992"/>
      <trkpt lat="-9.1275378" lon="148.2727547"/>
      <trkpt lat="-9.1275749" lon="148.2728612"/>
      <trkpt lat="-9.1276267" lon="148.2729200"/>
    </trkseg>
    <trkseg>
      <trkpt lat="-9.1275267" lon="148.2729100"/>
      <trkpt lat="-9.1274211" lon="148.2730362"/>
      <trkpt lat="-9.1273352" lon="148.2731781"/>
      <trkpt lat="-9.1272651" lon="148.2733286"/>
      <trkpt lat="-9.1272037" lon="148.2734864"/>
      <trkpt lat="-9.1271496" lon="148.2736475"/>
      <trkpt lat="-9.1271328" lon="148.2738180"/>
      <trkpt lat="-9.1271457" lon="148.2739929"/>
      <trkpt lat="-9.1271666" lon="148.2741680"/>
      <trkpt lat="-9.1271901" lon="148.2743364"/>
      <trkpt lat="-9.1272630" lon="148.2744680"/>
      <trkpt lat="-9.1273926" lon="148.2745651"/>
      <trkpt lat="-9.1275537" lon="148.2746443"/>
      <trkpt lat="-9.1276460" lon="148.2747552"/>
      <trkpt lat="-9.1276612" lon="148.2748955"/>
      <trkpt lat="-9.1276369" lon="148.2750623"/>
      <trkpt lat="-9.1276589" lon="148.2752244"/>
      <trkpt lat="-9.1277412" lon="148.2753783"/>
      <trkpt lat="-9.1278153" lon="148.2755328"/>
      <trkpt lat="-9.1278633" lon="148.2756976"/>
      <trkpt lat="-9.1278645" lon="148.2758767"/>
      <trkpt lat="-9.1278773" lon="148.2760442"/>
      <trkpt lat="-9.1278752" lon="148.2762089"/>
      <trkpt lat="-9.1278733" lon="148.2763717"/>
    </trkseg>
    <trkseg>
      <trkpt lat="-9.1273450" lon="148.2772800"/>
      <trkpt lat="-9.1274699" lon="148.2771484"/>
      <trkpt lat="-9.1275566" lon="148.2770139"/>
      <trkpt lat="-9.1276050" lon="148.2768767"/>
    </trkseg>
    <trkseg>
      <trkpt lat="-9.1275133" lon="148.2768850"/>
      <trkpt lat="-9.1274217" lon="148.2770344"/>
      <trkpt lat="-9.1273142" lon="148.2771627"/>
      <trkpt lat="-9.1272057" lon="148.2772086"/>
      <trkpt lat="-9.1270758" lon="148.2771584"/>
      <trkpt lat="-9.1269575" lon="148.2770372"/>
      <trkpt lat="-9.1268287" lon="148.2769157"/>
      <trkpt lat="-9.1266961" lon="148.2767986"/>
      <trkpt lat="-9.1265516" lon="148.2766961"/>
      <trkpt lat="-9.1263971" lon="148.2766296"/>
      <trkpt lat="-9.1262376" lon="148.2766253"/>
      <trkpt lat="-9.1260795" lon="148.2766868"/>
      <trkpt lat="-9.1259227" lon="148.2767717"/>
      <trkpt lat="-9.1257723" lon="148.2767945"/>
      <trkpt lat="-9.1256324" lon="148.2767374"/>
      <trkpt lat="-9.1255074" lon="148.2766113"/>
      <trkpt lat="-9.1254085" lon="148.2764652"/>
      <trkpt lat="-9.1252973" lon="148.2763402"/>
      <trkpt lat="-9.1251687" lon="148.2762502"/>
      <trkpt lat="-9.1250041" lon="148.2762179"/>
      <trkpt lat="-9.1248343" lon="148.2761963"/>
      <trkpt lat="-9.1246643" lon="148.2761822"/>
      <trkpt lat="-9.1244947" lon="148.2761788"/>
      <trkpt lat="-9.1243383" lon="148.2762311"/>
      <trkpt lat="-9.1242051" lon="148.2763303"/>
      <trkpt lat="-9.1240882" lon="148.2764532"/>
      <trkpt lat="-9.1239753" lon="148.2765711"/>
      <trkpt lat="-9.1238473" lon="148.2766789"/>
      <trkpt lat="-9.1237115" lon="148.2767845"/>
      <trkpt lat="-9.1235627" lon="148.2768465"/>
      <trkpt lat="-9.1234358" lon="148.2768216"/>
      <trkpt lat="-9.1233151" lon="148.2767267"/>
      <trkpt lat="-9.1231922" lon="148.2766120"/>
      <trkpt lat="-9.1230689" lon="148.2764983"/>
      <trkpt lat="-9.1229387" lon="148.2764115"/>
      <trkpt lat="-9.1228092" lon="148.2763732"/>
      <trkpt lat="-9.1226485" lon="148.2763796"/>
      <trkpt lat="-9.1224782" lon="148.2764076"/>
      <trkpt lat="-9.1223025" lon="148.2764213"/>
      <trkpt lat="-9.1221267" lon="148.2764554"/>
      <trkpt lat="-9.1219532" lon="148.2764990"/>
      <trkpt lat="-9.1217842" lon="148.2765599"/>
      <trkpt lat="-9.1216373" lon="148.2766448"/>
      <trkpt lat="-9.1215010" lon="148.2767436"/>
      <trkpt lat="-9.1213590" lon="148.2768165"/>
      <trkpt lat="-9.1211960" lon="148.2768646"/>
      <trkpt lat="-9.1210270" lon="148.2768533"/>
      <trkpt lat="-9.1208691" lon="148.2768085"/>
      <trkpt lat="-9.1207699" lon="148.2767842"/>
      <trkpt lat="-9.1207666" lon="148.2768169"/>
      <trkpt lat="-9.1207866" lon="148.2769372"/>
      <trkpt lat="-9.1207873" lon="148.2770825"/>
      <trkpt lat="-9.1207088" lon="148.2772408"/>
      <trkpt lat="-9.1206482" lon="148.2774036"/>
      <trkpt lat="-9.1206201" lon="148.2775612"/>
      <trkpt lat="-9.1206593" lon="148.2777194"/>
      <trkpt lat="-9.1206857" lon="148.2778759"/>
      <trkpt lat="-9.1206502" lon="148.2780148"/>
      <trkpt lat="-9.1205247" lon="148.2781220"/>
      <trkpt lat="-9.1203786" lon="148.2782142"/>
      <trkpt lat="-9.1202366" lon="148.2783127"/>
      <trkpt lat="-9.1201464" lon="148.2784033"/>
      <trkpt lat="-9.1200917" lon="148.2784600"/>
    </trkseg>
    <trkseg>
      <trkpt lat="-9.1200233" lon="148.2785233"/>
      <trkpt lat="-9.1199838" lon="148.2786913"/>
      <trkpt lat="-9.1199648" lon="148.2788635"/>
      <trkpt lat="-9.1199853" lon="148.2790353"/>
      <trkpt lat="-9.1199932" lon="148.2791486"/>
      <trkpt lat="-9.1200207" lon="148.2792611"/>
      <trkpt lat="-9.1200241" lon="148.2793056"/>
      <trkpt lat="-9.1200191" lon="148.2792908"/>
      <trkpt lat="-9.1200023" lon="148.2792673"/>
      <trkpt lat="-9.1199902" lon="148.2793172"/>
      <trkpt lat="-9.1199779" lon="148.2794867"/>
      <trkpt lat="-9.1199529" lon="148.2796664"/>
      <trkpt lat="-9.1199233" lon="148.2798415"/>
      <trkpt lat="-9.1199261" lon="148.2800123"/>
      <trkpt lat="-9.1199469" lon="148.2801835"/>
      <trkpt lat="-9.1199800" lon="148.2803590"/>
      <trkpt lat="-9.1199655" lon="148.2805326"/>
      <trkpt lat="-9.1199057" lon="148.2806906"/>
      <trkpt lat="-9.1198202" lon="148.2808440"/>
      <trkpt lat="-9.1197790" lon="148.2809937"/>
      <trkpt lat="-9.1197809" lon="148.2811414"/>
      <trkpt lat="-9.1198124" lon="148.2812462"/>
      <trkpt lat="-9.1198395" lon="148.2813599"/>
      <trkpt lat="-9.1198663" lon="148.2814878"/>
      <trkpt lat="-9.1198856" lon="148.2816616"/>
      <trkpt lat="-9.1198965" lon="148.2818372"/>
      <trkpt lat="-9.1198743" lon="148.2819981"/>
      <trkpt lat="-9.1198467" lon="148.2821595"/>
      <trkpt lat="-9.1198038" lon="148.2823201"/>
      <trkpt lat="-9.1198049" lon="148.2824932"/>
      <trkpt lat="-9.1198233" lon="148.2826206"/>
      <trkpt lat="-9.1198617" lon="148.2827017"/>
    </trkseg>
    <trkseg>
      <trkpt lat="-9.1199767" lon="148.2827933"/>
      <trkpt lat="-9.1201220" lon="148.2827088"/>
      <trkpt lat="-9.1202716" lon="148.2826552"/>
      <trkpt lat="-9.1204242" lon="148.2826291"/>
      <trkpt lat="-9.1205833" lon="148.2826387"/>
      <trkpt lat="-9.1207478" lon="148.2826621"/>
      <trkpt lat="-9.1209117" lon="148.2827178"/>
      <trkpt lat="-9.1210710" lon="148.2827741"/>
      <trkpt lat="-9.1212159" lon="148.2827849"/>
      <trkpt lat="-9.1213285" lon="148.2827205"/>
      <trkpt lat="-9.1214214" lon="148.2826189"/>
      <trkpt lat="-9.1215154" lon="148.2825114"/>
      <trkpt lat="-9.1216312" lon="148.2824065"/>
      <trkpt lat="-9.1217694" lon="148.2823119"/>
      <trkpt lat="-9.1219182" lon="148.2822564"/>
      <trkpt lat="-9.1220770" lon="148.2822553"/>
      <trkpt lat="-9.1221938" lon="148.2822658"/>
      <trkpt lat="-9.1222926" lon="148.2822617"/>
      <trkpt lat="-9.1223762" lon="148.2822149"/>
      <trkpt lat="-9.1225012" lon="148.2821530"/>
      <trkpt lat="-9.1226467" lon="148.2820944"/>
      <trkpt lat="-9.1228161" lon="148.2820815"/>
      <trkpt lat="-9.1229876" lon="148.2820635"/>
      <trkpt lat="-9.1231593" lon="148.2820374"/>
      <trkpt lat="-9.1232904" lon="148.2819934"/>
      <trkpt lat="-9.1233817" lon="148.2819617"/>
    </trkseg>
    <trkseg>
      <trkpt lat="-9.1234117" lon="148.2820583"/>
      <trkpt lat="-9.1235711" lon="148.2821374"/>
      <trkpt lat="-9.1237360" lon="148.2822042"/>
      <trkpt lat="-9.1239075" lon="148.2822553"/>
      <trkpt lat="-9.1240736" lon="148.2823177"/>
      <trkpt lat="-9.1242367" lon="148.2823879"/>
      <trkpt lat="-9.1243994" lon="148.2824613"/>
      <trkpt lat="-9.1245593" lon="148.2825377"/>
      <trkpt lat="-9.1247174" lon="148.2826170"/>
      <trkpt lat="-9.1248508" lon="148.2827307"/>
      <trkpt lat="-9.1249844" lon="148.2828451"/>
      <trkpt lat="-9.1251058" lon="148.2829753"/>
      <trkpt lat="-9.1252275" lon="148.2831042"/>
      <trkpt lat="-9.1253532" lon="148.2832279"/>
      <trkpt lat="-9.1254956" lon="148.2833264"/>
      <trkpt lat="-9.1256640" lon="148.2833762"/>
      <trkpt lat="-9.1258415" lon="148.2833932"/>
      <trkpt lat="-9.1260195" lon="148.2833918"/>
      <trkpt lat="-9.1261927" lon="148.2833660"/>
      <trkpt lat="-9.1263581" lon="148.2833108"/>
      <trkpt lat="-9.1265255" lon="148.2832521"/>
      <trkpt lat="-9.1266902" lon="148.2832412"/>
      <trkpt lat="-9.1268543" lon="148.2832881"/>
      <trkpt lat="-9.1270131" lon="148.2833638"/>
      <trkpt lat="-9.1271708" lon="148.2834473"/>
      <trkpt lat="-9.1273345" lon="148.2835207"/>
      <trkpt lat="-9.1274925" lon="148.2836021"/>
      <trkpt lat="-9.1276504" lon="148.2836816"/>
      <trkpt lat="-9.1278068" lon="148.2837604"/>
      <trkpt lat="-9.1279581" lon="148.2838458"/>
      <trkpt lat="-9.1280810" lon="148.2839576"/>
      <trkpt lat="-9.1281846" lon="148.2840977"/>
      <trkpt lat="-9.1283021" lon="148.2842062"/>
      <trkpt lat="-9.1284560" lon="148.2842648"/>
      <trkpt lat="-9.1286213" lon="148.2843144"/>
      <trkpt lat="-9.1287838" lon="148.2843775"/>
      <trkpt lat="-9.1289423" lon="148.2844579"/>
      <trkpt lat="-9.1291067" lon="148.2845283"/>
      <trkpt lat="-9.1292685" lon="148.2846074"/>
      <trkpt lat="-9.1294333" lon="148.2846722"/>
      <trkpt lat="-9.1296021" lon="148.2847213"/>
      <trkpt lat="-9.1297762" lon="148.2847471"/>
      <trkpt lat="-9.1299450" lon="148.2847928"/>
      <trkpt lat="-9.1301017" lon="148.2848618"/>
      <trkpt lat="-9.1302313" lon="148.2849767"/>
      <trkpt lat="-9.1303545" lon="148.2850980"/>
      <trkpt lat="-9.1304731" lon="148.2852291"/>
      <trkpt lat="-9.1306075" lon="148.2853457"/>
      <trkpt lat="-9.1307277" lon="148.2854700"/>
      <trkpt lat="-9.1308205" lon="148.2856096"/>
      <trkpt lat="-9.1308778" lon="148.2857709"/>
      <trkpt lat="-9.1309085" lon="148.2859490"/>
      <trkpt lat="-9.1309411" lon="148.2861265"/>
      <trkpt lat="-9.1309980" lon="148.2862914"/>
      <trkpt lat="-9.1311043" lon="148.2864182"/>
      <trkpt lat="-9.1312478" lon="148.2865134"/>
      <trkpt lat="-9.1313971" lon="148.2866062"/>
      <trkpt lat="-9.1315038" lon="148.2867327"/>
      <trkpt lat="-9.1315412" lon="148.2868771"/>
      <trkpt lat="-9.1315217" lon="148.2870217"/>
    </trkseg>
    <trkseg>
      <trkpt lat="-9.1315317" lon="148.2871150"/>
      <trkpt lat="-9.1315127" lon="148.2872815"/>
      <trkpt lat="-9.1314931" lon="148.2874509"/>
      <trkpt lat="-9.1314819" lon="148.2876224"/>
      <trkpt lat="-9.1315320" lon="148.2877892"/>
      <trkpt lat="-9.1316140" lon="148.2879416"/>
      <trkpt lat="-9.1317359" lon="148.2880645"/>
      <trkpt lat="-9.1318786" lon="148.2881579"/>
      <trkpt lat="-9.1320440" lon="148.2882205"/>
      <trkpt lat="-9.1322145" lon="148.2882715"/>
      <trkpt lat="-9.1323874" lon="148.2883227"/>
      <trkpt lat="-9.1325579" lon="148.2883777"/>
      <trkpt lat="-9.1326984" lon="148.2884670"/>
      <trkpt lat="-9.1328160" lon="148.2885832"/>
      <trkpt lat="-9.1329205" lon="148.2887235"/>
      <trkpt lat="-9.1330295" lon="148.2888623"/>
      <trkpt lat="-9.1330850" lon="148.2890079"/>
      <trkpt lat="-9.1330906" lon="148.2891711"/>
      <trkpt lat="-9.1330494" lon="148.2893417"/>
      <trkpt lat="-9.1330010" lon="148.2895123"/>
      <trkpt lat="-9.1329357" lon="148.2896784"/>
      <trkpt lat="-9.1328870" lon="148.2898465"/>
      <trkpt lat="-9.1328520" lon="148.2900198"/>
      <trkpt lat="-9.1328386" lon="148.2901988"/>
      <trkpt lat="-9.1328188" lon="148.2903773"/>
      <trkpt lat="-9.1328044" lon="148.2905313"/>
      <trkpt lat="-9.1328390" lon="148.2906118"/>
      <trkpt lat="-9.1329250" lon="148.2906200"/>
    </trkseg>
    <trkseg>
      <trkpt lat="-9.1329017" lon="148.2907200"/>
      <trkpt lat="-9.1330546" lon="148.2906841"/>
      <trkpt lat="-9.1332054" lon="148.2907127"/>
      <trkpt lat="-9.1333397" lon="148.2908199"/>
      <trkpt lat="-9.1334538" lon="148.2909497"/>
      <trkpt lat="-9.1335360" lon="148.2911036"/>
      <trkpt lat="-9.1336220" lon="148.2912562"/>
      <trkpt lat="-9.1337331" lon="148.2913825"/>
      <trkpt lat="-9.1338848" lon="148.2914519"/>
      <trkpt lat="-9.1340307" lon="148.2915115"/>
      <trkpt lat="-9.1340821" lon="148.2915935"/>
      <trkpt lat="-9.1340435" lon="148.2917229"/>
      <trkpt lat="-9.1339630" lon="148.2918712"/>
      <trkpt lat="-9.1339460" lon="148.2920292"/>
      <trkpt lat="-9.1340057" lon="148.2921771"/>
      <trkpt lat="-9.1341167" lon="148.2923067"/>
      <trkpt lat="-9.1342265" lon="148.2924365"/>
      <trkpt lat="-9.1343428" lon="148.2925533"/>
      <trkpt lat="-9.1344163" lon="148.2926172"/>
      <trkpt lat="-9.1345154" lon="148.2926372"/>
      <trkpt lat="-9.1346123" lon="148.2926612"/>
      <trkpt lat="-9.1347667" lon="148.2927208"/>
      <trkpt lat="-9.1349270" lon="148.2927944"/>
      <trkpt lat="-9.1350927" lon="148.2928653"/>
      <trkpt lat="-9.1352494" lon="148.2929525"/>
      <trkpt lat="-9.1353990" lon="148.2930466"/>
      <trkpt lat="-9.1355521" lon="148.2931084"/>
      <trkpt lat="-9.1356350" lon="148.2930967"/>
      <trkpt lat="-9.1356267" lon="148.2930129"/>
      <trkpt lat="-9.1355147" lon="148.2929084"/>
      <trkpt lat="-9.1353932" lon="148.2927937"/>
      <trkpt lat="-9.1353031" lon="148.2926616"/>
      <trkpt lat="-9.1352455" lon="148.2924977"/>
      <trkpt lat="-9.1352115" lon="148.2923234"/>
      <trkpt lat="-9.1351599" lon="148.2921540"/>
      <trkpt lat="-9.1351207" lon="148.2919857"/>
      <trkpt lat="-9.1351000" lon="148.2918174"/>
      <trkpt lat="-9.1350911" lon="148.2916451"/>
      <trkpt lat="-9.1350426" lon="148.2914866"/>
      <trkpt lat="-9.1349440" lon="148.2913416"/>
      <trkpt lat="-9.1348306" lon="148.2912041"/>
      <trkpt lat="-9.1347387" lon="148.2910536"/>
      <trkpt lat="-9.1346569" lon="148.2908965"/>
      <trkpt lat="-9.1345779" lon="148.2907369"/>
      <trkpt lat="-9.1344987" lon="148.2905765"/>
      <trkpt lat="-9.1344094" lon="148.2904232"/>
      <trkpt lat="-9.1343305" lon="148.2902659"/>
      <trkpt lat="-9.1342773" lon="148.2901088"/>
      <trkpt lat="-9.1342423" lon="148.2899541"/>
      <trkpt lat="-9.1342188" lon="148.2897964"/>
      <trkpt lat="-9.1342106" lon="148.2896410"/>
      <trkpt lat="-9.1342689" lon="148.2894877"/>
      <trkpt lat="-9.1343582" lon="148.2893403"/>
      <trkpt lat="-9.1344597" lon="148.2891978"/>
      <trkpt lat="-9.1345269" lon="148.2890373"/>
      <trkpt lat="-9.1345846" lon="148.2888709"/>
      <trkpt lat="-9.1346297" lon="148.2886989"/>
      <trkpt lat="-9.1346661" lon="148.2885252"/>
      <trkpt lat="-9.1347151" lon="148.2883664"/>
      <trkpt lat="-9.1347683" lon="148.2882200"/>
    </trkseg>
    <trkseg>
      <trkpt lat="-9.1346933" lon="148.2881600"/>
      <trkpt lat="-9.1347683" lon="148.2880295"/>
      <trkpt lat="-9.1348461" lon="148.2879578"/>
      <trkpt lat="-9.1349267" lon="148.2879450"/>
    </trkseg>
    <trkseg>
      <trkpt lat="-9.1350500" lon="148.2879250"/>
      <trkpt lat="-9.1352190" lon="148.2879012"/>
      <trkpt lat="-9.1353910" lon="148.2878708"/>
      <trkpt lat="-9.1355618" lon="148.2878369"/>
      <trkpt lat="-9.1357324" lon="148.2878377"/>
      <trkpt lat="-9.1358995" lon="148.2878711"/>
      <trkpt lat="-9.1360687" lon="148.2879260"/>
      <trkpt lat="-9.1362356" lon="148.2879403"/>
      <trkpt lat="-9.1363769" lon="148.2878805"/>
      <trkpt lat="-9.1364682" lon="148.2877639"/>
      <trkpt lat="-9.1365564" lon="148.2876615"/>
      <trkpt lat="-9.1366191" lon="148.2876157"/>
      <trkpt lat="-9.1366895" lon="148.2875620"/>
      <trkpt lat="-9.1366754" lon="148.2874662"/>
      <trkpt lat="-9.1366386" lon="148.2873154"/>
      <trkpt lat="-9.1365669" lon="148.2871629"/>
      <trkpt lat="-9.1365330" lon="148.2870119"/>
      <trkpt lat="-9.1365085" lon="148.2868578"/>
      <trkpt lat="-9.1364766" lon="148.2867110"/>
      <trkpt lat="-9.1364119" lon="148.2865663"/>
      <trkpt lat="-9.1363124" lon="148.2864599"/>
      <trkpt lat="-9.1362239" lon="148.2863406"/>
      <trkpt lat="-9.1361502" lon="148.2862099"/>
      <trkpt lat="-9.1360905" lon="148.2860515"/>
      <trkpt lat="-9.1360086" lon="148.2859046"/>
      <trkpt lat="-9.1359067" lon="148.2857655"/>
      <trkpt lat="-9.1358535" lon="148.2856134"/>
      <trkpt lat="-9.1358704" lon="148.2854594"/>
      <trkpt lat="-9.1359329" lon="148.2852962"/>
      <trkpt lat="-9.1360196" lon="148.2851485"/>
      <trkpt lat="-9.1361303" lon="148.2850278"/>
      <trkpt lat="-9.1362491" lon="148.2849207"/>
      <trkpt lat="-9.1363135" lon="148.2848600"/>
      <trkpt lat="-9.1363383" lon="148.2847934"/>
      <trkpt lat="-9.1363008" lon="148.2847393"/>
      <trkpt lat="-9.1362341" lon="148.2846336"/>
      <trkpt lat="-9.1361115" lon="148.2845107"/>
      <trkpt lat="-9.1360083" lon="148.2843655"/>
      <trkpt lat="-9.1359227" lon="148.2842097"/>
      <trkpt lat="-9.1358980" lon="148.2840428"/>
      <trkpt lat="-9.1359489" lon="148.2839031"/>
      <trkpt lat="-9.1360540" lon="148.2837685"/>
      <trkpt lat="-9.1360984" lon="148.2836557"/>
      <trkpt lat="-9.1360604" lon="148.2835239"/>
      <trkpt lat="-9.1359990" lon="148.2833915"/>
      <trkpt lat="-9.1359811" lon="148.2833092"/>
      <trkpt lat="-9.1360173" lon="148.2832437"/>
      <trkpt lat="-9.1360502" lon="148.2832215"/>
      <trkpt lat="-9.1360770" lon="148.2831233"/>
      <trkpt lat="-9.1360589" lon="148.2829987"/>
      <trkpt lat="-9.1360396" lon="148.2828333"/>
      <trkpt lat="-9.1359731" lon="148.2826987"/>
      <trkpt lat="-9.1359305" lon="148.2825657"/>
      <trkpt lat="-9.1358777" lon="148.2824349"/>
      <trkpt lat="-9.1358496" lon="148.2823024"/>
      <trkpt lat="-9.1357985" lon="148.2822248"/>
      <trkpt lat="-9.1357333" lon="148.2821933"/>
    </trkseg>
  </trk>
</gpx>
