<?xml version="1.0" encoding="UTF-8"?>
<gpx version="1.1" creator="MCA Maps — Managalas clan boundary survey"
     xmlns="http://www.topografix.com/GPX/1/1"
     xmlns:xsi="http://www.w3.org/2001/XMLSchema-instance"
     xsi:schemaLocation="http://www.topografix.com/GPX/1/1 http://www.topografix.com/GPX/1/1/gpx.xsd">
  <metadata>
    <name>Majanko — clan land boundary</name>
    <desc>Majanko, Zone 2. 7.5 km walked; the boundary closes</desc>
    <time>2026-08-23T00:00:00Z</time>
  </metadata>
  <trk>
    <name>Majanko - Gilford Amakana</name>
    <desc>Walked by Gilford Amakana. 7.5 km, 4 track(s), recorded on the ground. Majanko, Zone 2.</desc>
    <type>walked-boundary</type>
    <trkseg>
      <trkpt lat="-9.1540617" lon="148.2869900"/>
      <trkpt lat="-9.1541868" lon="148.2870764"/>
      <trkpt lat="-9.1543055" lon="148.2871526"/>
      <trkpt lat="-9.1544077" lon="148.2872468"/>
      <trkpt lat="-9.1545207" lon="148.2873541"/>
      <trkpt lat="-9.1546568" lon="148.2874469"/>
      <trkpt lat="-9.1548269" lon="148.2874850"/>
      <trkpt lat="-9.1550006" lon="148.2874964"/>
      <trkpt lat="-9.1551608" lon="148.2874652"/>
      <trkpt lat="-9.1553196" lon="148.2874258"/>
      <trkpt lat="-9.1554645" lon="148.2874259"/>
      <trkpt lat="-9.1556097" lon="148.2874969"/>
      <trkpt lat="-9.1557452" lon="148.2876134"/>
      <trkpt lat="-9.1558836" lon="148.2877278"/>
      <trkpt lat="-9.1560322" lon="148.2878250"/>
      <trkpt lat="-9.1561880" lon="148.2879092"/>
      <trkpt lat="-9.1563574" lon="148.2879706"/>
      <trkpt lat="-9.1565247" lon="148.2880369"/>
      <trkpt lat="-9.1566922" lon="148.2881025"/>
      <trkpt lat="-9.1568602" lon="148.2881636"/>
      <trkpt lat="-9.1570333" lon="148.2882108"/>
      <trkpt lat="-9.1571996" lon="148.2882704"/>
      <trkpt lat="-9.1573549" lon="148.2883519"/>
      <trkpt lat="-9.1574898" lon="148.2884636"/>
      <trkpt lat="-9.1576329" lon="148.2885280"/>
      <trkpt lat="-9.1577872" lon="148.2885418"/>
      <trkpt lat="-9.1579502" lon="148.2885292"/>
      <trkpt lat="-9.1581066" lon="148.2885420"/>
      <trkpt lat="-9.1582410" lon="148.2886040"/>
      <trkpt lat="-9.1583885" lon="148.2886496"/>
      <trkpt lat="-9.1585283" lon="148.2887192"/>
      <trkpt lat="-9.1586673" lon="148.2887440"/>
      <trkpt lat="-9.1587800" lon="148.2887264"/>
      <trkpt lat="-9.1588803" lon="148.2886257"/>
      <trkpt lat="-9.1589608" lon="148.2884785"/>
      <trkpt lat="-9.1590249" lon="148.2883161"/>
      <trkpt lat="-9.1590728" lon="148.2881419"/>
      <trkpt lat="-9.1591136" lon="148.2879667"/>
      <trkpt lat="-9.1591011" lon="148.2878027"/>
      <trkpt lat="-9.1590379" lon="148.2876496"/>
      <trkpt lat="-9.1589241" lon="148.2875132"/>
      <trkpt lat="-9.1588060" lon="148.2873786"/>
      <trkpt lat="-9.1587003" lon="148.2872369"/>
      <trkpt lat="-9.1586284" lon="148.2870770"/>
      <trkpt lat="-9.1585869" lon="148.2869030"/>
      <trkpt lat="-9.1585462" lon="148.2867283"/>
      <trkpt lat="-9.1584992" lon="148.2865548"/>
      <trkpt lat="-9.1584607" lon="148.2863807"/>
      <trkpt lat="-9.1584582" lon="148.2862030"/>
      <trkpt lat="-9.1584933" lon="148.2860279"/>
      <trkpt lat="-9.1585415" lon="148.2858538"/>
      <trkpt lat="-9.1585709" lon="148.2856783"/>
      <trkpt lat="-9.1585826" lon="148.2854985"/>
      <trkpt lat="-9.1585784" lon="148.2853175"/>
      <trkpt lat="-9.1585652" lon="148.2851386"/>
      <trkpt lat="-9.1585159" lon="148.2849682"/>
      <trkpt lat="-9.1584500" lon="148.2848016"/>
      <trkpt lat="-9.1583666" lon="148.2846440"/>
      <trkpt lat="-9.1582754" lon="148.2844945"/>
      <trkpt lat="-9.1582379" lon="148.2843565"/>
      <trkpt lat="-9.1582681" lon="148.2842202"/>
      <trkpt lat="-9.1583851" lon="148.2840918"/>
      <trkpt lat="-9.1584945" lon="148.2839552"/>
      <trkpt lat="-9.1585856" lon="148.2838077"/>
      <trkpt lat="-9.1586535" lon="148.2836410"/>
      <trkpt lat="-9.1587164" lon="148.2834711"/>
      <trkpt lat="-9.1587800" lon="148.2833014"/>
      <trkpt lat="-9.1588379" lon="148.2831293"/>
      <trkpt lat="-9.1588873" lon="148.2829549"/>
      <trkpt lat="-9.1589065" lon="148.2827808"/>
      <trkpt lat="-9.1588669" lon="148.2826197"/>
      <trkpt lat="-9.1587738" lon="148.2824747"/>
      <trkpt lat="-9.1586731" lon="148.2823301"/>
      <trkpt lat="-9.1585952" lon="148.2821722"/>
      <trkpt lat="-9.1585510" lon="148.2819969"/>
      <trkpt lat="-9.1585170" lon="148.2818190"/>
      <trkpt lat="-9.1584730" lon="148.2816454"/>
      <trkpt lat="-9.1584154" lon="148.2814777"/>
      <trkpt lat="-9.1583392" lon="148.2813236"/>
      <trkpt lat="-9.1582734" lon="148.2811654"/>
      <trkpt lat="-9.1582024" lon="148.2810077"/>
      <trkpt lat="-9.1581363" lon="148.2808406"/>
      <trkpt lat="-9.1580975" lon="148.2806738"/>
      <trkpt lat="-9.1581012" lon="148.2805075"/>
      <trkpt lat="-9.1581133" lon="148.2803401"/>
      <trkpt lat="-9.1580679" lon="148.2801931"/>
      <trkpt lat="-9.1579545" lon="148.2800677"/>
      <trkpt lat="-9.1578144" lon="148.2799565"/>
      <trkpt lat="-9.1576727" lon="148.2798464"/>
      <trkpt lat="-9.1575528" lon="148.2797173"/>
      <trkpt lat="-9.1574554" lon="148.2795737"/>
      <trkpt lat="-9.1573949" lon="148.2794070"/>
      <trkpt lat="-9.1573729" lon="148.2792320"/>
      <trkpt lat="-9.1574061" lon="148.2790662"/>
      <trkpt lat="-9.1574984" lon="148.2789220"/>
      <trkpt lat="-9.1576105" lon="148.2787856"/>
      <trkpt lat="-9.1577172" lon="148.2786447"/>
      <trkpt lat="-9.1578141" lon="148.2784937"/>
      <trkpt lat="-9.1579183" lon="148.2783467"/>
      <trkpt lat="-9.1580230" lon="148.2782001"/>
      <trkpt lat="-9.1580795" lon="148.2780525"/>
      <trkpt lat="-9.1581057" lon="148.2778928"/>
      <trkpt lat="-9.1580869" lon="148.2777306"/>
      <trkpt lat="-9.1580704" lon="148.2775576"/>
      <trkpt lat="-9.1580462" lon="148.2773841"/>
      <trkpt lat="-9.1580399" lon="148.2772052"/>
      <trkpt lat="-9.1580623" lon="148.2770316"/>
      <trkpt lat="-9.1581118" lon="148.2768632"/>
      <trkpt lat="-9.1581895" lon="148.2767030"/>
      <trkpt lat="-9.1582615" lon="148.2765410"/>
      <trkpt lat="-9.1582842" lon="148.2763788"/>
      <trkpt lat="-9.1582459" lon="148.2762180"/>
      <trkpt lat="-9.1582049" lon="148.2760544"/>
      <trkpt lat="-9.1582089" lon="148.2758987"/>
      <trkpt lat="-9.1583002" lon="148.2757806"/>
      <trkpt lat="-9.1584370" lon="148.2757044"/>
      <trkpt lat="-9.1586118" lon="148.2756630"/>
      <trkpt lat="-9.1587811" lon="148.2756104"/>
      <trkpt lat="-9.1589474" lon="148.2755545"/>
      <trkpt lat="-9.1591130" lon="148.2755030"/>
      <trkpt lat="-9.1592635" lon="148.2754330"/>
      <trkpt lat="-9.1593409" lon="148.2753258"/>
      <trkpt lat="-9.1593427" lon="148.2751699"/>
      <trkpt lat="-9.1592815" lon="148.2750108"/>
      <trkpt lat="-9.1592411" lon="148.2748486"/>
      <trkpt lat="-9.1592065" lon="148.2746851"/>
      <trkpt lat="-9.1591892" lon="148.2745149"/>
      <trkpt lat="-9.1591733" lon="148.2743449"/>
      <trkpt lat="-9.1591367" lon="148.2741832"/>
      <trkpt lat="-9.1590758" lon="148.2740253"/>
      <trkpt lat="-9.1590109" lon="148.2738688"/>
      <trkpt lat="-9.1589804" lon="148.2737014"/>
      <trkpt lat="-9.1589798" lon="148.2735222"/>
      <trkpt lat="-9.1589568" lon="148.2733457"/>
      <trkpt lat="-9.1588839" lon="148.2732090"/>
      <trkpt lat="-9.1587542" lon="148.2731223"/>
      <trkpt lat="-9.1586412" lon="148.2730905"/>
      <trkpt lat="-9.1585700" lon="148.2730783"/>
    </trkseg>
    <trkseg>
      <trkpt lat="-9.1585283" lon="148.2730700"/>
      <trkpt lat="-9.1584654" lon="148.2729071"/>
      <trkpt lat="-9.1584103" lon="148.2727385"/>
      <trkpt lat="-9.1583456" lon="148.2725751"/>
      <trkpt lat="-9.1582359" lon="148.2724571"/>
      <trkpt lat="-9.1580856" lon="148.2723862"/>
      <trkpt lat="-9.1579582" lon="148.2723218"/>
      <trkpt lat="-9.1578743" lon="148.2722165"/>
      <trkpt lat="-9.1578077" lon="148.2720778"/>
      <trkpt lat="-9.1577046" lon="148.2719459"/>
      <trkpt lat="-9.1575564" lon="148.2718693"/>
      <trkpt lat="-9.1574011" lon="148.2718386"/>
      <trkpt lat="-9.1572670" lon="148.2717879"/>
      <trkpt lat="-9.1571636" lon="148.2716821"/>
      <trkpt lat="-9.1570999" lon="148.2715151"/>
      <trkpt lat="-9.1570452" lon="148.2713611"/>
      <trkpt lat="-9.1569772" lon="148.2712336"/>
      <trkpt lat="-9.1569145" lon="148.2711058"/>
      <trkpt lat="-9.1568858" lon="148.2709637"/>
      <trkpt lat="-9.1568444" lon="148.2708385"/>
      <trkpt lat="-9.1567497" lon="148.2707919"/>
      <trkpt lat="-9.1565853" lon="148.2708027"/>
      <trkpt lat="-9.1564164" lon="148.2708063"/>
      <trkpt lat="-9.1562518" lon="148.2707631"/>
      <trkpt lat="-9.1560888" lon="148.2706904"/>
      <trkpt lat="-9.1559387" lon="148.2705952"/>
      <trkpt lat="-9.1557859" lon="148.2705072"/>
      <trkpt lat="-9.1556268" lon="148.2704371"/>
      <trkpt lat="-9.1554534" lon="148.2703938"/>
      <trkpt lat="-9.1552831" lon="148.2703430"/>
      <trkpt lat="-9.1551141" lon="148.2702872"/>
      <trkpt lat="-9.1549454" lon="148.2702292"/>
      <trkpt lat="-9.1547703" lon="148.2701865"/>
      <trkpt lat="-9.1546222" lon="148.2701105"/>
      <trkpt lat="-9.1544930" lon="148.2700073"/>
      <trkpt lat="-9.1543763" lon="148.2698778"/>
      <trkpt lat="-9.1542467" lon="148.2697557"/>
      <trkpt lat="-9.1541004" lon="148.2696589"/>
      <trkpt lat="-9.1539433" lon="148.2695828"/>
      <trkpt lat="-9.1537787" lon="148.2695167"/>
      <trkpt lat="-9.1536302" lon="148.2694412"/>
      <trkpt lat="-9.1535135" lon="148.2693289"/>
      <trkpt lat="-9.1533998" lon="148.2692142"/>
      <trkpt lat="-9.1532688" lon="148.2691121"/>
      <trkpt lat="-9.1531052" lon="148.2690816"/>
      <trkpt lat="-9.1529444" lon="148.2691171"/>
      <trkpt lat="-9.1528078" lon="148.2692186"/>
      <trkpt lat="-9.1526848" lon="148.2693435"/>
      <trkpt lat="-9.1525512" lon="148.2694377"/>
      <trkpt lat="-9.1523924" lon="148.2694912"/>
      <trkpt lat="-9.1522184" lon="148.2695068"/>
      <trkpt lat="-9.1520592" lon="148.2695583"/>
      <trkpt lat="-9.1519034" lon="148.2696178"/>
      <trkpt lat="-9.1517538" lon="148.2696977"/>
      <trkpt lat="-9.1516022" lon="148.2697800"/>
      <trkpt lat="-9.1514464" lon="148.2698324"/>
      <trkpt lat="-9.1512842" lon="148.2698726"/>
      <trkpt lat="-9.1511080" lon="148.2698862"/>
      <trkpt lat="-9.1509322" lon="148.2699223"/>
      <trkpt lat="-9.1507750" lon="148.2699925"/>
      <trkpt lat="-9.1506290" lon="148.2700853"/>
      <trkpt lat="-9.1505333" lon="148.2701947"/>
      <trkpt lat="-9.1504346" lon="148.2702450"/>
      <trkpt lat="-9.1503227" lon="148.2702624"/>
      <trkpt lat="-9.1501670" lon="148.2702799"/>
      <trkpt lat="-9.1500014" lon="148.2702926"/>
      <trkpt lat="-9.1498459" lon="148.2702702"/>
      <trkpt lat="-9.1496832" lon="148.2702125"/>
      <trkpt lat="-9.1495152" lon="148.2701821"/>
      <trkpt lat="-9.1493374" lon="148.2701813"/>
      <trkpt lat="-9.1491620" lon="148.2702073"/>
      <trkpt lat="-9.1489928" lon="148.2702537"/>
      <trkpt lat="-9.1488250" lon="148.2703138"/>
      <trkpt lat="-9.1486554" lon="148.2703653"/>
      <trkpt lat="-9.1484890" lon="148.2704180"/>
      <trkpt lat="-9.1483243" lon="148.2704742"/>
      <trkpt lat="-9.1481595" lon="148.2705102"/>
      <trkpt lat="-9.1479844" lon="148.2705230"/>
      <trkpt lat="-9.1478080" lon="148.2705358"/>
      <trkpt lat="-9.1476337" lon="148.2705789"/>
      <trkpt lat="-9.1474731" lon="148.2706544"/>
      <trkpt lat="-9.1473228" lon="148.2707482"/>
      <trkpt lat="-9.1471871" lon="148.2708642"/>
      <trkpt lat="-9.1470385" lon="148.2709397"/>
      <trkpt lat="-9.1468775" lon="148.2709853"/>
      <trkpt lat="-9.1466981" lon="148.2709868"/>
      <trkpt lat="-9.1465211" lon="148.2709716"/>
      <trkpt lat="-9.1463481" lon="148.2709612"/>
      <trkpt lat="-9.1461884" lon="148.2709772"/>
      <trkpt lat="-9.1460854" lon="148.2710690"/>
      <trkpt lat="-9.1460511" lon="148.2712075"/>
      <trkpt lat="-9.1460443" lon="148.2713669"/>
      <trkpt lat="-9.1460183" lon="148.2715150"/>
    </trkseg>
    <trkseg>
      <trkpt lat="-9.1459717" lon="148.2715683"/>
      <trkpt lat="-9.1458991" lon="148.2717301"/>
      <trkpt lat="-9.1458367" lon="148.2718960"/>
      <trkpt lat="-9.1457812" lon="148.2720590"/>
      <trkpt lat="-9.1456731" lon="148.2721611"/>
      <trkpt lat="-9.1455277" lon="148.2722143"/>
      <trkpt lat="-9.1453547" lon="148.2722454"/>
      <trkpt lat="-9.1451834" lon="148.2722928"/>
      <trkpt lat="-9.1450455" lon="148.2723853"/>
      <trkpt lat="-9.1449633" lon="148.2724946"/>
      <trkpt lat="-9.1448983" lon="148.2726265"/>
      <trkpt lat="-9.1448604" lon="148.2727672"/>
      <trkpt lat="-9.1448064" lon="148.2729240"/>
      <trkpt lat="-9.1447829" lon="148.2730999"/>
      <trkpt lat="-9.1447801" lon="148.2732695"/>
      <trkpt lat="-9.1447978" lon="148.2734400"/>
      <trkpt lat="-9.1447967" lon="148.2736007"/>
      <trkpt lat="-9.1447247" lon="148.2737311"/>
      <trkpt lat="-9.1446349" lon="148.2738613"/>
      <trkpt lat="-9.1445566" lon="148.2740023"/>
      <trkpt lat="-9.1445542" lon="148.2740960"/>
      <trkpt lat="-9.1445491" lon="148.2741573"/>
      <trkpt lat="-9.1445709" lon="148.2741581"/>
      <trkpt lat="-9.1445443" lon="148.2742363"/>
      <trkpt lat="-9.1445113" lon="148.2743432"/>
      <trkpt lat="-9.1444426" lon="148.2745068"/>
      <trkpt lat="-9.1444184" lon="148.2746576"/>
      <trkpt lat="-9.1443883" lon="148.2748002"/>
      <trkpt lat="-9.1443367" lon="148.2749248"/>
      <trkpt lat="-9.1442522" lon="148.2750624"/>
      <trkpt lat="-9.1442075" lon="148.2752111"/>
      <trkpt lat="-9.1442287" lon="148.2753813"/>
      <trkpt lat="-9.1442824" lon="148.2755507"/>
      <trkpt lat="-9.1443275" lon="148.2757210"/>
      <trkpt lat="-9.1443740" lon="148.2758903"/>
      <trkpt lat="-9.1444450" lon="148.2760444"/>
      <trkpt lat="-9.1445222" lon="148.2761916"/>
      <trkpt lat="-9.1445581" lon="148.2763375"/>
      <trkpt lat="-9.1445558" lon="148.2765051"/>
      <trkpt lat="-9.1445839" lon="148.2766617"/>
      <trkpt lat="-9.1446570" lon="148.2768175"/>
      <trkpt lat="-9.1447279" lon="148.2769741"/>
      <trkpt lat="-9.1447654" lon="148.2771480"/>
      <trkpt lat="-9.1447494" lon="148.2773159"/>
      <trkpt lat="-9.1446743" lon="148.2774520"/>
      <trkpt lat="-9.1445451" lon="148.2775672"/>
      <trkpt lat="-9.1444076" lon="148.2776788"/>
      <trkpt lat="-9.1443125" lon="148.2778206"/>
      <trkpt lat="-9.1442804" lon="148.2779807"/>
      <trkpt lat="-9.1443150" lon="148.2781490"/>
      <trkpt lat="-9.1444004" lon="148.2783004"/>
      <trkpt lat="-9.1444214" lon="148.2784105"/>
      <trkpt lat="-9.1443608" lon="148.2784941"/>
      <trkpt lat="-9.1442053" lon="148.2785495"/>
      <trkpt lat="-9.1440532" lon="148.2785645"/>
      <trkpt lat="-9.1439045" lon="148.2785855"/>
      <trkpt lat="-9.1437606" lon="148.2786155"/>
      <trkpt lat="-9.1436112" lon="148.2786433"/>
      <trkpt lat="-9.1435293" lon="148.2786902"/>
      <trkpt lat="-9.1434855" lon="148.2787696"/>
      <trkpt lat="-9.1434929" lon="148.2789269"/>
      <trkpt lat="-9.1434267" lon="148.2790377"/>
      <trkpt lat="-9.1433517" lon="148.2791502"/>
      <trkpt lat="-9.1432496" lon="148.2792669"/>
      <trkpt lat="-9.1431624" lon="148.2794186"/>
      <trkpt lat="-9.1430472" lon="148.2795484"/>
      <trkpt lat="-9.1429054" lon="148.2796271"/>
      <trkpt lat="-9.1427539" lon="148.2796702"/>
      <trkpt lat="-9.1426001" lon="148.2796939"/>
      <trkpt lat="-9.1424687" lon="148.2797669"/>
      <trkpt lat="-9.1423704" lon="148.2798922"/>
      <trkpt lat="-9.1423414" lon="148.2800450"/>
      <trkpt lat="-9.1423147" lon="148.2801977"/>
      <trkpt lat="-9.1422632" lon="148.2803358"/>
      <trkpt lat="-9.1421503" lon="148.2804710"/>
      <trkpt lat="-9.1420227" lon="148.2805911"/>
      <trkpt lat="-9.1419260" lon="148.2806570"/>
      <trkpt lat="-9.1418824" lon="148.2806891"/>
      <trkpt lat="-9.1418776" lon="148.2807075"/>
      <trkpt lat="-9.1419301" lon="148.2807498"/>
      <trkpt lat="-9.1420060" lon="148.2808088"/>
      <trkpt lat="-9.1420828" lon="148.2809042"/>
      <trkpt lat="-9.1421122" lon="148.2810478"/>
      <trkpt lat="-9.1421408" lon="148.2812172"/>
      <trkpt lat="-9.1422237" lon="148.2813485"/>
      <trkpt lat="-9.1423609" lon="148.2814441"/>
      <trkpt lat="-9.1425236" lon="148.2814762"/>
      <trkpt lat="-9.1426435" lon="148.2814289"/>
      <trkpt lat="-9.1427587" lon="148.2813861"/>
      <trkpt lat="-9.1428116" lon="148.2814092"/>
      <trkpt lat="-9.1428346" lon="148.2815420"/>
      <trkpt lat="-9.1427843" lon="148.2816978"/>
      <trkpt lat="-9.1427508" lon="148.2818554"/>
      <trkpt lat="-9.1427927" lon="148.2819787"/>
      <trkpt lat="-9.1428990" lon="148.2820148"/>
      <trkpt lat="-9.1430456" lon="148.2819854"/>
      <trkpt lat="-9.1431835" lon="148.2819185"/>
      <trkpt lat="-9.1433393" lon="148.2818663"/>
      <trkpt lat="-9.1434778" lon="148.2817841"/>
      <trkpt lat="-9.1436125" lon="148.2817300"/>
      <trkpt lat="-9.1437437" lon="148.2817115"/>
      <trkpt lat="-9.1438550" lon="148.2817805"/>
      <trkpt lat="-9.1439222" lon="148.2818729"/>
      <trkpt lat="-9.1439546" lon="148.2820034"/>
      <trkpt lat="-9.1439599" lon="148.2821327"/>
      <trkpt lat="-9.1439535" lon="148.2822882"/>
      <trkpt lat="-9.1439258" lon="148.2824427"/>
      <trkpt lat="-9.1439669" lon="148.2825719"/>
      <trkpt lat="-9.1440675" lon="148.2826806"/>
      <trkpt lat="-9.1441930" lon="148.2827912"/>
      <trkpt lat="-9.1442841" lon="148.2828693"/>
      <trkpt lat="-9.1443597" lon="148.2828608"/>
      <trkpt lat="-9.1444434" lon="148.2828072"/>
      <trkpt lat="-9.1445133" lon="148.2827095"/>
      <trkpt lat="-9.1445768" lon="148.2826210"/>
      <trkpt lat="-9.1446565" lon="148.2825314"/>
      <trkpt lat="-9.1447671" lon="148.2825388"/>
      <trkpt lat="-9.1448379" lon="148.2826382"/>
      <trkpt lat="-9.1448400" lon="148.2827793"/>
      <trkpt lat="-9.1448384" lon="148.2829295"/>
      <trkpt lat="-9.1448620" lon="148.2830858"/>
      <trkpt lat="-9.1449391" lon="148.2832342"/>
      <trkpt lat="-9.1450344" lon="148.2833532"/>
      <trkpt lat="-9.1451461" lon="148.2834573"/>
      <trkpt lat="-9.1451819" lon="148.2835305"/>
      <trkpt lat="-9.1451663" lon="148.2835790"/>
      <trkpt lat="-9.1450870" lon="148.2835364"/>
      <trkpt lat="-9.1450757" lon="148.2835230"/>
      <trkpt lat="-9.1451072" lon="148.2834994"/>
      <trkpt lat="-9.1451661" lon="148.2835390"/>
      <trkpt lat="-9.1452551" lon="148.2835649"/>
      <trkpt lat="-9.1452420" lon="148.2836125"/>
      <trkpt lat="-9.1452759" lon="148.2836757"/>
      <trkpt lat="-9.1453122" lon="148.2837255"/>
      <trkpt lat="-9.1454571" lon="148.2837914"/>
      <trkpt lat="-9.1456128" lon="148.2838597"/>
      <trkpt lat="-9.1457696" lon="148.2839308"/>
      <trkpt lat="-9.1459321" lon="148.2839667"/>
      <trkpt lat="-9.1461014" lon="148.2839859"/>
      <trkpt lat="-9.1462685" lon="148.2839675"/>
      <trkpt lat="-9.1464065" lon="148.2840143"/>
      <trkpt lat="-9.1464988" lon="148.2840886"/>
      <trkpt lat="-9.1465268" lon="148.2842345"/>
      <trkpt lat="-9.1465085" lon="148.2843753"/>
      <trkpt lat="-9.1464835" lon="148.2845295"/>
      <trkpt lat="-9.1464721" lon="148.2846856"/>
      <trkpt lat="-9.1465330" lon="148.2848194"/>
      <trkpt lat="-9.1466361" lon="148.2849293"/>
      <trkpt lat="-9.1467310" lon="148.2850452"/>
      <trkpt lat="-9.1468032" lon="148.2851452"/>
      <trkpt lat="-9.1468534" lon="148.2852628"/>
      <trkpt lat="-9.1469613" lon="148.2853476"/>
      <trkpt lat="-9.1470930" lon="148.2854047"/>
      <trkpt lat="-9.1472578" lon="148.2853983"/>
      <trkpt lat="-9.1474266" lon="148.2853585"/>
      <trkpt lat="-9.1475988" lon="148.2853320"/>
      <trkpt lat="-9.1477693" lon="148.2852934"/>
      <trkpt lat="-9.1479320" lon="148.2852544"/>
      <trkpt lat="-9.1480839" lon="148.2852565"/>
      <trkpt lat="-9.1482377" lon="148.2853034"/>
      <trkpt lat="-9.1483774" lon="148.2854063"/>
      <trkpt lat="-9.1484813" lon="148.2855153"/>
      <trkpt lat="-9.1485765" lon="148.2856400"/>
      <trkpt lat="-9.1486895" lon="148.2857445"/>
      <trkpt lat="-9.1488369" lon="148.2857715"/>
      <trkpt lat="-9.1489922" lon="148.2857799"/>
      <trkpt lat="-9.1491492" lon="148.2857869"/>
      <trkpt lat="-9.1493139" lon="148.2858532"/>
      <trkpt lat="-9.1494652" lon="148.2859450"/>
      <trkpt lat="-9.1495638" lon="148.2860691"/>
      <trkpt lat="-9.1496321" lon="148.2862225"/>
      <trkpt lat="-9.1496809" lon="148.2863870"/>
      <trkpt lat="-9.1497548" lon="148.2865458"/>
      <trkpt lat="-9.1498299" lon="148.2867056"/>
      <trkpt lat="-9.1499356" lon="148.2868321"/>
      <trkpt lat="-9.1500433" lon="148.2868557"/>
      <trkpt lat="-9.1501810" lon="148.2868088"/>
      <trkpt lat="-9.1503196" lon="148.2867141"/>
      <trkpt lat="-9.1504791" lon="148.2866359"/>
      <trkpt lat="-9.1506386" lon="148.2865638"/>
      <trkpt lat="-9.1508001" lon="148.2865269"/>
      <trkpt lat="-9.1509651" lon="148.2865172"/>
      <trkpt lat="-9.1510700" lon="148.2865287"/>
      <trkpt lat="-9.1511150" lon="148.2865417"/>
    </trkseg>
    <trkseg>
      <trkpt lat="-9.1511583" lon="148.2864567"/>
      <trkpt lat="-9.1513295" lon="148.2864436"/>
      <trkpt lat="-9.1514989" lon="148.2864040"/>
      <trkpt lat="-9.1516708" lon="148.2863632"/>
      <trkpt lat="-9.1518376" lon="148.2863562"/>
      <trkpt lat="-9.1519974" lon="148.2864034"/>
      <trkpt lat="-9.1521416" lon="148.2864799"/>
      <trkpt lat="-9.1522523" lon="148.2865944"/>
      <trkpt lat="-9.1523613" lon="148.2867183"/>
      <trkpt lat="-9.1524678" lon="148.2868183"/>
      <trkpt lat="-9.1525670" lon="148.2869196"/>
      <trkpt lat="-9.1526263" lon="148.2870405"/>
      <trkpt lat="-9.1526787" lon="148.2871995"/>
      <trkpt lat="-9.1527686" lon="148.2873275"/>
      <trkpt lat="-9.1529062" lon="148.2874233"/>
      <trkpt lat="-9.1530614" lon="148.2874925"/>
      <trkpt lat="-9.1532267" lon="148.2875265"/>
      <trkpt lat="-9.1533824" lon="148.2874985"/>
      <trkpt lat="-9.1535241" lon="148.2874098"/>
      <trkpt lat="-9.1536329" lon="148.2872760"/>
      <trkpt lat="-9.1537449" lon="148.2871426"/>
      <trkpt lat="-9.1538690" lon="148.2870354"/>
      <trkpt lat="-9.1540048" lon="148.2869956"/>
      <trkpt lat="-9.1541317" lon="148.2870067"/>
    </trkseg>
  </trk>
</gpx>
