<?xml version="1.0" encoding="UTF-8"?>
<gpx version="1.1" creator="MCA Maps — Managalas clan boundary survey"
     xmlns="http://www.topografix.com/GPX/1/1"
     xmlns:xsi="http://www.w3.org/2001/XMLSchema-instance"
     xsi:schemaLocation="http://www.topografix.com/GPX/1/1 http://www.topografix.com/GPX/1/1/gpx.xsd">
  <metadata>
    <name>Manang — clan land boundary</name>
    <desc>Manang, Zone 7B. 7.1 km walked; 1.8 km still to walk in 1 gap</desc>
    <time>2026-08-16T11:48:57Z</time>
  </metadata>
  <wpt lat="-9.1274883" lon="148.3574527">
    <name>GAP 1 OF 1 START</name>
    <desc>1.79 km not walked. This straight line is not a boundary — it joins the two ends so the shape can be closed on paper. Manang, Zone 7B.</desc>
    <sym>Flag</sym>
  </wpt>
  <wpt lat="-9.1179951" lon="148.3706249">
    <name>GAP 1 OF 1 END</name>
    <desc>1.79 km not walked. This straight line is not a boundary — it joins the two ends so the shape can be closed on paper. Manang, Zone 7B.</desc>
    <sym>Flag</sym>
  </wpt>
  <trk>
    <name>GAP 1 OF 1 - NOT WALKED - 1.79 km</name>
    <desc>1.79 km not walked. This straight line is not a boundary — it joins the two ends so the shape can be closed on paper. Manang, Zone 7B.</desc>
    <type>not-walked</type>
    <trkseg>
      <trkpt lat="-9.1274883" lon="148.3574527"/>
      <trkpt lat="-9.1179951" lon="148.3706249"/>
    </trkseg>
  </trk>
  <trk>
    <name>Manang - Kelly Wahamo</name>
    <desc>Walked by Kelly Wahamo. 7.1 km, 1 track(s), recorded on the ground. Manang, Zone 7B.</desc>
    <type>walked-boundary</type>
    <trkseg>
      <trkpt lat="-9.1326613" lon="148.3723700"/>
      <trkpt lat="-9.1325242" lon="148.3722521"/>
      <trkpt lat="-9.1323859" lon="148.3721359"/>
      <trkpt lat="-9.1322451" lon="148.3720230"/>
      <trkpt lat="-9.1321184" lon="148.3718987"/>
      <trkpt lat="-9.1320156" lon="148.3717582"/>
      <trkpt lat="-9.1319247" lon="148.3716056"/>
      <trkpt lat="-9.1318197" lon="148.3714641"/>
      <trkpt lat="-9.1316915" lon="148.3713376"/>
      <trkpt lat="-9.1315503" lon="148.3712242"/>
      <trkpt lat="-9.1314027" lon="148.3711207"/>
      <trkpt lat="-9.1312468" lon="148.3710639"/>
      <trkpt lat="-9.1310900" lon="148.3710767"/>
      <trkpt lat="-9.1309284" lon="148.3711359"/>
      <trkpt lat="-9.1307632" lon="148.3712040"/>
      <trkpt lat="-9.1305891" lon="148.3712442"/>
      <trkpt lat="-9.1304140" lon="148.3712715"/>
      <trkpt lat="-9.1302371" lon="148.3712877"/>
      <trkpt lat="-9.1300712" lon="148.3712616"/>
      <trkpt lat="-9.1299403" lon="148.3711755"/>
      <trkpt lat="-9.1298280" lon="148.3710405"/>
      <trkpt lat="-9.1297337" lon="148.3708901"/>
      <trkpt lat="-9.1296482" lon="148.3707366"/>
      <trkpt lat="-9.1296046" lon="148.3705676"/>
      <trkpt lat="-9.1296368" lon="148.3704237"/>
      <trkpt lat="-9.1297397" lon="148.3703588"/>
      <trkpt lat="-9.1298960" lon="148.3703769"/>
      <trkpt lat="-9.1300507" lon="148.3704015"/>
      <trkpt lat="-9.1301406" lon="148.3703490"/>
      <trkpt lat="-9.1301355" lon="148.3702283"/>
      <trkpt lat="-9.1300270" lon="148.3701274"/>
      <trkpt lat="-9.1298822" lon="148.3700659"/>
      <trkpt lat="-9.1297617" lon="148.3699915"/>
      <trkpt lat="-9.1296788" lon="148.3698610"/>
      <trkpt lat="-9.1296152" lon="148.3697007"/>
      <trkpt lat="-9.1295124" lon="148.3695779"/>
      <trkpt lat="-9.1293836" lon="148.3694766"/>
      <trkpt lat="-9.1292261" lon="148.3693993"/>
      <trkpt lat="-9.1290771" lon="148.3693035"/>
      <trkpt lat="-9.1289315" lon="148.3692008"/>
      <trkpt lat="-9.1288347" lon="148.3690681"/>
      <trkpt lat="-9.1287845" lon="148.3689153"/>
      <trkpt lat="-9.1287745" lon="148.3687436"/>
      <trkpt lat="-9.1287660" lon="148.3685645"/>
      <trkpt lat="-9.1287634" lon="148.3683837"/>
      <trkpt lat="-9.1287610" lon="148.3682034"/>
      <trkpt lat="-9.1287426" lon="148.3680269"/>
      <trkpt lat="-9.1287216" lon="148.3678497"/>
      <trkpt lat="-9.1287122" lon="148.3676736"/>
      <trkpt lat="-9.1287317" lon="148.3674952"/>
      <trkpt lat="-9.1287308" lon="148.3673192"/>
      <trkpt lat="-9.1287195" lon="148.3671425"/>
      <trkpt lat="-9.1287144" lon="148.3669663"/>
      <trkpt lat="-9.1287672" lon="148.3668035"/>
      <trkpt lat="-9.1288464" lon="148.3666446"/>
      <trkpt lat="-9.1289192" lon="148.3664886"/>
      <trkpt lat="-9.1289360" lon="148.3663200"/>
      <trkpt lat="-9.1289076" lon="148.3661611"/>
      <trkpt lat="-9.1288836" lon="148.3660264"/>
      <trkpt lat="-9.1288683" lon="148.3658904"/>
      <trkpt lat="-9.1288726" lon="148.3657403"/>
      <trkpt lat="-9.1289014" lon="148.3656539"/>
      <trkpt lat="-9.1289653" lon="148.3656057"/>
      <trkpt lat="-9.1289736" lon="148.3656188"/>
      <trkpt lat="-9.1289836" lon="148.3655965"/>
      <trkpt lat="-9.1289457" lon="148.3655589"/>
      <trkpt lat="-9.1289312" lon="148.3654823"/>
      <trkpt lat="-9.1288354" lon="148.3653656"/>
      <trkpt lat="-9.1287213" lon="148.3652379"/>
      <trkpt lat="-9.1285992" lon="148.3651052"/>
      <trkpt lat="-9.1284740" lon="148.3649762"/>
      <trkpt lat="-9.1283359" lon="148.3648651"/>
      <trkpt lat="-9.1281799" lon="148.3647916"/>
      <trkpt lat="-9.1280193" lon="148.3647277"/>
      <trkpt lat="-9.1279218" lon="148.3646393"/>
      <trkpt lat="-9.1279226" lon="148.3645094"/>
      <trkpt lat="-9.1280123" lon="148.3643636"/>
      <trkpt lat="-9.1281459" lon="148.3642524"/>
      <trkpt lat="-9.1282899" lon="148.3641521"/>
      <trkpt lat="-9.1284406" lon="148.3640583"/>
      <trkpt lat="-9.1285815" lon="148.3639444"/>
      <trkpt lat="-9.1287119" lon="148.3638207"/>
      <trkpt lat="-9.1288152" lon="148.3636791"/>
      <trkpt lat="-9.1288939" lon="148.3635204"/>
      <trkpt lat="-9.1289600" lon="148.3633525"/>
      <trkpt lat="-9.1290470" lon="148.3631965"/>
      <trkpt lat="-9.1291568" lon="148.3630563"/>
      <trkpt lat="-9.1292610" lon="148.3629136"/>
      <trkpt lat="-9.1293523" lon="148.3627622"/>
      <trkpt lat="-9.1294187" lon="148.3625934"/>
      <trkpt lat="-9.1294872" lon="148.3624254"/>
      <trkpt lat="-9.1295529" lon="148.3622560"/>
      <trkpt lat="-9.1296206" lon="148.3620874"/>
      <trkpt lat="-9.1296846" lon="148.3619174"/>
      <trkpt lat="-9.1297377" lon="148.3617441"/>
      <trkpt lat="-9.1297818" lon="148.3615681"/>
      <trkpt lat="-9.1298135" lon="148.3613903"/>
      <trkpt lat="-9.1298385" lon="148.3612120"/>
      <trkpt lat="-9.1298586" lon="148.3610328"/>
      <trkpt lat="-9.1298754" lon="148.3608526"/>
      <trkpt lat="-9.1298846" lon="148.3606714"/>
      <trkpt lat="-9.1298779" lon="148.3604904"/>
      <trkpt lat="-9.1298649" lon="148.3603098"/>
      <trkpt lat="-9.1298478" lon="148.3601300"/>
      <trkpt lat="-9.1298198" lon="148.3599529"/>
      <trkpt lat="-9.1297587" lon="148.3597901"/>
      <trkpt lat="-9.1296847" lon="148.3596419"/>
      <trkpt lat="-9.1296495" lon="148.3594940"/>
      <trkpt lat="-9.1296588" lon="148.3593319"/>
      <trkpt lat="-9.1296735" lon="148.3591558"/>
      <trkpt lat="-9.1296410" lon="148.3589832"/>
      <trkpt lat="-9.1295629" lon="148.3588235"/>
      <trkpt lat="-9.1294558" lon="148.3586791"/>
      <trkpt lat="-9.1293379" lon="148.3585428"/>
      <trkpt lat="-9.1292275" lon="148.3584020"/>
      <trkpt lat="-9.1291173" lon="148.3582611"/>
      <trkpt lat="-9.1289966" lon="148.3581309"/>
      <trkpt lat="-9.1288534" lon="148.3580226"/>
      <trkpt lat="-9.1286952" lon="148.3579409"/>
      <trkpt lat="-9.1285334" lon="148.3578697"/>
      <trkpt lat="-9.1283740" lon="148.3577966"/>
      <trkpt lat="-9.1282123" lon="148.3577272"/>
      <trkpt lat="-9.1280451" lon="148.3576665"/>
      <trkpt lat="-9.1278784" lon="148.3576034"/>
      <trkpt lat="-9.1277199" lon="148.3575219"/>
      <trkpt lat="-9.1275928" lon="148.3574655"/>
      <trkpt lat="-9.1274883" lon="148.3574527"/>
    </trkseg>
    <trkseg>
      <trkpt lat="-9.1179951" lon="148.3706249"/>
      <trkpt lat="-9.1178677" lon="148.3707091"/>
      <trkpt lat="-9.1177686" lon="148.3708339"/>
      <trkpt lat="-9.1176846" lon="148.3709918"/>
      <trkpt lat="-9.1175887" lon="148.3711430"/>
      <trkpt lat="-9.1174751" lon="148.3712838"/>
      <trkpt lat="-9.1173645" lon="148.3714262"/>
      <trkpt lat="-9.1172691" lon="148.3715783"/>
      <trkpt lat="-9.1171915" lon="148.3717410"/>
      <trkpt lat="-9.1171232" lon="148.3719094"/>
      <trkpt lat="-9.1170597" lon="148.3720791"/>
      <trkpt lat="-9.1170091" lon="148.3722518"/>
      <trkpt lat="-9.1169569" lon="148.3724235"/>
      <trkpt lat="-9.1168815" lon="148.3725748"/>
      <trkpt lat="-9.1168597" lon="148.3727030"/>
      <trkpt lat="-9.1169188" lon="148.3727957"/>
      <trkpt lat="-9.1170791" lon="148.3728656"/>
      <trkpt lat="-9.1172502" lon="148.3729224"/>
      <trkpt lat="-9.1174208" lon="148.3729814"/>
      <trkpt lat="-9.1175906" lon="148.3730371"/>
      <trkpt lat="-9.1177638" lon="148.3730715"/>
      <trkpt lat="-9.1179306" lon="148.3731156"/>
      <trkpt lat="-9.1180797" lon="148.3731926"/>
      <trkpt lat="-9.1181995" lon="148.3733199"/>
      <trkpt lat="-9.1182482" lon="148.3734718"/>
      <trkpt lat="-9.1182375" lon="148.3736374"/>
      <trkpt lat="-9.1181586" lon="148.3737932"/>
      <trkpt lat="-9.1180539" lon="148.3739299"/>
      <trkpt lat="-9.1179292" lon="148.3740555"/>
      <trkpt lat="-9.1178136" lon="148.3741862"/>
      <trkpt lat="-9.1177792" lon="148.3743234"/>
      <trkpt lat="-9.1178229" lon="148.3744583"/>
      <trkpt lat="-9.1179307" lon="148.3745936"/>
      <trkpt lat="-9.1180385" lon="148.3747352"/>
      <trkpt lat="-9.1181291" lon="148.3748861"/>
      <trkpt lat="-9.1181739" lon="148.3750468"/>
      <trkpt lat="-9.1181504" lon="148.3752075"/>
      <trkpt lat="-9.1180589" lon="148.3753530"/>
      <trkpt lat="-9.1179764" lon="148.3754935"/>
      <trkpt lat="-9.1179074" lon="148.3756407"/>
      <trkpt lat="-9.1178928" lon="148.3758103"/>
      <trkpt lat="-9.1178812" lon="148.3759868"/>
      <trkpt lat="-9.1179108" lon="148.3761639"/>
      <trkpt lat="-9.1179570" lon="148.3763358"/>
      <trkpt lat="-9.1180166" lon="148.3765064"/>
      <trkpt lat="-9.1180556" lon="148.3766808"/>
      <trkpt lat="-9.1180609" lon="148.3768595"/>
      <trkpt lat="-9.1180701" lon="148.3770314"/>
      <trkpt lat="-9.1181111" lon="148.3771922"/>
      <trkpt lat="-9.1181778" lon="148.3773519"/>
      <trkpt lat="-9.1182540" lon="148.3774857"/>
      <trkpt lat="-9.1182569" lon="148.3775916"/>
      <trkpt lat="-9.1182359" lon="148.3776488"/>
      <trkpt lat="-9.1182037" lon="148.3777378"/>
      <trkpt lat="-9.1182403" lon="148.3778594"/>
      <trkpt lat="-9.1183125" lon="148.3780250"/>
      <trkpt lat="-9.1183861" lon="148.3781881"/>
      <trkpt lat="-9.1184757" lon="148.3783378"/>
      <trkpt lat="-9.1185695" lon="148.3784851"/>
      <trkpt lat="-9.1186731" lon="148.3786303"/>
      <trkpt lat="-9.1187300" lon="148.3787942"/>
      <trkpt lat="-9.1187432" lon="148.3789664"/>
      <trkpt lat="-9.1187283" lon="148.3791458"/>
      <trkpt lat="-9.1186927" lon="148.3793184"/>
      <trkpt lat="-9.1186708" lon="148.3794843"/>
      <trkpt lat="-9.1186277" lon="148.3796344"/>
      <trkpt lat="-9.1186089" lon="148.3797729"/>
      <trkpt lat="-9.1185436" lon="148.3798690"/>
      <trkpt lat="-9.1184453" lon="148.3799448"/>
      <trkpt lat="-9.1182970" lon="148.3800106"/>
      <trkpt lat="-9.1181589" lon="148.3801162"/>
      <trkpt lat="-9.1180664" lon="148.3802469"/>
      <trkpt lat="-9.1180111" lon="148.3803960"/>
      <trkpt lat="-9.1179871" lon="148.3805537"/>
      <trkpt lat="-9.1179952" lon="148.3807140"/>
      <trkpt lat="-9.1180662" lon="148.3808419"/>
      <trkpt lat="-9.1181853" lon="148.3809469"/>
      <trkpt lat="-9.1183202" lon="148.3810397"/>
      <trkpt lat="-9.1184611" lon="148.3811013"/>
      <trkpt lat="-9.1185475" lon="148.3811770"/>
      <trkpt lat="-9.1185572" lon="148.3812565"/>
      <trkpt lat="-9.1185045" lon="148.3814087"/>
      <trkpt lat="-9.1184815" lon="148.3815679"/>
      <trkpt lat="-9.1185216" lon="148.3817367"/>
      <trkpt lat="-9.1185684" lon="148.3819061"/>
      <trkpt lat="-9.1185716" lon="148.3820746"/>
      <trkpt lat="-9.1185286" lon="148.3822460"/>
      <trkpt lat="-9.1184833" lon="148.3824136"/>
      <trkpt lat="-9.1184490" lon="148.3825778"/>
      <trkpt lat="-9.1184823" lon="148.3827216"/>
      <trkpt lat="-9.1185497" lon="148.3828590"/>
      <trkpt lat="-9.1186209" lon="148.3830011"/>
      <trkpt lat="-9.1186175" lon="148.3831609"/>
      <trkpt lat="-9.1185758" lon="148.3833302"/>
      <trkpt lat="-9.1185346" lon="148.3835022"/>
      <trkpt lat="-9.1184843" lon="148.3836463"/>
      <trkpt lat="-9.1184560" lon="148.3837848"/>
      <trkpt lat="-9.1184716" lon="148.3839120"/>
      <trkpt lat="-9.1185681" lon="148.3840427"/>
      <trkpt lat="-9.1187073" lon="148.3841256"/>
      <trkpt lat="-9.1188668" lon="148.3841688"/>
      <trkpt lat="-9.1190407" lon="148.3841921"/>
      <trkpt lat="-9.1192088" lon="148.3842390"/>
      <trkpt lat="-9.1193732" lon="148.3842660"/>
      <trkpt lat="-9.1195298" lon="148.3842672"/>
      <trkpt lat="-9.1196928" lon="148.3842497"/>
      <trkpt lat="-9.1198616" lon="148.3842554"/>
      <trkpt lat="-9.1200338" lon="148.3842971"/>
      <trkpt lat="-9.1202017" lon="148.3843133"/>
      <trkpt lat="-9.1203707" lon="148.3843223"/>
      <trkpt lat="-9.1205421" lon="148.3843173"/>
      <trkpt lat="-9.1206902" lon="148.3843785"/>
      <trkpt lat="-9.1208182" lon="148.3844798"/>
      <trkpt lat="-9.1209200" lon="148.3846278"/>
      <trkpt lat="-9.1210083" lon="148.3847823"/>
      <trkpt lat="-9.1210819" lon="148.3848988"/>
      <trkpt lat="-9.1211313" lon="148.3849871"/>
      <trkpt lat="-9.1212146" lon="148.3850479"/>
      <trkpt lat="-9.1213310" lon="148.3851173"/>
      <trkpt lat="-9.1214962" lon="148.3851846"/>
      <trkpt lat="-9.1216695" lon="148.3852261"/>
      <trkpt lat="-9.1218398" lon="148.3852734"/>
      <trkpt lat="-9.1219667" lon="148.3853162"/>
      <trkpt lat="-9.1220428" lon="148.3853776"/>
      <trkpt lat="-9.1220924" lon="148.3854329"/>
      <trkpt lat="-9.1221579" lon="148.3854382"/>
      <trkpt lat="-9.1222225" lon="148.3854074"/>
      <trkpt lat="-9.1223187" lon="148.3853589"/>
      <trkpt lat="-9.1224414" lon="148.3853207"/>
      <trkpt lat="-9.1226038" lon="148.3852598"/>
      <trkpt lat="-9.1226958" lon="148.3851877"/>
      <trkpt lat="-9.1227808" lon="148.3851138"/>
      <trkpt lat="-9.1228677" lon="148.3850431"/>
      <trkpt lat="-9.1230230" lon="148.3849789"/>
      <trkpt lat="-9.1231853" lon="148.3849120"/>
      <trkpt lat="-9.1233532" lon="148.3848917"/>
      <trkpt lat="-9.1235219" lon="148.3848783"/>
      <trkpt lat="-9.1236943" lon="148.3848786"/>
      <trkpt lat="-9.1238642" lon="148.3848939"/>
      <trkpt lat="-9.1240231" lon="148.3848975"/>
      <trkpt lat="-9.1241525" lon="148.3848607"/>
      <trkpt lat="-9.1242586" lon="148.3847451"/>
      <trkpt lat="-9.1243652" lon="148.3846099"/>
      <trkpt lat="-9.1245020" lon="148.3845252"/>
      <trkpt lat="-9.1246677" lon="148.3844867"/>
      <trkpt lat="-9.1248414" lon="148.3844999"/>
      <trkpt lat="-9.1250163" lon="148.3845171"/>
      <trkpt lat="-9.1251897" lon="148.3845421"/>
      <trkpt lat="-9.1253337" lon="148.3845937"/>
      <trkpt lat="-9.1254773" lon="148.3846539"/>
      <trkpt lat="-9.1256233" lon="148.3847143"/>
      <trkpt lat="-9.1257962" lon="148.3847039"/>
      <trkpt lat="-9.1259132" lon="148.3847340"/>
      <trkpt lat="-9.1259968" lon="148.3848136"/>
      <trkpt lat="-9.1260468" lon="148.3849514"/>
      <trkpt lat="-9.1261344" lon="148.3849944"/>
      <trkpt lat="-9.1262437" lon="148.3849478"/>
      <trkpt lat="-9.1263860" lon="148.3848732"/>
      <trkpt lat="-9.1265434" lon="148.3848651"/>
      <trkpt lat="-9.1267119" lon="148.3849033"/>
      <trkpt lat="-9.1268873" lon="148.3849375"/>
      <trkpt lat="-9.1270662" lon="148.3849406"/>
      <trkpt lat="-9.1272451" lon="148.3849258"/>
      <trkpt lat="-9.1274205" lon="148.3849256"/>
      <trkpt lat="-9.1275899" lon="148.3849621"/>
      <trkpt lat="-9.1277537" lon="148.3850347"/>
      <trkpt lat="-9.1279165" lon="148.3851095"/>
      <trkpt lat="-9.1280776" lon="148.3851302"/>
      <trkpt lat="-9.1282361" lon="148.3850901"/>
      <trkpt lat="-9.1283919" lon="148.3850036"/>
      <trkpt lat="-9.1285518" lon="148.3849208"/>
      <trkpt lat="-9.1287148" lon="148.3848432"/>
      <trkpt lat="-9.1288771" lon="148.3847641"/>
      <trkpt lat="-9.1290306" lon="148.3846695"/>
      <trkpt lat="-9.1291751" lon="148.3845618"/>
      <trkpt lat="-9.1293081" lon="148.3844391"/>
      <trkpt lat="-9.1294352" lon="148.3843107"/>
      <trkpt lat="-9.1295601" lon="148.3841802"/>
      <trkpt lat="-9.1296858" lon="148.3840507"/>
      <trkpt lat="-9.1298171" lon="148.3839263"/>
      <trkpt lat="-9.1299566" lon="148.3838125"/>
      <trkpt lat="-9.1301012" lon="148.3837061"/>
      <trkpt lat="-9.1302135" lon="148.3835819"/>
      <trkpt lat="-9.1302794" lon="148.3834292"/>
      <trkpt lat="-9.1303094" lon="148.3832534"/>
      <trkpt lat="-9.1303482" lon="148.3830778"/>
      <trkpt lat="-9.1304065" lon="148.3829071"/>
      <trkpt lat="-9.1304795" lon="148.3827408"/>
      <trkpt lat="-9.1305708" lon="148.3825879"/>
      <trkpt lat="-9.1306932" lon="148.3824728"/>
      <trkpt lat="-9.1308404" lon="148.3824452"/>
      <trkpt lat="-9.1310017" lon="148.3824831"/>
      <trkpt lat="-9.1311631" lon="148.3825631"/>
      <trkpt lat="-9.1313288" lon="148.3826353"/>
      <trkpt lat="-9.1314911" lon="148.3827148"/>
      <trkpt lat="-9.1316423" lon="148.3827784"/>
      <trkpt lat="-9.1317544" lon="148.3827599"/>
      <trkpt lat="-9.1318278" lon="148.3826528"/>
      <trkpt lat="-9.1318866" lon="148.3824844"/>
      <trkpt lat="-9.1319654" lon="148.3823253"/>
      <trkpt lat="-9.1320430" lon="148.3821654"/>
      <trkpt lat="-9.1321054" lon="148.3819993"/>
      <trkpt lat="-9.1321191" lon="148.3818255"/>
      <trkpt lat="-9.1321119" lon="148.3816538"/>
      <trkpt lat="-9.1321319" lon="148.3814971"/>
      <trkpt lat="-9.1322171" lon="148.3813657"/>
      <trkpt lat="-9.1323334" lon="148.3812361"/>
      <trkpt lat="-9.1324390" lon="148.3810983"/>
      <trkpt lat="-9.1325439" lon="148.3809628"/>
      <trkpt lat="-9.1326861" lon="148.3808771"/>
      <trkpt lat="-9.1328418" lon="148.3808058"/>
      <trkpt lat="-9.1329476" lon="148.3807659"/>
      <trkpt lat="-9.1330076" lon="148.3806768"/>
      <trkpt lat="-9.1330462" lon="148.3805718"/>
      <trkpt lat="-9.1330834" lon="148.3804036"/>
      <trkpt lat="-9.1331366" lon="148.3802386"/>
      <trkpt lat="-9.1331903" lon="148.3800720"/>
      <trkpt lat="-9.1332541" lon="148.3799055"/>
      <trkpt lat="-9.1333228" lon="148.3797445"/>
      <trkpt lat="-9.1333872" lon="148.3795869"/>
      <trkpt lat="-9.1334664" lon="148.3794372"/>
      <trkpt lat="-9.1335642" lon="148.3793174"/>
      <trkpt lat="-9.1336943" lon="148.3792182"/>
      <trkpt lat="-9.1338500" lon="148.3791381"/>
      <trkpt lat="-9.1339758" lon="148.3790240"/>
      <trkpt lat="-9.1340639" lon="148.3788835"/>
      <trkpt lat="-9.1341078" lon="148.3787173"/>
      <trkpt lat="-9.1341282" lon="148.3785446"/>
      <trkpt lat="-9.1340962" lon="148.3784039"/>
      <trkpt lat="-9.1340043" lon="148.3782989"/>
      <trkpt lat="-9.1338685" lon="148.3782095"/>
      <trkpt lat="-9.1337272" lon="148.3781088"/>
      <trkpt lat="-9.1336168" lon="148.3779749"/>
      <trkpt lat="-9.1336007" lon="148.3778805"/>
      <trkpt lat="-9.1336873" lon="148.3778236"/>
      <trkpt lat="-9.1338456" lon="148.3777888"/>
      <trkpt lat="-9.1339743" lon="148.3777010"/>
      <trkpt lat="-9.1340804" lon="148.3775659"/>
      <trkpt lat="-9.1341350" lon="148.3774155"/>
      <trkpt lat="-9.1341793" lon="148.3772619"/>
      <trkpt lat="-9.1342138" lon="148.3771008"/>
      <trkpt lat="-9.1342444" lon="148.3769340"/>
      <trkpt lat="-9.1342798" lon="148.3768148"/>
      <trkpt lat="-9.1342981" lon="148.3767027"/>
      <trkpt lat="-9.1343103" lon="148.3765873"/>
      <trkpt lat="-9.1343052" lon="148.3764212"/>
      <trkpt lat="-9.1343037" lon="148.3762436"/>
      <trkpt lat="-9.1343068" lon="148.3760647"/>
      <trkpt lat="-9.1343156" lon="148.3758860"/>
      <trkpt lat="-9.1343124" lon="148.3757065"/>
      <trkpt lat="-9.1343258" lon="148.3755266"/>
      <trkpt lat="-9.1343477" lon="148.3753480"/>
      <trkpt lat="-9.1343801" lon="148.3751695"/>
      <trkpt lat="-9.1344154" lon="148.3749919"/>
      <trkpt lat="-9.1344192" lon="148.3748496"/>
      <trkpt lat="-9.1343726" lon="148.3747210"/>
      <trkpt lat="-9.1342761" lon="148.3746052"/>
      <trkpt lat="-9.1341631" lon="148.3744652"/>
      <trkpt lat="-9.1340500" lon="148.3743252"/>
      <trkpt lat="-9.1339429" lon="148.3741801"/>
      <trkpt lat="-9.1338391" lon="148.3740324"/>
      <trkpt lat="-9.1337390" lon="148.3738818"/>
      <trkpt lat="-9.1336351" lon="148.3737337"/>
      <trkpt lat="-9.1335329" lon="148.3735842"/>
      <trkpt lat="-9.1334370" lon="148.3734306"/>
      <trkpt lat="-9.1333434" lon="148.3732756"/>
      <trkpt lat="-9.1332516" lon="148.3731208"/>
      <trkpt lat="-9.1331458" lon="148.3729771"/>
      <trkpt lat="-9.1330312" lon="148.3728402"/>
      <trkpt lat="-9.1329433" lon="148.3727194"/>
      <trkpt lat="-9.1328529" lon="148.3726026"/>
      <trkpt lat="-9.1327641" lon="148.3724842"/>
      <trkpt lat="-9.1326669" lon="148.3723880"/>
      <trkpt lat="-9.1326045" lon="148.3723158"/>
    </trkseg>
  </trk>
</gpx>
