<?xml version="1.0" encoding="UTF-8"?>
<gpx version="1.1" creator="MCA Maps — Managalas clan boundary survey"
     xmlns="http://www.topografix.com/GPX/1/1"
     xmlns:xsi="http://www.w3.org/2001/XMLSchema-instance"
     xsi:schemaLocation="http://www.topografix.com/GPX/1/1 http://www.topografix.com/GPX/1/1/gpx.xsd">
  <metadata>
    <name>Manoko — clan land boundary</name>
    <desc>Manoko, Zone 2. 12.2 km walked; 3.8 km still to walk in 3 gaps</desc>
    <time>2026-08-16T00:00:00Z</time>
  </metadata>
  <wpt lat="-9.1517350" lon="148.2859333">
    <name>GAP 1 OF 3 START</name>
    <desc>1.50 km not walked. This straight line is not a boundary — it joins the two ends so the shape can be closed on paper. Manoko, Zone 2.</desc>
    <sym>Flag</sym>
  </wpt>
  <wpt lat="-9.1615583" lon="148.2953283">
    <name>GAP 1 OF 3 END</name>
    <desc>1.50 km not walked. This straight line is not a boundary — it joins the two ends so the shape can be closed on paper. Manoko, Zone 2.</desc>
    <sym>Flag</sym>
  </wpt>
  <wpt lat="-9.1615583" lon="148.2953283">
    <name>GAP 2 OF 3 START</name>
    <desc>0.94 km not walked. This straight line is not a boundary — it joins the two ends so the shape can be closed on paper. Manoko, Zone 2.</desc>
    <sym>Flag</sym>
  </wpt>
  <wpt lat="-9.1693750" lon="148.2919250">
    <name>GAP 2 OF 3 END</name>
    <desc>0.94 km not walked. This straight line is not a boundary — it joins the two ends so the shape can be closed on paper. Manoko, Zone 2.</desc>
    <sym>Flag</sym>
  </wpt>
  <wpt lat="-9.1846650" lon="148.3003767">
    <name>GAP 3 OF 3 START</name>
    <desc>1.41 km not walked. This straight line is not a boundary — it joins the two ends so the shape can be closed on paper. Manoko, Zone 2.</desc>
    <sym>Flag</sym>
  </wpt>
  <wpt lat="-9.1827650" lon="148.2877167">
    <name>GAP 3 OF 3 END</name>
    <desc>1.41 km not walked. This straight line is not a boundary — it joins the two ends so the shape can be closed on paper. Manoko, Zone 2.</desc>
    <sym>Flag</sym>
  </wpt>
  <trk>
    <name>GAP 1 OF 3 - NOT WALKED - 1.50 km</name>
    <desc>1.50 km not walked. This straight line is not a boundary — it joins the two ends so the shape can be closed on paper. Manoko, Zone 2.</desc>
    <type>not-walked</type>
    <trkseg>
      <trkpt lat="-9.1517350" lon="148.2859333"/>
      <trkpt lat="-9.1615583" lon="148.2953283"/>
    </trkseg>
  </trk>
  <trk>
    <name>GAP 2 OF 3 - NOT WALKED - 0.94 km</name>
    <desc>0.94 km not walked. This straight line is not a boundary — it joins the two ends so the shape can be closed on paper. Manoko, Zone 2.</desc>
    <type>not-walked</type>
    <trkseg>
      <trkpt lat="-9.1615583" lon="148.2953283"/>
      <trkpt lat="-9.1693750" lon="148.2919250"/>
    </trkseg>
  </trk>
  <trk>
    <name>GAP 3 OF 3 - NOT WALKED - 1.41 km</name>
    <desc>1.41 km not walked. This straight line is not a boundary — it joins the two ends so the shape can be closed on paper. Manoko, Zone 2.</desc>
    <type>not-walked</type>
    <trkseg>
      <trkpt lat="-9.1846650" lon="148.3003767"/>
      <trkpt lat="-9.1827650" lon="148.2877167"/>
    </trkseg>
  </trk>
  <trk>
    <name>Manoko - Gilford Amakana</name>
    <desc>Walked by Gilford Amakana. 12.2 km, 7 track(s), recorded on the ground. Manoko, Zone 2.</desc>
    <type>walked-boundary</type>
    <trkseg>
      <trkpt lat="-9.1827650" lon="148.2877167"/>
      <trkpt lat="-9.1827960" lon="148.2876705"/>
      <trkpt lat="-9.1828344" lon="148.2877198"/>
      <trkpt lat="-9.1829097" lon="148.2878630"/>
      <trkpt lat="-9.1829635" lon="148.2880098"/>
      <trkpt lat="-9.1829548" lon="148.2881337"/>
      <trkpt lat="-9.1828448" lon="148.2882154"/>
      <trkpt lat="-9.1826758" lon="148.2882290"/>
      <trkpt lat="-9.1825003" lon="148.2882038"/>
      <trkpt lat="-9.1824030" lon="148.2882267"/>
      <trkpt lat="-9.1823694" lon="148.2883114"/>
      <trkpt lat="-9.1823369" lon="148.2883970"/>
      <trkpt lat="-9.1822265" lon="148.2884241"/>
      <trkpt lat="-9.1820536" lon="148.2884108"/>
      <trkpt lat="-9.1819131" lon="148.2884573"/>
      <trkpt lat="-9.1818091" lon="148.2885594"/>
      <trkpt lat="-9.1817191" lon="148.2886872"/>
      <trkpt lat="-9.1816057" lon="148.2888053"/>
      <trkpt lat="-9.1814913" lon="148.2889273"/>
      <trkpt lat="-9.1813967" lon="148.2890673"/>
      <trkpt lat="-9.1813286" lon="148.2891845"/>
      <trkpt lat="-9.1812387" lon="148.2892719"/>
      <trkpt lat="-9.1811406" lon="148.2893552"/>
      <trkpt lat="-9.1810196" lon="148.2894686"/>
      <trkpt lat="-9.1808897" lon="148.2895726"/>
      <trkpt lat="-9.1807599" lon="148.2896018"/>
      <trkpt lat="-9.1806142" lon="148.2895990"/>
      <trkpt lat="-9.1804961" lon="148.2895376"/>
      <trkpt lat="-9.1803922" lon="148.2894438"/>
      <trkpt lat="-9.1803098" lon="148.2893034"/>
      <trkpt lat="-9.1801968" lon="148.2892166"/>
      <trkpt lat="-9.1800492" lon="148.2891637"/>
      <trkpt lat="-9.1799048" lon="148.2891028"/>
      <trkpt lat="-9.1797655" lon="148.2890540"/>
      <trkpt lat="-9.1796293" lon="148.2889979"/>
      <trkpt lat="-9.1794744" lon="148.2889702"/>
      <trkpt lat="-9.1793386" lon="148.2888784"/>
      <trkpt lat="-9.1792041" lon="148.2888195"/>
      <trkpt lat="-9.1790767" lon="148.2887372"/>
      <trkpt lat="-9.1789262" lon="148.2886819"/>
      <trkpt lat="-9.1787788" lon="148.2885837"/>
      <trkpt lat="-9.1786411" lon="148.2885361"/>
      <trkpt lat="-9.1785020" lon="148.2884948"/>
      <trkpt lat="-9.1783695" lon="148.2884531"/>
      <trkpt lat="-9.1782721" lon="148.2883402"/>
      <trkpt lat="-9.1781938" lon="148.2881996"/>
      <trkpt lat="-9.1780951" lon="148.2881049"/>
      <trkpt lat="-9.1779441" lon="148.2880703"/>
      <trkpt lat="-9.1777998" lon="148.2880439"/>
      <trkpt lat="-9.1777219" lon="148.2879649"/>
      <trkpt lat="-9.1776426" lon="148.2878959"/>
      <trkpt lat="-9.1775800" lon="148.2878304"/>
      <trkpt lat="-9.1774584" lon="148.2877807"/>
      <trkpt lat="-9.1773419" lon="148.2877512"/>
      <trkpt lat="-9.1771882" lon="148.2877743"/>
      <trkpt lat="-9.1770261" lon="148.2878285"/>
      <trkpt lat="-9.1768576" lon="148.2878302"/>
      <trkpt lat="-9.1766916" lon="148.2878120"/>
      <trkpt lat="-9.1765391" lon="148.2877960"/>
      <trkpt lat="-9.1764017" lon="148.2877672"/>
      <trkpt lat="-9.1762969" lon="148.2876815"/>
      <trkpt lat="-9.1762205" lon="148.2875374"/>
      <trkpt lat="-9.1761971" lon="148.2873714"/>
      <trkpt lat="-9.1762240" lon="148.2872088"/>
      <trkpt lat="-9.1762221" lon="148.2870770"/>
      <trkpt lat="-9.1761650" lon="148.2869727"/>
      <trkpt lat="-9.1760428" lon="148.2868716"/>
      <trkpt lat="-9.1759277" lon="148.2867555"/>
      <trkpt lat="-9.1757966" lon="148.2866655"/>
      <trkpt lat="-9.1756491" lon="148.2865992"/>
      <trkpt lat="-9.1754866" lon="148.2865989"/>
      <trkpt lat="-9.1753269" lon="148.2866028"/>
      <trkpt lat="-9.1751601" lon="148.2866340"/>
      <trkpt lat="-9.1749893" lon="148.2866337"/>
      <trkpt lat="-9.1748448" lon="148.2865859"/>
      <trkpt lat="-9.1747370" lon="148.2864784"/>
      <trkpt lat="-9.1746806" lon="148.2863171"/>
      <trkpt lat="-9.1746433" lon="148.2861432"/>
      <trkpt lat="-9.1746042" lon="148.2859673"/>
      <trkpt lat="-9.1745302" lon="148.2858103"/>
      <trkpt lat="-9.1744127" lon="148.2857038"/>
      <trkpt lat="-9.1742659" lon="148.2856249"/>
      <trkpt lat="-9.1741317" lon="148.2855363"/>
      <trkpt lat="-9.1740148" lon="148.2854150"/>
      <trkpt lat="-9.1738900" lon="148.2853080"/>
      <trkpt lat="-9.1737357" lon="148.2852388"/>
      <trkpt lat="-9.1735711" lon="148.2851755"/>
      <trkpt lat="-9.1734150" lon="148.2850931"/>
      <trkpt lat="-9.1732646" lon="148.2850156"/>
      <trkpt lat="-9.1731267" lon="148.2849481"/>
      <trkpt lat="-9.1730037" lon="148.2848663"/>
      <trkpt lat="-9.1728993" lon="148.2847438"/>
      <trkpt lat="-9.1727851" lon="148.2846065"/>
      <trkpt lat="-9.1726542" lon="148.2845130"/>
      <trkpt lat="-9.1725146" lon="148.2845018"/>
      <trkpt lat="-9.1723796" lon="148.2845567"/>
      <trkpt lat="-9.1722447" lon="148.2846007"/>
      <trkpt lat="-9.1721026" lon="148.2845801"/>
      <trkpt lat="-9.1719416" lon="148.2845318"/>
      <trkpt lat="-9.1717790" lon="148.2844923"/>
      <trkpt lat="-9.1716251" lon="148.2845192"/>
      <trkpt lat="-9.1714786" lon="148.2845255"/>
      <trkpt lat="-9.1713308" lon="148.2845642"/>
      <trkpt lat="-9.1711738" lon="148.2845365"/>
      <trkpt lat="-9.1710418" lon="148.2844786"/>
      <trkpt lat="-9.1709179" lon="148.2843703"/>
      <trkpt lat="-9.1707908" lon="148.2842850"/>
      <trkpt lat="-9.1706463" lon="148.2842145"/>
      <trkpt lat="-9.1705172" lon="148.2841162"/>
      <trkpt lat="-9.1703879" lon="148.2840228"/>
      <trkpt lat="-9.1702497" lon="148.2839878"/>
      <trkpt lat="-9.1700894" lon="148.2840230"/>
      <trkpt lat="-9.1699933" lon="148.2840371"/>
      <trkpt lat="-9.1699600" lon="148.2840067"/>
    </trkseg>
    <trkseg>
      <trkpt lat="-9.1699283" lon="148.2841450"/>
      <trkpt lat="-9.1698690" lon="148.2839831"/>
      <trkpt lat="-9.1698387" lon="148.2838132"/>
      <trkpt lat="-9.1698110" lon="148.2836425"/>
      <trkpt lat="-9.1697711" lon="148.2834713"/>
      <trkpt lat="-9.1697306" lon="148.2833005"/>
      <trkpt lat="-9.1697218" lon="148.2831237"/>
      <trkpt lat="-9.1697229" lon="148.2829458"/>
      <trkpt lat="-9.1697285" lon="148.2827681"/>
      <trkpt lat="-9.1697039" lon="148.2825968"/>
      <trkpt lat="-9.1696276" lon="148.2824532"/>
      <trkpt lat="-9.1695102" lon="148.2823242"/>
      <trkpt lat="-9.1693771" lon="148.2822051"/>
      <trkpt lat="-9.1692546" lon="148.2820742"/>
      <trkpt lat="-9.1691605" lon="148.2819285"/>
      <trkpt lat="-9.1690759" lon="148.2817761"/>
      <trkpt lat="-9.1689987" lon="148.2816195"/>
      <trkpt lat="-9.1689420" lon="148.2814627"/>
      <trkpt lat="-9.1689086" lon="148.2812955"/>
      <trkpt lat="-9.1688903" lon="148.2811187"/>
      <trkpt lat="-9.1688592" lon="148.2809430"/>
      <trkpt lat="-9.1688220" lon="148.2807831"/>
      <trkpt lat="-9.1687639" lon="148.2806364"/>
      <trkpt lat="-9.1686528" lon="148.2805325"/>
      <trkpt lat="-9.1685104" lon="148.2804364"/>
      <trkpt lat="-9.1683687" lon="148.2803387"/>
      <trkpt lat="-9.1682561" lon="148.2802042"/>
      <trkpt lat="-9.1681455" lon="148.2800730"/>
      <trkpt lat="-9.1680179" lon="148.2799750"/>
      <trkpt lat="-9.1678793" lon="148.2798960"/>
      <trkpt lat="-9.1677667" lon="148.2797979"/>
      <trkpt lat="-9.1676501" lon="148.2797038"/>
      <trkpt lat="-9.1675292" lon="148.2796098"/>
      <trkpt lat="-9.1673730" lon="148.2795548"/>
      <trkpt lat="-9.1672315" lon="148.2794822"/>
      <trkpt lat="-9.1670826" lon="148.2794121"/>
      <trkpt lat="-9.1669627" lon="148.2793010"/>
      <trkpt lat="-9.1668972" lon="148.2791673"/>
      <trkpt lat="-9.1668558" lon="148.2790102"/>
      <trkpt lat="-9.1668222" lon="148.2788509"/>
      <trkpt lat="-9.1667639" lon="148.2786901"/>
      <trkpt lat="-9.1666728" lon="148.2785723"/>
      <trkpt lat="-9.1665642" lon="148.2785456"/>
      <trkpt lat="-9.1664341" lon="148.2786190"/>
      <trkpt lat="-9.1663113" lon="148.2787204"/>
      <trkpt lat="-9.1661766" lon="148.2788222"/>
      <trkpt lat="-9.1660442" lon="148.2788956"/>
      <trkpt lat="-9.1659188" lon="148.2789767"/>
      <trkpt lat="-9.1658218" lon="148.2789693"/>
      <trkpt lat="-9.1657356" lon="148.2788871"/>
      <trkpt lat="-9.1656598" lon="148.2787313"/>
      <trkpt lat="-9.1655650" lon="148.2785821"/>
      <trkpt lat="-9.1654507" lon="148.2784442"/>
      <trkpt lat="-9.1653369" lon="148.2783053"/>
      <trkpt lat="-9.1652324" lon="148.2781626"/>
      <trkpt lat="-9.1651214" lon="148.2780267"/>
      <trkpt lat="-9.1649928" lon="148.2779105"/>
      <trkpt lat="-9.1648414" lon="148.2778144"/>
      <trkpt lat="-9.1646782" lon="148.2777572"/>
      <trkpt lat="-9.1645156" lon="148.2777603"/>
      <trkpt lat="-9.1643512" lon="148.2777794"/>
      <trkpt lat="-9.1642080" lon="148.2777624"/>
      <trkpt lat="-9.1640767" lon="148.2776817"/>
    </trkseg>
    <trkseg>
      <trkpt lat="-9.1640750" lon="148.2777250"/>
      <trkpt lat="-9.1639271" lon="148.2776427"/>
      <trkpt lat="-9.1638253" lon="148.2775258"/>
      <trkpt lat="-9.1637496" lon="148.2773817"/>
      <trkpt lat="-9.1636780" lon="148.2772544"/>
      <trkpt lat="-9.1635568" lon="148.2771670"/>
      <trkpt lat="-9.1634037" lon="148.2771175"/>
      <trkpt lat="-9.1632294" lon="148.2771055"/>
      <trkpt lat="-9.1630519" lon="148.2771121"/>
      <trkpt lat="-9.1628760" lon="148.2771187"/>
      <trkpt lat="-9.1627060" lon="148.2770904"/>
      <trkpt lat="-9.1625479" lon="148.2770300"/>
      <trkpt lat="-9.1624119" lon="148.2769299"/>
      <trkpt lat="-9.1622740" lon="148.2768399"/>
      <trkpt lat="-9.1621280" lon="148.2767584"/>
      <trkpt lat="-9.1619588" lon="148.2767355"/>
      <trkpt lat="-9.1617871" lon="148.2767228"/>
      <trkpt lat="-9.1616173" lon="148.2767033"/>
      <trkpt lat="-9.1614635" lon="148.2766389"/>
      <trkpt lat="-9.1613065" lon="148.2765846"/>
      <trkpt lat="-9.1611444" lon="148.2765489"/>
      <trkpt lat="-9.1609684" lon="148.2765284"/>
      <trkpt lat="-9.1608171" lon="148.2764677"/>
      <trkpt lat="-9.1607158" lon="148.2763555"/>
      <trkpt lat="-9.1606428" lon="148.2762103"/>
      <trkpt lat="-9.1605566" lon="148.2760636"/>
      <trkpt lat="-9.1604367" lon="148.2759336"/>
      <trkpt lat="-9.1603095" lon="148.2758075"/>
      <trkpt lat="-9.1601803" lon="148.2756890"/>
      <trkpt lat="-9.1600378" lon="148.2756030"/>
      <trkpt lat="-9.1598792" lon="148.2755347"/>
      <trkpt lat="-9.1597180" lon="148.2754655"/>
      <trkpt lat="-9.1595543" lon="148.2754115"/>
      <trkpt lat="-9.1593839" lon="148.2754011"/>
      <trkpt lat="-9.1592079" lon="148.2754345"/>
      <trkpt lat="-9.1590332" lon="148.2754807"/>
      <trkpt lat="-9.1588624" lon="148.2755386"/>
      <trkpt lat="-9.1586919" lon="148.2755962"/>
      <trkpt lat="-9.1585192" lon="148.2756443"/>
      <trkpt lat="-9.1583591" lon="148.2756969"/>
      <trkpt lat="-9.1582479" lon="148.2757947"/>
      <trkpt lat="-9.1582056" lon="148.2759416"/>
      <trkpt lat="-9.1582273" lon="148.2761124"/>
      <trkpt lat="-9.1582800" lon="148.2762767"/>
    </trkseg>
    <trkseg>
      <trkpt lat="-9.1582750" lon="148.2763733"/>
      <trkpt lat="-9.1582114" lon="148.2765374"/>
      <trkpt lat="-9.1581492" lon="148.2767050"/>
      <trkpt lat="-9.1580773" lon="148.2768708"/>
      <trkpt lat="-9.1580136" lon="148.2770384"/>
      <trkpt lat="-9.1579328" lon="148.2771738"/>
      <trkpt lat="-9.1578456" lon="148.2772372"/>
      <trkpt lat="-9.1577205" lon="148.2772600"/>
      <trkpt lat="-9.1576072" lon="148.2773103"/>
      <trkpt lat="-9.1575200" lon="148.2773914"/>
      <trkpt lat="-9.1574656" lon="148.2774410"/>
      <trkpt lat="-9.1574071" lon="148.2774840"/>
      <trkpt lat="-9.1573166" lon="148.2775447"/>
      <trkpt lat="-9.1572094" lon="148.2775897"/>
      <trkpt lat="-9.1571249" lon="148.2775278"/>
      <trkpt lat="-9.1570503" lon="148.2773932"/>
      <trkpt lat="-9.1570050" lon="148.2772355"/>
      <trkpt lat="-9.1569276" lon="148.2771134"/>
      <trkpt lat="-9.1568450" lon="148.2770100"/>
    </trkseg>
    <trkseg>
      <trkpt lat="-9.1567500" lon="148.2770083"/>
      <trkpt lat="-9.1566462" lon="148.2771105"/>
      <trkpt lat="-9.1565454" lon="148.2772272"/>
      <trkpt lat="-9.1564341" lon="148.2773334"/>
      <trkpt lat="-9.1562752" lon="148.2773641"/>
      <trkpt lat="-9.1561006" lon="148.2773657"/>
      <trkpt lat="-9.1559435" lon="148.2773788"/>
      <trkpt lat="-9.1557883" lon="148.2773884"/>
      <trkpt lat="-9.1556330" lon="148.2773847"/>
      <trkpt lat="-9.1555023" lon="148.2773280"/>
      <trkpt lat="-9.1554117" lon="148.2772617"/>
    </trkseg>
    <trkseg>
      <trkpt lat="-9.1553433" lon="148.2771983"/>
      <trkpt lat="-9.1552609" lon="148.2773542"/>
      <trkpt lat="-9.1551820" lon="148.2775143"/>
      <trkpt lat="-9.1551002" lon="148.2776729"/>
      <trkpt lat="-9.1550352" lon="148.2778338"/>
      <trkpt lat="-9.1549895" lon="148.2779988"/>
      <trkpt lat="-9.1549451" lon="148.2781654"/>
      <trkpt lat="-9.1548892" lon="148.2783318"/>
      <trkpt lat="-9.1547935" lon="148.2784577"/>
      <trkpt lat="-9.1546903" lon="148.2785754"/>
      <trkpt lat="-9.1545810" lon="148.2786889"/>
      <trkpt lat="-9.1544922" lon="148.2788374"/>
      <trkpt lat="-9.1544107" lon="148.2789950"/>
      <trkpt lat="-9.1543200" lon="148.2791508"/>
      <trkpt lat="-9.1542490" lon="148.2793119"/>
      <trkpt lat="-9.1541943" lon="148.2794773"/>
      <trkpt lat="-9.1541387" lon="148.2796419"/>
      <trkpt lat="-9.1540875" lon="148.2798043"/>
      <trkpt lat="-9.1540380" lon="148.2799691"/>
      <trkpt lat="-9.1540130" lon="148.2801393"/>
      <trkpt lat="-9.1539590" lon="148.2802827"/>
      <trkpt lat="-9.1538781" lon="148.2804086"/>
      <trkpt lat="-9.1537838" lon="148.2805281"/>
      <trkpt lat="-9.1537209" lon="148.2806769"/>
      <trkpt lat="-9.1536700" lon="148.2808384"/>
      <trkpt lat="-9.1536554" lon="148.2809968"/>
      <trkpt lat="-9.1536270" lon="148.2811537"/>
      <trkpt lat="-9.1536162" lon="148.2813167"/>
      <trkpt lat="-9.1535691" lon="148.2814889"/>
      <trkpt lat="-9.1535028" lon="148.2816546"/>
      <trkpt lat="-9.1533986" lon="148.2817949"/>
      <trkpt lat="-9.1532994" lon="148.2819312"/>
      <trkpt lat="-9.1532041" lon="148.2820518"/>
      <trkpt lat="-9.1531405" lon="148.2821683"/>
      <trkpt lat="-9.1530455" lon="148.2822495"/>
      <trkpt lat="-9.1530045" lon="148.2823495"/>
      <trkpt lat="-9.1529815" lon="148.2824803"/>
      <trkpt lat="-9.1529753" lon="148.2826395"/>
      <trkpt lat="-9.1529469" lon="148.2827956"/>
      <trkpt lat="-9.1529132" lon="148.2829499"/>
      <trkpt lat="-9.1528635" lon="148.2830928"/>
      <trkpt lat="-9.1527765" lon="148.2832335"/>
      <trkpt lat="-9.1526549" lon="148.2833613"/>
      <trkpt lat="-9.1525672" lon="148.2834778"/>
      <trkpt lat="-9.1525033" lon="148.2835700"/>
    </trkseg>
    <trkseg>
      <trkpt lat="-9.1524833" lon="148.2836083"/>
      <trkpt lat="-9.1524318" lon="148.2837779"/>
      <trkpt lat="-9.1524057" lon="148.2839533"/>
      <trkpt lat="-9.1523978" lon="148.2841342"/>
      <trkpt lat="-9.1523738" lon="148.2843122"/>
      <trkpt lat="-9.1523438" lon="148.2844852"/>
      <trkpt lat="-9.1522866" lon="148.2846466"/>
      <trkpt lat="-9.1522187" lon="148.2848052"/>
      <trkpt lat="-9.1521197" lon="148.2849551"/>
      <trkpt lat="-9.1520238" lon="148.2851061"/>
      <trkpt lat="-9.1519403" lon="148.2852414"/>
      <trkpt lat="-9.1518800" lon="148.2853683"/>
    </trkseg>
    <trkseg>
      <trkpt lat="-9.1519533" lon="148.2854583"/>
      <trkpt lat="-9.1518858" lon="148.2855599"/>
      <trkpt lat="-9.1518391" lon="148.2856986"/>
      <trkpt lat="-9.1518101" lon="148.2858699"/>
      <trkpt lat="-9.1517403" lon="148.2859666"/>
      <trkpt lat="-9.1517143" lon="148.2859863"/>
      <trkpt lat="-9.1517350" lon="148.2859333"/>
    </trkseg>
    <trkseg>
      <trkpt lat="-9.1517600" lon="148.2860317"/>
      <trkpt lat="-9.1517444" lon="148.2861893"/>
      <trkpt lat="-9.1518049" lon="148.2862942"/>
      <trkpt lat="-9.1519165" lon="148.2863796"/>
      <trkpt lat="-9.1520641" lon="148.2864360"/>
      <trkpt lat="-9.1522001" lon="148.2865052"/>
      <trkpt lat="-9.1523280" lon="148.2865888"/>
      <trkpt lat="-9.1524528" lon="148.2866905"/>
      <trkpt lat="-9.1525333" lon="148.2868329"/>
      <trkpt lat="-9.1525961" lon="148.2869739"/>
      <trkpt lat="-9.1526417" lon="148.2871326"/>
      <trkpt lat="-9.1527299" lon="148.2872718"/>
      <trkpt lat="-9.1528668" lon="148.2873783"/>
      <trkpt lat="-9.1530262" lon="148.2874567"/>
      <trkpt lat="-9.1531859" lon="148.2875212"/>
      <trkpt lat="-9.1533305" lon="148.2875258"/>
      <trkpt lat="-9.1534475" lon="148.2874576"/>
      <trkpt lat="-9.1535397" lon="148.2873103"/>
      <trkpt lat="-9.1536381" lon="148.2871749"/>
      <trkpt lat="-9.1537528" lon="148.2870549"/>
      <trkpt lat="-9.1539019" lon="148.2869906"/>
      <trkpt lat="-9.1540544" lon="148.2869731"/>
      <trkpt lat="-9.1541679" lon="148.2870357"/>
      <trkpt lat="-9.1542535" lon="148.2871304"/>
      <trkpt lat="-9.1543150" lon="148.2872417"/>
    </trkseg>
    <trkseg>
      <trkpt lat="-9.1543733" lon="148.2871317"/>
      <trkpt lat="-9.1544026" lon="148.2873090"/>
      <trkpt lat="-9.1544850" lon="148.2874033"/>
    </trkseg>
    <trkseg>
      <trkpt lat="-9.1545633" lon="148.2874550"/>
      <trkpt lat="-9.1547006" lon="148.2875654"/>
      <trkpt lat="-9.1548087" lon="148.2875941"/>
      <trkpt lat="-9.1549162" lon="148.2875588"/>
      <trkpt lat="-9.1550306" lon="148.2874855"/>
      <trkpt lat="-9.1551883" lon="148.2874362"/>
      <trkpt lat="-9.1553540" lon="148.2873956"/>
      <trkpt lat="-9.1554975" lon="148.2874136"/>
      <trkpt lat="-9.1556227" lon="148.2874891"/>
      <trkpt lat="-9.1557359" lon="148.2876231"/>
      <trkpt lat="-9.1558655" lon="148.2877380"/>
      <trkpt lat="-9.1560106" lon="148.2878341"/>
      <trkpt lat="-9.1561761" lon="148.2878980"/>
      <trkpt lat="-9.1563439" lon="148.2879569"/>
      <trkpt lat="-9.1565164" lon="148.2880037"/>
      <trkpt lat="-9.1566870" lon="148.2880571"/>
      <trkpt lat="-9.1568547" lon="148.2881089"/>
      <trkpt lat="-9.1570218" lon="148.2881532"/>
      <trkpt lat="-9.1571809" lon="148.2882095"/>
      <trkpt lat="-9.1573178" lon="148.2882959"/>
      <trkpt lat="-9.1574445" lon="148.2884147"/>
      <trkpt lat="-9.1575804" lon="148.2885154"/>
      <trkpt lat="-9.1577359" lon="148.2885363"/>
      <trkpt lat="-9.1578738" lon="148.2885015"/>
      <trkpt lat="-9.1580006" lon="148.2884645"/>
      <trkpt lat="-9.1580727" lon="148.2884818"/>
      <trkpt lat="-9.1581429" lon="148.2885419"/>
      <trkpt lat="-9.1581881" lon="148.2886465"/>
      <trkpt lat="-9.1582231" lon="148.2886973"/>
      <trkpt lat="-9.1582009" lon="148.2887591"/>
      <trkpt lat="-9.1581904" lon="148.2888144"/>
      <trkpt lat="-9.1582332" lon="148.2889453"/>
      <trkpt lat="-9.1583428" lon="148.2890810"/>
      <trkpt lat="-9.1584570" lon="148.2892134"/>
      <trkpt lat="-9.1585698" lon="148.2893474"/>
      <trkpt lat="-9.1586870" lon="148.2894847"/>
      <trkpt lat="-9.1588041" lon="148.2896211"/>
      <trkpt lat="-9.1589162" lon="148.2897614"/>
      <trkpt lat="-9.1590186" lon="148.2899099"/>
      <trkpt lat="-9.1591140" lon="148.2900644"/>
      <trkpt lat="-9.1592096" lon="148.2902182"/>
      <trkpt lat="-9.1593010" lon="148.2903744"/>
      <trkpt lat="-9.1593884" lon="148.2905330"/>
      <trkpt lat="-9.1594818" lon="148.2906875"/>
      <trkpt lat="-9.1595929" lon="148.2908272"/>
      <trkpt lat="-9.1597181" lon="148.2909568"/>
      <trkpt lat="-9.1598555" lon="148.2910716"/>
      <trkpt lat="-9.1599874" lon="148.2911919"/>
      <trkpt lat="-9.1601332" lon="148.2912920"/>
      <trkpt lat="-9.1602851" lon="148.2913809"/>
      <trkpt lat="-9.1604520" lon="148.2914482"/>
      <trkpt lat="-9.1606133" lon="148.2915252"/>
      <trkpt lat="-9.1607659" lon="148.2916173"/>
      <trkpt lat="-9.1609080" lon="148.2917263"/>
      <trkpt lat="-9.1610286" lon="148.2918531"/>
      <trkpt lat="-9.1611243" lon="148.2920001"/>
      <trkpt lat="-9.1611931" lon="148.2921653"/>
      <trkpt lat="-9.1612414" lon="148.2923386"/>
      <trkpt lat="-9.1612915" lon="148.2925111"/>
      <trkpt lat="-9.1613620" lon="148.2926722"/>
      <trkpt lat="-9.1614523" lon="148.2928261"/>
      <trkpt lat="-9.1615054" lon="148.2929829"/>
      <trkpt lat="-9.1615068" lon="148.2931526"/>
      <trkpt lat="-9.1614625" lon="148.2933274"/>
      <trkpt lat="-9.1614428" lon="148.2934989"/>
      <trkpt lat="-9.1614644" lon="148.2936646"/>
      <trkpt lat="-9.1615392" lon="148.2938224"/>
      <trkpt lat="-9.1616550" lon="148.2939529"/>
      <trkpt lat="-9.1617775" lon="148.2940777"/>
      <trkpt lat="-9.1619117" lon="148.2941865"/>
      <trkpt lat="-9.1620512" lon="148.2942799"/>
      <trkpt lat="-9.1622101" lon="148.2943501"/>
      <trkpt lat="-9.1623763" lon="148.2944147"/>
      <trkpt lat="-9.1625269" lon="148.2944995"/>
      <trkpt lat="-9.1626794" lon="148.2945801"/>
      <trkpt lat="-9.1627901" lon="148.2946378"/>
      <trkpt lat="-9.1628700" lon="148.2946683"/>
    </trkseg>
    <trkseg>
      <trkpt lat="-9.1629050" lon="148.2947600"/>
      <trkpt lat="-9.1630586" lon="148.2948114"/>
      <trkpt lat="-9.1632148" lon="148.2948160"/>
      <trkpt lat="-9.1633792" lon="148.2947917"/>
      <trkpt lat="-9.1635127" lon="148.2947632"/>
      <trkpt lat="-9.1636200" lon="148.2947450"/>
    </trkseg>
    <trkseg>
      <trkpt lat="-9.1637050" lon="148.2947067"/>
      <trkpt lat="-9.1638824" lon="148.2947200"/>
      <trkpt lat="-9.1640543" lon="148.2947556"/>
      <trkpt lat="-9.1642209" lon="148.2948111"/>
      <trkpt lat="-9.1643890" lon="148.2948590"/>
      <trkpt lat="-9.1645579" lon="148.2948562"/>
      <trkpt lat="-9.1647318" lon="148.2948205"/>
      <trkpt lat="-9.1649060" lon="148.2947913"/>
      <trkpt lat="-9.1650719" lon="148.2948207"/>
      <trkpt lat="-9.1652043" lon="148.2949143"/>
      <trkpt lat="-9.1653214" lon="148.2950305"/>
      <trkpt lat="-9.1654512" lon="148.2951062"/>
      <trkpt lat="-9.1656150" lon="148.2951351"/>
      <trkpt lat="-9.1657900" lon="148.2951254"/>
      <trkpt lat="-9.1659502" lon="148.2950828"/>
      <trkpt lat="-9.1661077" lon="148.2950153"/>
      <trkpt lat="-9.1662677" lon="148.2949453"/>
      <trkpt lat="-9.1664318" lon="148.2948941"/>
      <trkpt lat="-9.1665938" lon="148.2948822"/>
      <trkpt lat="-9.1667574" lon="148.2948859"/>
      <trkpt lat="-9.1669179" lon="148.2948719"/>
      <trkpt lat="-9.1670115" lon="148.2948072"/>
      <trkpt lat="-9.1670626" lon="148.2947045"/>
      <trkpt lat="-9.1671181" lon="148.2946190"/>
      <trkpt lat="-9.1672226" lon="148.2945700"/>
      <trkpt lat="-9.1673337" lon="148.2945581"/>
      <trkpt lat="-9.1674386" lon="148.2945310"/>
      <trkpt lat="-9.1675389" lon="148.2944464"/>
      <trkpt lat="-9.1676641" lon="148.2943345"/>
      <trkpt lat="-9.1678011" lon="148.2942465"/>
      <trkpt lat="-9.1679653" lon="148.2941989"/>
      <trkpt lat="-9.1681051" lon="148.2941352"/>
      <trkpt lat="-9.1682141" lon="148.2940294"/>
      <trkpt lat="-9.1682651" lon="148.2938720"/>
      <trkpt lat="-9.1682988" lon="148.2936971"/>
      <trkpt lat="-9.1683121" lon="148.2935166"/>
      <trkpt lat="-9.1683200" lon="148.2933362"/>
      <trkpt lat="-9.1683002" lon="148.2931608"/>
      <trkpt lat="-9.1682296" lon="148.2930074"/>
      <trkpt lat="-9.1681718" lon="148.2928567"/>
      <trkpt lat="-9.1681511" lon="148.2927025"/>
      <trkpt lat="-9.1681776" lon="148.2925273"/>
      <trkpt lat="-9.1681745" lon="148.2923528"/>
      <trkpt lat="-9.1681449" lon="148.2921790"/>
      <trkpt lat="-9.1681423" lon="148.2920114"/>
      <trkpt lat="-9.1682056" lon="148.2918621"/>
      <trkpt lat="-9.1683376" lon="148.2917605"/>
      <trkpt lat="-9.1685003" lon="148.2917177"/>
      <trkpt lat="-9.1686715" lon="148.2917395"/>
      <trkpt lat="-9.1688355" lon="148.2918019"/>
      <trkpt lat="-9.1689999" lon="148.2918678"/>
      <trkpt lat="-9.1691661" lon="148.2919016"/>
      <trkpt lat="-9.1692969" lon="148.2918476"/>
      <trkpt lat="-9.1693405" lon="148.2917332"/>
      <trkpt lat="-9.1692765" lon="148.2915953"/>
      <trkpt lat="-9.1691401" lon="148.2915136"/>
      <trkpt lat="-9.1689736" lon="148.2914873"/>
      <trkpt lat="-9.1688366" lon="148.2914879"/>
      <trkpt lat="-9.1687333" lon="148.2914867"/>
    </trkseg>
    <trkseg>
      <trkpt lat="-9.1686783" lon="148.2915750"/>
      <trkpt lat="-9.1686800" lon="148.2916667"/>
    </trkseg>
    <trkseg>
      <trkpt lat="-9.1693750" lon="148.2919250"/>
      <trkpt lat="-9.1695459" lon="148.2919801"/>
      <trkpt lat="-9.1697199" lon="148.2920117"/>
      <trkpt lat="-9.1698967" lon="148.2920173"/>
      <trkpt lat="-9.1700698" lon="148.2920114"/>
      <trkpt lat="-9.1702250" lon="148.2919668"/>
      <trkpt lat="-9.1703379" lon="148.2918709"/>
      <trkpt lat="-9.1704488" lon="148.2917399"/>
      <trkpt lat="-9.1705380" lon="148.2916044"/>
      <trkpt lat="-9.1706272" lon="148.2914738"/>
      <trkpt lat="-9.1706653" lon="148.2913142"/>
      <trkpt lat="-9.1706866" lon="148.2911445"/>
      <trkpt lat="-9.1707193" lon="148.2909754"/>
      <trkpt lat="-9.1707936" lon="148.2908262"/>
      <trkpt lat="-9.1709158" lon="148.2907204"/>
      <trkpt lat="-9.1710617" lon="148.2906493"/>
      <trkpt lat="-9.1712236" lon="148.2906153"/>
      <trkpt lat="-9.1713754" lon="148.2906351"/>
      <trkpt lat="-9.1715311" lon="148.2906893"/>
      <trkpt lat="-9.1716724" lon="148.2907825"/>
      <trkpt lat="-9.1718213" lon="148.2908707"/>
      <trkpt lat="-9.1719452" lon="148.2909862"/>
      <trkpt lat="-9.1720789" lon="148.2910593"/>
      <trkpt lat="-9.1721807" lon="148.2910624"/>
      <trkpt lat="-9.1722898" lon="148.2909895"/>
      <trkpt lat="-9.1723664" lon="148.2908698"/>
      <trkpt lat="-9.1724141" lon="148.2907289"/>
      <trkpt lat="-9.1724607" lon="148.2905732"/>
      <trkpt lat="-9.1725269" lon="148.2904269"/>
      <trkpt lat="-9.1726474" lon="148.2903144"/>
      <trkpt lat="-9.1727832" lon="148.2902677"/>
      <trkpt lat="-9.1729299" lon="148.2902908"/>
      <trkpt lat="-9.1730784" lon="148.2903779"/>
      <trkpt lat="-9.1731933" lon="148.2904921"/>
      <trkpt lat="-9.1732713" lon="148.2906325"/>
      <trkpt lat="-9.1733109" lon="148.2907913"/>
      <trkpt lat="-9.1733661" lon="148.2909448"/>
      <trkpt lat="-9.1734621" lon="148.2910296"/>
      <trkpt lat="-9.1735881" lon="148.2910068"/>
      <trkpt lat="-9.1737024" lon="148.2908873"/>
      <trkpt lat="-9.1738148" lon="148.2907634"/>
      <trkpt lat="-9.1739437" lon="148.2907098"/>
      <trkpt lat="-9.1741021" lon="148.2907388"/>
      <trkpt lat="-9.1742498" lon="148.2907522"/>
      <trkpt lat="-9.1743998" lon="148.2907403"/>
      <trkpt lat="-9.1745554" lon="148.2906945"/>
      <trkpt lat="-9.1747265" lon="148.2906927"/>
      <trkpt lat="-9.1748979" lon="148.2906691"/>
      <trkpt lat="-9.1750657" lon="148.2906299"/>
      <trkpt lat="-9.1752049" lon="148.2905338"/>
      <trkpt lat="-9.1753390" lon="148.2904900"/>
      <trkpt lat="-9.1754542" lon="148.2905120"/>
      <trkpt lat="-9.1755396" lon="148.2906389"/>
      <trkpt lat="-9.1755905" lon="148.2907955"/>
      <trkpt lat="-9.1756381" lon="148.2909533"/>
      <trkpt lat="-9.1757440" lon="148.2910544"/>
      <trkpt lat="-9.1758629" lon="148.2910479"/>
      <trkpt lat="-9.1759956" lon="148.2909632"/>
      <trkpt lat="-9.1761291" lon="148.2908690"/>
      <trkpt lat="-9.1762940" lon="148.2908315"/>
      <trkpt lat="-9.1764682" lon="148.2908406"/>
      <trkpt lat="-9.1766337" lon="148.2908937"/>
      <trkpt lat="-9.1767820" lon="148.2909795"/>
      <trkpt lat="-9.1768544" lon="148.2910813"/>
      <trkpt lat="-9.1768628" lon="148.2911929"/>
      <trkpt lat="-9.1768079" lon="148.2913197"/>
      <trkpt lat="-9.1767893" lon="148.2914762"/>
      <trkpt lat="-9.1767889" lon="148.2916055"/>
      <trkpt lat="-9.1768133" lon="148.2916967"/>
    </trkseg>
    <trkseg>
      <trkpt lat="-9.1767033" lon="148.2917350"/>
      <trkpt lat="-9.1765573" lon="148.2918179"/>
      <trkpt lat="-9.1764405" lon="148.2919219"/>
      <trkpt lat="-9.1763460" lon="148.2920425"/>
      <trkpt lat="-9.1762730" lon="148.2921654"/>
      <trkpt lat="-9.1761678" lon="148.2922700"/>
      <trkpt lat="-9.1760453" lon="148.2923731"/>
      <trkpt lat="-9.1758937" lon="148.2924558"/>
      <trkpt lat="-9.1757817" lon="148.2925685"/>
      <trkpt lat="-9.1757299" lon="148.2927006"/>
      <trkpt lat="-9.1757588" lon="148.2928648"/>
      <trkpt lat="-9.1758305" lon="148.2930260"/>
      <trkpt lat="-9.1759149" lon="148.2931780"/>
      <trkpt lat="-9.1760238" lon="148.2932986"/>
      <trkpt lat="-9.1761634" lon="148.2933770"/>
      <trkpt lat="-9.1763366" lon="148.2934066"/>
      <trkpt lat="-9.1765126" lon="148.2934288"/>
      <trkpt lat="-9.1766887" lon="148.2934303"/>
      <trkpt lat="-9.1768628" lon="148.2934474"/>
      <trkpt lat="-9.1770237" lon="148.2934910"/>
      <trkpt lat="-9.1771662" lon="148.2935882"/>
      <trkpt lat="-9.1772568" lon="148.2937132"/>
      <trkpt lat="-9.1773002" lon="148.2938015"/>
      <trkpt lat="-9.1773000" lon="148.2938500"/>
    </trkseg>
    <trkseg>
      <trkpt lat="-9.1773333" lon="148.2939350"/>
      <trkpt lat="-9.1772134" lon="148.2940554"/>
      <trkpt lat="-9.1770890" lon="148.2941740"/>
      <trkpt lat="-9.1770250" lon="148.2942971"/>
      <trkpt lat="-9.1770521" lon="148.2944257"/>
      <trkpt lat="-9.1771583" lon="148.2945500"/>
    </trkseg>
    <trkseg>
      <trkpt lat="-9.1771200" lon="148.2945233"/>
      <trkpt lat="-9.1772466" lon="148.2946493"/>
      <trkpt lat="-9.1773840" lon="148.2947498"/>
      <trkpt lat="-9.1775349" lon="148.2948114"/>
      <trkpt lat="-9.1777084" lon="148.2948345"/>
      <trkpt lat="-9.1778852" lon="148.2948521"/>
      <trkpt lat="-9.1780628" lon="148.2948714"/>
      <trkpt lat="-9.1782391" lon="148.2948918"/>
      <trkpt lat="-9.1783835" lon="148.2949551"/>
      <trkpt lat="-9.1785064" lon="148.2950608"/>
      <trkpt lat="-9.1786011" lon="148.2951215"/>
      <trkpt lat="-9.1786843" lon="148.2950722"/>
      <trkpt lat="-9.1787208" lon="148.2949222"/>
      <trkpt lat="-9.1787236" lon="148.2947482"/>
      <trkpt lat="-9.1787379" lon="148.2945855"/>
      <trkpt lat="-9.1787978" lon="148.2944369"/>
      <trkpt lat="-9.1789142" lon="148.2943765"/>
      <trkpt lat="-9.1790342" lon="148.2944145"/>
      <trkpt lat="-9.1791442" lon="148.2945479"/>
      <trkpt lat="-9.1792508" lon="148.2946576"/>
      <trkpt lat="-9.1793139" lon="148.2946690"/>
      <trkpt lat="-9.1793376" lon="148.2945775"/>
      <trkpt lat="-9.1793368" lon="148.2944260"/>
      <trkpt lat="-9.1793637" lon="148.2942638"/>
      <trkpt lat="-9.1794373" lon="148.2941006"/>
      <trkpt lat="-9.1795455" lon="148.2940025"/>
      <trkpt lat="-9.1796951" lon="148.2939821"/>
      <trkpt lat="-9.1798564" lon="148.2940451"/>
      <trkpt lat="-9.1799991" lon="148.2941311"/>
      <trkpt lat="-9.1801276" lon="148.2942322"/>
      <trkpt lat="-9.1802563" lon="148.2942728"/>
      <trkpt lat="-9.1803121" lon="148.2942414"/>
      <trkpt lat="-9.1803108" lon="148.2941330"/>
      <trkpt lat="-9.1803099" lon="148.2940138"/>
      <trkpt lat="-9.1804006" lon="148.2939302"/>
      <trkpt lat="-9.1805659" lon="148.2938953"/>
      <trkpt lat="-9.1807433" lon="148.2939107"/>
      <trkpt lat="-9.1809173" lon="148.2939543"/>
      <trkpt lat="-9.1810901" lon="148.2939892"/>
      <trkpt lat="-9.1812582" lon="148.2940279"/>
      <trkpt lat="-9.1814187" lon="148.2940203"/>
      <trkpt lat="-9.1815655" lon="148.2940491"/>
      <trkpt lat="-9.1817169" lon="148.2940682"/>
      <trkpt lat="-9.1818191" lon="148.2941460"/>
      <trkpt lat="-9.1818659" lon="148.2942366"/>
      <trkpt lat="-9.1819004" lon="148.2943326"/>
      <trkpt lat="-9.1819895" lon="148.2943827"/>
      <trkpt lat="-9.1821278" lon="148.2944277"/>
      <trkpt lat="-9.1822034" lon="148.2945168"/>
      <trkpt lat="-9.1821996" lon="148.2946694"/>
      <trkpt lat="-9.1821674" lon="148.2948392"/>
      <trkpt lat="-9.1821428" lon="148.2950127"/>
      <trkpt lat="-9.1821530" lon="148.2951866"/>
      <trkpt lat="-9.1821998" lon="148.2953324"/>
      <trkpt lat="-9.1822498" lon="148.2954784"/>
      <trkpt lat="-9.1823064" lon="148.2956276"/>
      <trkpt lat="-9.1823350" lon="148.2957978"/>
      <trkpt lat="-9.1823500" lon="148.2959650"/>
      <trkpt lat="-9.1823521" lon="148.2961297"/>
      <trkpt lat="-9.1823555" lon="148.2962905"/>
      <trkpt lat="-9.1823736" lon="148.2964544"/>
      <trkpt lat="-9.1824014" lon="148.2966217"/>
      <trkpt lat="-9.1824024" lon="148.2967998"/>
      <trkpt lat="-9.1823915" lon="148.2969745"/>
      <trkpt lat="-9.1823746" lon="148.2971445"/>
      <trkpt lat="-9.1823683" lon="148.2973145"/>
      <trkpt lat="-9.1824196" lon="148.2974644"/>
      <trkpt lat="-9.1824993" lon="148.2976085"/>
      <trkpt lat="-9.1826031" lon="148.2977450"/>
      <trkpt lat="-9.1826723" lon="148.2979012"/>
      <trkpt lat="-9.1827168" lon="148.2980667"/>
      <trkpt lat="-9.1827825" lon="148.2982087"/>
      <trkpt lat="-9.1828773" lon="148.2983428"/>
      <trkpt lat="-9.1830142" lon="148.2984473"/>
      <trkpt lat="-9.1831524" lon="148.2985396"/>
      <trkpt lat="-9.1832995" lon="148.2985741"/>
      <trkpt lat="-9.1834469" lon="148.2985495"/>
      <trkpt lat="-9.1835720" lon="148.2984638"/>
      <trkpt lat="-9.1836693" lon="148.2983436"/>
      <trkpt lat="-9.1836765" lon="148.2982101"/>
      <trkpt lat="-9.1836309" lon="148.2980768"/>
      <trkpt lat="-9.1835499" lon="148.2979324"/>
      <trkpt lat="-9.1834768" lon="148.2977812"/>
      <trkpt lat="-9.1834300" lon="148.2976182"/>
      <trkpt lat="-9.1834061" lon="148.2974569"/>
      <trkpt lat="-9.1834689" lon="148.2973504"/>
      <trkpt lat="-9.1835723" lon="148.2973424"/>
      <trkpt lat="-9.1837162" lon="148.2974222"/>
      <trkpt lat="-9.1837998" lon="148.2975340"/>
      <trkpt lat="-9.1838328" lon="148.2976612"/>
      <trkpt lat="-9.1838598" lon="148.2977817"/>
      <trkpt lat="-9.1839504" lon="148.2978683"/>
      <trkpt lat="-9.1841086" lon="148.2979068"/>
      <trkpt lat="-9.1842866" lon="148.2979284"/>
      <trkpt lat="-9.1844608" lon="148.2979712"/>
      <trkpt lat="-9.1846118" lon="148.2980463"/>
      <trkpt lat="-9.1847618" lon="148.2980994"/>
      <trkpt lat="-9.1849158" lon="148.2981309"/>
      <trkpt lat="-9.1850898" lon="148.2981284"/>
      <trkpt lat="-9.1852546" lon="148.2981565"/>
      <trkpt lat="-9.1854122" lon="148.2982032"/>
      <trkpt lat="-9.1855737" lon="148.2982383"/>
      <trkpt lat="-9.1857092" lon="148.2983015"/>
      <trkpt lat="-9.1857531" lon="148.2983915"/>
      <trkpt lat="-9.1857025" lon="148.2985339"/>
      <trkpt lat="-9.1855982" lon="148.2986794"/>
      <trkpt lat="-9.1854874" lon="148.2987820"/>
      <trkpt lat="-9.1853730" lon="148.2988815"/>
      <trkpt lat="-9.1852698" lon="148.2989871"/>
      <trkpt lat="-9.1851697" lon="148.2991228"/>
      <trkpt lat="-9.1850600" lon="148.2992002"/>
      <trkpt lat="-9.1849164" lon="148.2992145"/>
      <trkpt lat="-9.1847623" lon="148.2991942"/>
      <trkpt lat="-9.1846111" lon="148.2992274"/>
      <trkpt lat="-9.1844753" lon="148.2993106"/>
      <trkpt lat="-9.1844048" lon="148.2994518"/>
      <trkpt lat="-9.1844179" lon="148.2995923"/>
      <trkpt lat="-9.1845002" lon="148.2997351"/>
      <trkpt lat="-9.1845936" lon="148.2998380"/>
      <trkpt lat="-9.1846500" lon="148.2999610"/>
      <trkpt lat="-9.1846838" lon="148.3000933"/>
      <trkpt lat="-9.1846817" lon="148.3002462"/>
      <trkpt lat="-9.1846650" lon="148.3003767"/>
    </trkseg>
    <trkseg>
      <trkpt lat="-9.1612900" lon="148.2950333"/>
      <trkpt lat="-9.1613457" lon="148.2951780"/>
      <trkpt lat="-9.1614544" lon="148.2952880"/>
      <trkpt lat="-9.1616202" lon="148.2953528"/>
      <trkpt lat="-9.1617837" lon="148.2954161"/>
      <trkpt lat="-9.1618847" lon="148.2955097"/>
      <trkpt lat="-9.1618761" lon="148.2956012"/>
      <trkpt lat="-9.1617581" lon="148.2956539"/>
      <trkpt lat="-9.1616278" lon="148.2956024"/>
      <trkpt lat="-9.1615592" lon="148.2954841"/>
      <trkpt lat="-9.1615583" lon="148.2953283"/>
    </trkseg>
    <trkseg>
      <trkpt lat="-9.1615267" lon="148.2953083"/>
      <trkpt lat="-9.1617020" lon="148.2953520"/>
      <trkpt lat="-9.1618442" lon="148.2954249"/>
      <trkpt lat="-9.1618987" lon="148.2955305"/>
      <trkpt lat="-9.1618379" lon="148.2956072"/>
      <trkpt lat="-9.1616942" lon="148.2956227"/>
      <trkpt lat="-9.1615830" lon="148.2955362"/>
      <trkpt lat="-9.1615302" lon="148.2954495"/>
      <trkpt lat="-9.1615350" lon="148.2953700"/>
    </trkseg>
  </trk>
</gpx>
