<?xml version="1.0" encoding="UTF-8"?>
<gpx version="1.1" creator="MCA Maps — Managalas clan boundary survey"
     xmlns="http://www.topografix.com/GPX/1/1"
     xmlns:xsi="http://www.w3.org/2001/XMLSchema-instance"
     xsi:schemaLocation="http://www.topografix.com/GPX/1/1 http://www.topografix.com/GPX/1/1/gpx.xsd">
  <metadata>
    <name>Mungaikol — clan land boundary</name>
    <desc>Mungaikol, Zone 8. 14.8 km walked; 2.2 km still to walk in 2 gaps. 1 join(s) under the marking threshold are not shown.</desc>
    <time>2026-08-16T11:44:03Z</time>
  </metadata>
  <wpt lat="-9.0874133" lon="148.4670117">
    <name>GAP 1 OF 2 START</name>
    <desc>2.05 km not walked. This straight line is not a boundary — it joins the two ends so the shape can be closed on paper. Mungaikol, Zone 8.</desc>
    <sym>Flag</sym>
  </wpt>
  <wpt lat="-9.0989483" lon="148.4523683">
    <name>GAP 1 OF 2 END</name>
    <desc>2.05 km not walked. This straight line is not a boundary — it joins the two ends so the shape can be closed on paper. Mungaikol, Zone 8.</desc>
    <sym>Flag</sym>
  </wpt>
  <wpt lat="-9.1016533" lon="148.4417000">
    <name>GAP 2 OF 2 START</name>
    <desc>0.14 km not walked. This straight line is not a boundary — it joins the two ends so the shape can be closed on paper. Mungaikol, Zone 8.</desc>
    <sym>Flag</sym>
  </wpt>
  <wpt lat="-9.1026683" lon="148.4409700">
    <name>GAP 2 OF 2 END</name>
    <desc>0.14 km not walked. This straight line is not a boundary — it joins the two ends so the shape can be closed on paper. Mungaikol, Zone 8.</desc>
    <sym>Flag</sym>
  </wpt>
  <trk>
    <name>GAP 1 OF 2 - NOT WALKED - 2.05 km</name>
    <desc>2.05 km not walked. This straight line is not a boundary — it joins the two ends so the shape can be closed on paper. Mungaikol, Zone 8.</desc>
    <type>not-walked</type>
    <trkseg>
      <trkpt lat="-9.0874133" lon="148.4670117"/>
      <trkpt lat="-9.0989483" lon="148.4523683"/>
    </trkseg>
  </trk>
  <trk>
    <name>GAP 2 OF 2 - NOT WALKED - 0.14 km</name>
    <desc>0.14 km not walked. This straight line is not a boundary — it joins the two ends so the shape can be closed on paper. Mungaikol, Zone 8.</desc>
    <type>not-walked</type>
    <trkseg>
      <trkpt lat="-9.1016533" lon="148.4417000"/>
      <trkpt lat="-9.1026683" lon="148.4409700"/>
    </trkseg>
  </trk>
  <trk>
    <name>Mungaikol - Graham Ekiawa</name>
    <desc>Walked by Graham Ekiawa. 14.8 km, 5 track(s), recorded on the ground. Mungaikol, Zone 8.</desc>
    <type>walked-boundary</type>
    <trkseg>
      <trkpt lat="-9.1026683" lon="148.4409700"/>
      <trkpt lat="-9.1028327" lon="148.4409518"/>
      <trkpt lat="-9.1029910" lon="148.4409004"/>
      <trkpt lat="-9.1031462" lon="148.4408273"/>
      <trkpt lat="-9.1032987" lon="148.4407532"/>
      <trkpt lat="-9.1034646" lon="148.4407171"/>
      <trkpt lat="-9.1036408" lon="148.4407020"/>
      <trkpt lat="-9.1038190" lon="148.4406842"/>
      <trkpt lat="-9.1039928" lon="148.4406689"/>
      <trkpt lat="-9.1041353" lon="148.4407104"/>
      <trkpt lat="-9.1042447" lon="148.4408201"/>
      <trkpt lat="-9.1043548" lon="148.4409447"/>
      <trkpt lat="-9.1044873" lon="148.4410481"/>
      <trkpt lat="-9.1046472" lon="148.4411286"/>
      <trkpt lat="-9.1047928" lon="148.4412335"/>
      <trkpt lat="-9.1048880" lon="148.4413662"/>
      <trkpt lat="-9.1049482" lon="148.4415249"/>
      <trkpt lat="-9.1050094" lon="148.4416824"/>
      <trkpt lat="-9.1051154" lon="148.4418198"/>
      <trkpt lat="-9.1052535" lon="148.4419349"/>
      <trkpt lat="-9.1054072" lon="148.4420214"/>
      <trkpt lat="-9.1055653" lon="148.4421007"/>
      <trkpt lat="-9.1057309" lon="148.4421606"/>
      <trkpt lat="-9.1058922" lon="148.4422330"/>
      <trkpt lat="-9.1060571" lon="148.4422992"/>
      <trkpt lat="-9.1062069" lon="148.4423931"/>
      <trkpt lat="-9.1063553" lon="148.4424730"/>
      <trkpt lat="-9.1064865" lon="148.4425330"/>
      <trkpt lat="-9.1066213" lon="148.4425904"/>
      <trkpt lat="-9.1067570" lon="148.4426629"/>
      <trkpt lat="-9.1068939" lon="148.4427762"/>
      <trkpt lat="-9.1070108" lon="148.4429042"/>
      <trkpt lat="-9.1071050" lon="148.4430546"/>
      <trkpt lat="-9.1072135" lon="148.4431871"/>
      <trkpt lat="-9.1073502" lon="148.4432910"/>
      <trkpt lat="-9.1075110" lon="148.4433644"/>
      <trkpt lat="-9.1076758" lon="148.4434228"/>
      <trkpt lat="-9.1078473" lon="148.4434524"/>
      <trkpt lat="-9.1080168" lon="148.4434822"/>
      <trkpt lat="-9.1081874" lon="148.4435115"/>
      <trkpt lat="-9.1083572" lon="148.4435471"/>
      <trkpt lat="-9.1085336" lon="148.4435669"/>
      <trkpt lat="-9.1087103" lon="148.4435632"/>
      <trkpt lat="-9.1088735" lon="148.4435387"/>
      <trkpt lat="-9.1090342" lon="148.4434919"/>
      <trkpt lat="-9.1091963" lon="148.4434436"/>
      <trkpt lat="-9.1093718" lon="148.4434013"/>
      <trkpt lat="-9.1095444" lon="148.4434000"/>
      <trkpt lat="-9.1097092" lon="148.4434419"/>
      <trkpt lat="-9.1098715" lon="148.4435002"/>
      <trkpt lat="-9.1100358" lon="148.4435503"/>
      <trkpt lat="-9.1102059" lon="148.4435601"/>
      <trkpt lat="-9.1103785" lon="148.4435622"/>
      <trkpt lat="-9.1105543" lon="148.4435586"/>
      <trkpt lat="-9.1107325" lon="148.4435609"/>
      <trkpt lat="-9.1109097" lon="148.4435534"/>
      <trkpt lat="-9.1110744" lon="148.4435007"/>
      <trkpt lat="-9.1112344" lon="148.4434355"/>
      <trkpt lat="-9.1113958" lon="148.4433788"/>
      <trkpt lat="-9.1115676" lon="148.4433412"/>
      <trkpt lat="-9.1117382" lon="148.4432939"/>
      <trkpt lat="-9.1118970" lon="148.4432183"/>
      <trkpt lat="-9.1120230" lon="148.4431059"/>
      <trkpt lat="-9.1121132" lon="148.4429644"/>
      <trkpt lat="-9.1122138" lon="148.4428398"/>
      <trkpt lat="-9.1123473" lon="148.4427665"/>
      <trkpt lat="-9.1125188" lon="148.4427634"/>
      <trkpt lat="-9.1126871" lon="148.4427786"/>
      <trkpt lat="-9.1128447" lon="148.4427594"/>
      <trkpt lat="-9.1129811" lon="148.4426755"/>
      <trkpt lat="-9.1131063" lon="148.4425478"/>
      <trkpt lat="-9.1132197" lon="148.4424100"/>
      <trkpt lat="-9.1133579" lon="148.4423281"/>
      <trkpt lat="-9.1135085" lon="148.4422701"/>
      <trkpt lat="-9.1136797" lon="148.4422737"/>
      <trkpt lat="-9.1138211" lon="148.4422277"/>
      <trkpt lat="-9.1139510" lon="148.4421708"/>
      <trkpt lat="-9.1140836" lon="148.4420886"/>
      <trkpt lat="-9.1142434" lon="148.4420664"/>
      <trkpt lat="-9.1144040" lon="148.4421105"/>
      <trkpt lat="-9.1145644" lon="148.4421729"/>
      <trkpt lat="-9.1147238" lon="148.4422005"/>
      <trkpt lat="-9.1148964" lon="148.4422024"/>
      <trkpt lat="-9.1150548" lon="148.4421664"/>
      <trkpt lat="-9.1151913" lon="148.4420974"/>
      <trkpt lat="-9.1152949" lon="148.4419622"/>
      <trkpt lat="-9.1154068" lon="148.4418407"/>
      <trkpt lat="-9.1155341" lon="148.4417348"/>
      <trkpt lat="-9.1156782" lon="148.4416405"/>
      <trkpt lat="-9.1158110" lon="148.4415194"/>
      <trkpt lat="-9.1159293" lon="148.4413828"/>
      <trkpt lat="-9.1160553" lon="148.4412572"/>
      <trkpt lat="-9.1161864" lon="148.4411389"/>
      <trkpt lat="-9.1163433" lon="148.4410696"/>
      <trkpt lat="-9.1164470" lon="148.4409849"/>
      <trkpt lat="-9.1165197" lon="148.4409823"/>
      <trkpt lat="-9.1165267" lon="148.4409673"/>
      <trkpt lat="-9.1165934" lon="148.4410153"/>
      <trkpt lat="-9.1167014" lon="148.4409984"/>
      <trkpt lat="-9.1168626" lon="148.4409590"/>
      <trkpt lat="-9.1170001" lon="148.4408539"/>
      <trkpt lat="-9.1171199" lon="148.4407325"/>
      <trkpt lat="-9.1172522" lon="148.4406529"/>
      <trkpt lat="-9.1174071" lon="148.4406069"/>
      <trkpt lat="-9.1175620" lon="148.4405515"/>
      <trkpt lat="-9.1177039" lon="148.4404524"/>
      <trkpt lat="-9.1178200" lon="148.4403174"/>
      <trkpt lat="-9.1179437" lon="148.4402189"/>
      <trkpt lat="-9.1180677" lon="148.4401465"/>
      <trkpt lat="-9.1181792" lon="148.4400687"/>
      <trkpt lat="-9.1182892" lon="148.4400035"/>
      <trkpt lat="-9.1184064" lon="148.4399752"/>
      <trkpt lat="-9.1185635" lon="148.4400123"/>
      <trkpt lat="-9.1187349" lon="148.4400517"/>
      <trkpt lat="-9.1189121" lon="148.4400647"/>
      <trkpt lat="-9.1190919" lon="148.4400672"/>
      <trkpt lat="-9.1192670" lon="148.4400404"/>
      <trkpt lat="-9.1194285" lon="148.4399782"/>
      <trkpt lat="-9.1195782" lon="148.4398838"/>
      <trkpt lat="-9.1196989" lon="148.4397592"/>
      <trkpt lat="-9.1198256" lon="148.4396507"/>
      <trkpt lat="-9.1199581" lon="148.4396001"/>
      <trkpt lat="-9.1201172" lon="148.4395817"/>
      <trkpt lat="-9.1202791" lon="148.4395604"/>
      <trkpt lat="-9.1204438" lon="148.4394967"/>
      <trkpt lat="-9.1206159" lon="148.4394505"/>
      <trkpt lat="-9.1207772" lon="148.4393901"/>
      <trkpt lat="-9.1209331" lon="148.4393235"/>
      <trkpt lat="-9.1210674" lon="148.4392151"/>
      <trkpt lat="-9.1212161" lon="148.4391491"/>
      <trkpt lat="-9.1213590" lon="148.4391046"/>
      <trkpt lat="-9.1214971" lon="148.4391281"/>
      <trkpt lat="-9.1216315" lon="148.4391249"/>
      <trkpt lat="-9.1217765" lon="148.4391134"/>
      <trkpt lat="-9.1219218" lon="148.4390353"/>
      <trkpt lat="-9.1220550" lon="148.4389715"/>
      <trkpt lat="-9.1221622" lon="148.4388909"/>
      <trkpt lat="-9.1222343" lon="148.4388026"/>
      <trkpt lat="-9.1223142" lon="148.4387425"/>
      <trkpt lat="-9.1224023" lon="148.4387587"/>
      <trkpt lat="-9.1225348" lon="148.4388645"/>
      <trkpt lat="-9.1226692" lon="148.4389237"/>
      <trkpt lat="-9.1227996" lon="148.4389858"/>
      <trkpt lat="-9.1229224" lon="148.4390575"/>
      <trkpt lat="-9.1230254" lon="148.4391962"/>
      <trkpt lat="-9.1230701" lon="148.4392995"/>
      <trkpt lat="-9.1230757" lon="148.4393373"/>
      <trkpt lat="-9.1230450" lon="148.4393150"/>
    </trkseg>
    <trkseg>
      <trkpt lat="-9.1230333" lon="148.4392633"/>
      <trkpt lat="-9.1229602" lon="148.4394222"/>
      <trkpt lat="-9.1228991" lon="148.4395814"/>
      <trkpt lat="-9.1228738" lon="148.4397317"/>
      <trkpt lat="-9.1229483" lon="148.4398542"/>
      <trkpt lat="-9.1230459" lon="148.4398727"/>
      <trkpt lat="-9.1231478" lon="148.4398686"/>
      <trkpt lat="-9.1232249" lon="148.4399020"/>
      <trkpt lat="-9.1232998" lon="148.4399917"/>
      <trkpt lat="-9.1233553" lon="148.4400532"/>
      <trkpt lat="-9.1233407" lon="148.4400410"/>
      <trkpt lat="-9.1233591" lon="148.4400431"/>
      <trkpt lat="-9.1233669" lon="148.4400876"/>
      <trkpt lat="-9.1234137" lon="148.4402002"/>
      <trkpt lat="-9.1234151" lon="148.4402722"/>
      <trkpt lat="-9.1234637" lon="148.4403451"/>
      <trkpt lat="-9.1234830" lon="148.4404127"/>
      <trkpt lat="-9.1234558" lon="148.4405239"/>
      <trkpt lat="-9.1233908" lon="148.4405968"/>
      <trkpt lat="-9.1233425" lon="148.4406762"/>
      <trkpt lat="-9.1233419" lon="148.4407370"/>
      <trkpt lat="-9.1233237" lon="148.4408351"/>
      <trkpt lat="-9.1233325" lon="148.4409427"/>
      <trkpt lat="-9.1233704" lon="148.4410789"/>
      <trkpt lat="-9.1234533" lon="148.4412241"/>
      <trkpt lat="-9.1235637" lon="148.4413523"/>
      <trkpt lat="-9.1236095" lon="148.4414933"/>
      <trkpt lat="-9.1236286" lon="148.4416403"/>
      <trkpt lat="-9.1236305" lon="148.4417982"/>
      <trkpt lat="-9.1236218" lon="148.4419453"/>
      <trkpt lat="-9.1236389" lon="148.4420686"/>
      <trkpt lat="-9.1236104" lon="148.4421491"/>
      <trkpt lat="-9.1236004" lon="148.4422371"/>
      <trkpt lat="-9.1236078" lon="148.4423179"/>
      <trkpt lat="-9.1236746" lon="148.4424163"/>
      <trkpt lat="-9.1237870" lon="148.4425015"/>
      <trkpt lat="-9.1238373" lon="148.4425893"/>
      <trkpt lat="-9.1238500" lon="148.4426912"/>
      <trkpt lat="-9.1238349" lon="148.4428183"/>
      <trkpt lat="-9.1238215" lon="148.4429748"/>
      <trkpt lat="-9.1238227" lon="148.4431403"/>
      <trkpt lat="-9.1238091" lon="148.4432718"/>
      <trkpt lat="-9.1238459" lon="148.4433907"/>
      <trkpt lat="-9.1238599" lon="148.4434730"/>
      <trkpt lat="-9.1238353" lon="148.4435415"/>
      <trkpt lat="-9.1237212" lon="148.4435968"/>
      <trkpt lat="-9.1235728" lon="148.4436554"/>
      <trkpt lat="-9.1234857" lon="148.4437620"/>
      <trkpt lat="-9.1234200" lon="148.4438841"/>
      <trkpt lat="-9.1234140" lon="148.4440478"/>
      <trkpt lat="-9.1233773" lon="148.4441765"/>
      <trkpt lat="-9.1233654" lon="148.4442818"/>
      <trkpt lat="-9.1232950" lon="148.4443291"/>
      <trkpt lat="-9.1232109" lon="148.4443935"/>
      <trkpt lat="-9.1230840" lon="148.4444405"/>
      <trkpt lat="-9.1229480" lon="148.4445110"/>
      <trkpt lat="-9.1228247" lon="148.4445939"/>
      <trkpt lat="-9.1227660" lon="148.4446285"/>
      <trkpt lat="-9.1227132" lon="148.4446485"/>
      <trkpt lat="-9.1226874" lon="148.4446052"/>
      <trkpt lat="-9.1226282" lon="148.4446389"/>
      <trkpt lat="-9.1226377" lon="148.4446794"/>
      <trkpt lat="-9.1225874" lon="148.4447302"/>
      <trkpt lat="-9.1225543" lon="148.4447536"/>
      <trkpt lat="-9.1225222" lon="148.4447544"/>
      <trkpt lat="-9.1225368" lon="148.4447830"/>
      <trkpt lat="-9.1224919" lon="148.4447949"/>
      <trkpt lat="-9.1224036" lon="148.4448089"/>
      <trkpt lat="-9.1223482" lon="148.4447636"/>
      <trkpt lat="-9.1223182" lon="148.4447035"/>
      <trkpt lat="-9.1223331" lon="148.4446690"/>
      <trkpt lat="-9.1223848" lon="148.4446817"/>
      <trkpt lat="-9.1225198" lon="148.4446932"/>
      <trkpt lat="-9.1226813" lon="148.4446761"/>
      <trkpt lat="-9.1228340" lon="148.4446112"/>
      <trkpt lat="-9.1229527" lon="148.4445467"/>
      <trkpt lat="-9.1230536" lon="148.4444982"/>
      <trkpt lat="-9.1231604" lon="148.4444637"/>
      <trkpt lat="-9.1233117" lon="148.4444556"/>
      <trkpt lat="-9.1234456" lon="148.4444139"/>
      <trkpt lat="-9.1235522" lon="148.4443490"/>
      <trkpt lat="-9.1236248" lon="148.4442339"/>
      <trkpt lat="-9.1236924" lon="148.4440944"/>
      <trkpt lat="-9.1237871" lon="148.4439768"/>
      <trkpt lat="-9.1238566" lon="148.4438478"/>
      <trkpt lat="-9.1239454" lon="148.4437493"/>
      <trkpt lat="-9.1239884" lon="148.4437251"/>
      <trkpt lat="-9.1240350" lon="148.4438207"/>
      <trkpt lat="-9.1240415" lon="148.4439946"/>
      <trkpt lat="-9.1240367" lon="148.4441720"/>
      <trkpt lat="-9.1240037" lon="148.4443322"/>
      <trkpt lat="-9.1239761" lon="148.4444853"/>
      <trkpt lat="-9.1239350" lon="148.4445896"/>
      <trkpt lat="-9.1239289" lon="148.4446894"/>
      <trkpt lat="-9.1239163" lon="148.4447953"/>
      <trkpt lat="-9.1239294" lon="148.4449445"/>
      <trkpt lat="-9.1239634" lon="148.4450944"/>
      <trkpt lat="-9.1240146" lon="148.4452421"/>
      <trkpt lat="-9.1240736" lon="148.4453909"/>
      <trkpt lat="-9.1241045" lon="148.4455609"/>
      <trkpt lat="-9.1241499" lon="148.4457255"/>
      <trkpt lat="-9.1242004" lon="148.4458909"/>
      <trkpt lat="-9.1242613" lon="148.4460550"/>
      <trkpt lat="-9.1243037" lon="148.4462301"/>
      <trkpt lat="-9.1243189" lon="148.4464091"/>
      <trkpt lat="-9.1243480" lon="148.4465787"/>
      <trkpt lat="-9.1243743" lon="148.4467468"/>
      <trkpt lat="-9.1244042" lon="148.4469147"/>
      <trkpt lat="-9.1244041" lon="148.4470882"/>
      <trkpt lat="-9.1243887" lon="148.4472571"/>
      <trkpt lat="-9.1243307" lon="148.4473868"/>
      <trkpt lat="-9.1242566" lon="148.4474356"/>
      <trkpt lat="-9.1241636" lon="148.4474650"/>
      <trkpt lat="-9.1240604" lon="148.4474872"/>
      <trkpt lat="-9.1239197" lon="148.4475134"/>
      <trkpt lat="-9.1237887" lon="148.4474885"/>
      <trkpt lat="-9.1236900" lon="148.4474333"/>
    </trkseg>
    <trkseg>
      <trkpt lat="-9.1243000" lon="148.4472133"/>
      <trkpt lat="-9.1243513" lon="148.4472838"/>
      <trkpt lat="-9.1244561" lon="148.4473604"/>
      <trkpt lat="-9.1246101" lon="148.4473967"/>
      <trkpt lat="-9.1247542" lon="148.4474445"/>
      <trkpt lat="-9.1249035" lon="148.4474631"/>
      <trkpt lat="-9.1250552" lon="148.4475273"/>
      <trkpt lat="-9.1251624" lon="148.4475426"/>
      <trkpt lat="-9.1251858" lon="148.4475552"/>
      <trkpt lat="-9.1251141" lon="148.4475220"/>
      <trkpt lat="-9.1250896" lon="148.4474735"/>
      <trkpt lat="-9.1251519" lon="148.4474188"/>
      <trkpt lat="-9.1253067" lon="148.4473746"/>
      <trkpt lat="-9.1254674" lon="148.4473427"/>
      <trkpt lat="-9.1256133" lon="148.4473485"/>
      <trkpt lat="-9.1257539" lon="148.4474014"/>
      <trkpt lat="-9.1258957" lon="148.4474596"/>
      <trkpt lat="-9.1260527" lon="148.4474920"/>
      <trkpt lat="-9.1262186" lon="148.4474505"/>
      <trkpt lat="-9.1263825" lon="148.4474251"/>
      <trkpt lat="-9.1264940" lon="148.4474421"/>
      <trkpt lat="-9.1265061" lon="148.4475247"/>
      <trkpt lat="-9.1264083" lon="148.4476298"/>
      <trkpt lat="-9.1262475" lon="148.4477070"/>
      <trkpt lat="-9.1260772" lon="148.4477545"/>
      <trkpt lat="-9.1259026" lon="148.4477873"/>
      <trkpt lat="-9.1257321" lon="148.4478141"/>
      <trkpt lat="-9.1255642" lon="148.4478467"/>
      <trkpt lat="-9.1254040" lon="148.4479021"/>
      <trkpt lat="-9.1252447" lon="148.4479741"/>
      <trkpt lat="-9.1250891" lon="148.4480621"/>
      <trkpt lat="-9.1249452" lon="148.4481606"/>
      <trkpt lat="-9.1248113" lon="148.4482501"/>
      <trkpt lat="-9.1246751" lon="148.4483368"/>
      <trkpt lat="-9.1245300" lon="148.4484180"/>
      <trkpt lat="-9.1243784" lon="148.4485134"/>
      <trkpt lat="-9.1242456" lon="148.4486332"/>
      <trkpt lat="-9.1241341" lon="148.4487704"/>
      <trkpt lat="-9.1240502" lon="148.4489285"/>
      <trkpt lat="-9.1239771" lon="148.4490933"/>
      <trkpt lat="-9.1239023" lon="148.4492575"/>
      <trkpt lat="-9.1238248" lon="148.4494208"/>
      <trkpt lat="-9.1237494" lon="148.4495849"/>
      <trkpt lat="-9.1236892" lon="148.4497552"/>
      <trkpt lat="-9.1236561" lon="148.4499263"/>
      <trkpt lat="-9.1235935" lon="148.4500598"/>
      <trkpt lat="-9.1235011" lon="148.4501735"/>
      <trkpt lat="-9.1233620" lon="148.4502722"/>
      <trkpt lat="-9.1232240" lon="148.4503520"/>
      <trkpt lat="-9.1231220" lon="148.4504265"/>
      <trkpt lat="-9.1230237" lon="148.4504936"/>
      <trkpt lat="-9.1229960" lon="148.4505592"/>
      <trkpt lat="-9.1229683" lon="148.4505922"/>
      <trkpt lat="-9.1229436" lon="148.4505802"/>
      <trkpt lat="-9.1228523" lon="148.4505990"/>
      <trkpt lat="-9.1227930" lon="148.4506701"/>
      <trkpt lat="-9.1227795" lon="148.4508112"/>
      <trkpt lat="-9.1228152" lon="148.4509823"/>
      <trkpt lat="-9.1228166" lon="148.4511575"/>
      <trkpt lat="-9.1227964" lon="148.4513275"/>
      <trkpt lat="-9.1227706" lon="148.4514974"/>
      <trkpt lat="-9.1227191" lon="148.4516573"/>
      <trkpt lat="-9.1226561" lon="148.4518089"/>
      <trkpt lat="-9.1225605" lon="148.4519412"/>
      <trkpt lat="-9.1224441" lon="148.4520381"/>
      <trkpt lat="-9.1223106" lon="148.4521346"/>
      <trkpt lat="-9.1221689" lon="148.4522263"/>
      <trkpt lat="-9.1220480" lon="148.4523508"/>
      <trkpt lat="-9.1219137" lon="148.4524570"/>
      <trkpt lat="-9.1217759" lon="148.4525637"/>
      <trkpt lat="-9.1216183" lon="148.4526486"/>
      <trkpt lat="-9.1214554" lon="148.4527205"/>
      <trkpt lat="-9.1212828" lon="148.4527715"/>
      <trkpt lat="-9.1211312" lon="148.4528433"/>
      <trkpt lat="-9.1210054" lon="148.4529490"/>
      <trkpt lat="-9.1208837" lon="148.4530621"/>
      <trkpt lat="-9.1207365" lon="148.4531299"/>
      <trkpt lat="-9.1205853" lon="148.4531386"/>
      <trkpt lat="-9.1204674" lon="148.4531165"/>
      <trkpt lat="-9.1203793" lon="148.4531413"/>
      <trkpt lat="-9.1202763" lon="148.4532085"/>
      <trkpt lat="-9.1201412" lon="148.4532981"/>
      <trkpt lat="-9.1199819" lon="148.4533236"/>
      <trkpt lat="-9.1198158" lon="148.4533318"/>
      <trkpt lat="-9.1196439" lon="148.4533221"/>
      <trkpt lat="-9.1194675" lon="148.4533244"/>
      <trkpt lat="-9.1192913" lon="148.4533281"/>
      <trkpt lat="-9.1191147" lon="148.4533316"/>
      <trkpt lat="-9.1189375" lon="148.4533434"/>
      <trkpt lat="-9.1187585" lon="148.4533380"/>
      <trkpt lat="-9.1185803" lon="148.4533484"/>
      <trkpt lat="-9.1184064" lon="148.4533801"/>
      <trkpt lat="-9.1182325" lon="148.4534203"/>
      <trkpt lat="-9.1180642" lon="148.4534719"/>
      <trkpt lat="-9.1178980" lon="148.4535051"/>
      <trkpt lat="-9.1177359" lon="148.4535514"/>
      <trkpt lat="-9.1175731" lon="148.4535944"/>
      <trkpt lat="-9.1174120" lon="148.4536626"/>
      <trkpt lat="-9.1172472" lon="148.4537206"/>
      <trkpt lat="-9.1170767" lon="148.4537605"/>
      <trkpt lat="-9.1169033" lon="148.4537885"/>
      <trkpt lat="-9.1167328" lon="148.4538260"/>
      <trkpt lat="-9.1165635" lon="148.4538474"/>
      <trkpt lat="-9.1164392" lon="148.4538230"/>
      <trkpt lat="-9.1163342" lon="148.4537359"/>
      <trkpt lat="-9.1162389" lon="148.4536281"/>
      <trkpt lat="-9.1160958" lon="148.4535458"/>
      <trkpt lat="-9.1159307" lon="148.4535156"/>
      <trkpt lat="-9.1158052" lon="148.4534899"/>
      <trkpt lat="-9.1156888" lon="148.4534673"/>
      <trkpt lat="-9.1155747" lon="148.4534517"/>
      <trkpt lat="-9.1154143" lon="148.4534832"/>
      <trkpt lat="-9.1152579" lon="148.4535314"/>
      <trkpt lat="-9.1151286" lon="148.4536153"/>
      <trkpt lat="-9.1149970" lon="148.4536899"/>
      <trkpt lat="-9.1148613" lon="148.4537824"/>
      <trkpt lat="-9.1147055" lon="148.4538165"/>
      <trkpt lat="-9.1146185" lon="148.4538195"/>
      <trkpt lat="-9.1145296" lon="148.4538165"/>
      <trkpt lat="-9.1144396" lon="148.4538518"/>
      <trkpt lat="-9.1142875" lon="148.4539397"/>
      <trkpt lat="-9.1141290" lon="148.4540149"/>
      <trkpt lat="-9.1140005" lon="148.4541127"/>
      <trkpt lat="-9.1138981" lon="148.4542378"/>
      <trkpt lat="-9.1138028" lon="148.4543765"/>
      <trkpt lat="-9.1136717" lon="148.4544463"/>
      <trkpt lat="-9.1135221" lon="148.4544779"/>
      <trkpt lat="-9.1133895" lon="148.4545290"/>
      <trkpt lat="-9.1132672" lon="148.4546335"/>
      <trkpt lat="-9.1132035" lon="148.4547109"/>
      <trkpt lat="-9.1132089" lon="148.4547793"/>
      <trkpt lat="-9.1132949" lon="148.4548479"/>
      <trkpt lat="-9.1133961" lon="148.4549790"/>
      <trkpt lat="-9.1134965" lon="148.4551172"/>
      <trkpt lat="-9.1136093" lon="148.4552551"/>
      <trkpt lat="-9.1137280" lon="148.4553829"/>
      <trkpt lat="-9.1138704" lon="148.4554719"/>
      <trkpt lat="-9.1140248" lon="148.4555305"/>
      <trkpt lat="-9.1141958" lon="148.4555657"/>
      <trkpt lat="-9.1143663" lon="148.4555907"/>
      <trkpt lat="-9.1145379" lon="148.4556104"/>
      <trkpt lat="-9.1147133" lon="148.4556278"/>
      <trkpt lat="-9.1148874" lon="148.4556623"/>
      <trkpt lat="-9.1150559" lon="148.4557202"/>
      <trkpt lat="-9.1152257" lon="148.4557752"/>
      <trkpt lat="-9.1153749" lon="148.4558600"/>
      <trkpt lat="-9.1154382" lon="148.4559618"/>
      <trkpt lat="-9.1153941" lon="148.4560742"/>
      <trkpt lat="-9.1152723" lon="148.4561851"/>
      <trkpt lat="-9.1151426" lon="148.4562977"/>
      <trkpt lat="-9.1150174" lon="148.4564258"/>
      <trkpt lat="-9.1148777" lon="148.4565328"/>
      <trkpt lat="-9.1147295" lon="148.4566282"/>
      <trkpt lat="-9.1145949" lon="148.4567335"/>
      <trkpt lat="-9.1144600" lon="148.4568388"/>
      <trkpt lat="-9.1143153" lon="148.4569262"/>
      <trkpt lat="-9.1141425" lon="148.4569709"/>
      <trkpt lat="-9.1139880" lon="148.4570358"/>
      <trkpt lat="-9.1138479" lon="148.4571276"/>
      <trkpt lat="-9.1137182" lon="148.4572453"/>
      <trkpt lat="-9.1135897" lon="148.4573411"/>
      <trkpt lat="-9.1134687" lon="148.4574408"/>
      <trkpt lat="-9.1133573" lon="148.4575514"/>
      <trkpt lat="-9.1132327" lon="148.4576739"/>
      <trkpt lat="-9.1131129" lon="148.4578018"/>
      <trkpt lat="-9.1129755" lon="148.4578987"/>
      <trkpt lat="-9.1128310" lon="148.4579775"/>
      <trkpt lat="-9.1126651" lon="148.4580334"/>
      <trkpt lat="-9.1125019" lon="148.4581015"/>
      <trkpt lat="-9.1123495" lon="148.4581943"/>
      <trkpt lat="-9.1122294" lon="148.4583140"/>
      <trkpt lat="-9.1122067" lon="148.4584474"/>
      <trkpt lat="-9.1122419" lon="148.4585963"/>
      <trkpt lat="-9.1123005" lon="148.4587505"/>
      <trkpt lat="-9.1123218" lon="148.4589036"/>
      <trkpt lat="-9.1123367" lon="148.4590400"/>
    </trkseg>
    <trkseg>
      <trkpt lat="-9.1122850" lon="148.4591150"/>
      <trkpt lat="-9.1122084" lon="148.4591065"/>
      <trkpt lat="-9.1120879" lon="148.4591348"/>
      <trkpt lat="-9.1119271" lon="148.4592099"/>
      <trkpt lat="-9.1117842" lon="148.4593088"/>
      <trkpt lat="-9.1116485" lon="148.4594236"/>
      <trkpt lat="-9.1115106" lon="148.4595330"/>
      <trkpt lat="-9.1113530" lon="148.4596140"/>
      <trkpt lat="-9.1111910" lon="148.4596846"/>
      <trkpt lat="-9.1110329" lon="148.4597530"/>
      <trkpt lat="-9.1108767" lon="148.4598273"/>
      <trkpt lat="-9.1107131" lon="148.4598820"/>
      <trkpt lat="-9.1105441" lon="148.4599309"/>
      <trkpt lat="-9.1103725" lon="148.4599672"/>
      <trkpt lat="-9.1102010" lon="148.4599876"/>
      <trkpt lat="-9.1100290" lon="148.4600065"/>
      <trkpt lat="-9.1098915" lon="148.4600702"/>
      <trkpt lat="-9.1097696" lon="148.4601826"/>
      <trkpt lat="-9.1096621" lon="148.4603095"/>
      <trkpt lat="-9.1095428" lon="148.4603693"/>
      <trkpt lat="-9.1094660" lon="148.4603893"/>
      <trkpt lat="-9.1094542" lon="148.4604177"/>
      <trkpt lat="-9.1094781" lon="148.4605177"/>
      <trkpt lat="-9.1094974" lon="148.4606777"/>
      <trkpt lat="-9.1094705" lon="148.4608515"/>
      <trkpt lat="-9.1093933" lon="148.4609982"/>
      <trkpt lat="-9.1092657" lon="148.4611058"/>
      <trkpt lat="-9.1091079" lon="148.4611879"/>
      <trkpt lat="-9.1089402" lon="148.4612375"/>
      <trkpt lat="-9.1087710" lon="148.4612750"/>
      <trkpt lat="-9.1086421" lon="148.4613430"/>
      <trkpt lat="-9.1085577" lon="148.4614680"/>
      <trkpt lat="-9.1085142" lon="148.4616273"/>
      <trkpt lat="-9.1084320" lon="148.4617577"/>
      <trkpt lat="-9.1083065" lon="148.4618416"/>
      <trkpt lat="-9.1081418" lon="148.4618997"/>
      <trkpt lat="-9.1079868" lon="148.4619721"/>
      <trkpt lat="-9.1078423" lon="148.4620700"/>
      <trkpt lat="-9.1077043" lon="148.4621534"/>
      <trkpt lat="-9.1075889" lon="148.4622487"/>
      <trkpt lat="-9.1074789" lon="148.4623496"/>
      <trkpt lat="-9.1073633" lon="148.4624663"/>
      <trkpt lat="-9.1072117" lon="148.4625534"/>
      <trkpt lat="-9.1070698" lon="148.4626486"/>
      <trkpt lat="-9.1069347" lon="148.4627576"/>
      <trkpt lat="-9.1068111" lon="148.4628804"/>
      <trkpt lat="-9.1066635" lon="148.4629735"/>
      <trkpt lat="-9.1065047" lon="148.4630333"/>
      <trkpt lat="-9.1063301" lon="148.4630432"/>
      <trkpt lat="-9.1061519" lon="148.4630284"/>
      <trkpt lat="-9.1059733" lon="148.4630114"/>
      <trkpt lat="-9.1057998" lon="148.4629792"/>
      <trkpt lat="-9.1056581" lon="148.4628977"/>
      <trkpt lat="-9.1055554" lon="148.4627620"/>
      <trkpt lat="-9.1054697" lon="148.4626052"/>
      <trkpt lat="-9.1053694" lon="148.4624597"/>
      <trkpt lat="-9.1052414" lon="148.4623821"/>
      <trkpt lat="-9.1050966" lon="148.4623783"/>
      <trkpt lat="-9.1049404" lon="148.4624437"/>
      <trkpt lat="-9.1047779" lon="148.4625231"/>
      <trkpt lat="-9.1046117" lon="148.4625702"/>
      <trkpt lat="-9.1044421" lon="148.4625763"/>
      <trkpt lat="-9.1042734" lon="148.4625307"/>
      <trkpt lat="-9.1041059" lon="148.4624715"/>
      <trkpt lat="-9.1039385" lon="148.4624175"/>
      <trkpt lat="-9.1037737" lon="148.4623801"/>
      <trkpt lat="-9.1036115" lon="148.4623881"/>
      <trkpt lat="-9.1034562" lon="148.4624355"/>
      <trkpt lat="-9.1033072" lon="148.4624633"/>
      <trkpt lat="-9.1031643" lon="148.4624443"/>
      <trkpt lat="-9.1030745" lon="148.4624040"/>
      <trkpt lat="-9.1030369" lon="148.4623643"/>
      <trkpt lat="-9.1029881" lon="148.4623581"/>
      <trkpt lat="-9.1028969" lon="148.4623818"/>
      <trkpt lat="-9.1027431" lon="148.4624576"/>
      <trkpt lat="-9.1025930" lon="148.4625430"/>
      <trkpt lat="-9.1024271" lon="148.4626129"/>
      <trkpt lat="-9.1022583" lon="148.4626730"/>
      <trkpt lat="-9.1020943" lon="148.4626800"/>
      <trkpt lat="-9.1019376" lon="148.4626268"/>
      <trkpt lat="-9.1018051" lon="148.4625107"/>
      <trkpt lat="-9.1016779" lon="148.4623886"/>
      <trkpt lat="-9.1015508" lon="148.4622719"/>
      <trkpt lat="-9.1014083" lon="148.4621776"/>
      <trkpt lat="-9.1013109" lon="148.4620614"/>
      <trkpt lat="-9.1012525" lon="148.4619689"/>
      <trkpt lat="-9.1012412" lon="148.4619572"/>
      <trkpt lat="-9.1012358" lon="148.4620017"/>
      <trkpt lat="-9.1012135" lon="148.4620968"/>
      <trkpt lat="-9.1011430" lon="148.4621566"/>
      <trkpt lat="-9.1010290" lon="148.4622637"/>
      <trkpt lat="-9.1009272" lon="148.4623806"/>
      <trkpt lat="-9.1008630" lon="148.4625379"/>
      <trkpt lat="-9.1008068" lon="148.4627022"/>
      <trkpt lat="-9.1007531" lon="148.4628021"/>
      <trkpt lat="-9.1006885" lon="148.4628812"/>
      <trkpt lat="-9.1006225" lon="148.4629176"/>
      <trkpt lat="-9.1006158" lon="148.4629319"/>
      <trkpt lat="-9.1006549" lon="148.4628533"/>
      <trkpt lat="-9.1007404" lon="148.4627071"/>
      <trkpt lat="-9.1008031" lon="148.4625433"/>
      <trkpt lat="-9.1008792" lon="148.4623859"/>
      <trkpt lat="-9.1009884" lon="148.4622559"/>
      <trkpt lat="-9.1011158" lon="148.4621351"/>
      <trkpt lat="-9.1012127" lon="148.4620674"/>
      <trkpt lat="-9.1012082" lon="148.4620270"/>
      <trkpt lat="-9.1011067" lon="148.4620082"/>
      <trkpt lat="-9.1009483" lon="148.4619837"/>
      <trkpt lat="-9.1007974" lon="148.4619534"/>
      <trkpt lat="-9.1006432" lon="148.4619490"/>
      <trkpt lat="-9.1004811" lon="148.4619435"/>
      <trkpt lat="-9.1003158" lon="148.4619398"/>
      <trkpt lat="-9.1002140" lon="148.4619838"/>
      <trkpt lat="-9.1001420" lon="148.4620147"/>
      <trkpt lat="-9.1001179" lon="148.4621052"/>
      <trkpt lat="-9.1001080" lon="148.4621978"/>
      <trkpt lat="-9.1001265" lon="148.4623656"/>
      <trkpt lat="-9.1001446" lon="148.4625404"/>
      <trkpt lat="-9.1001548" lon="148.4626560"/>
      <trkpt lat="-9.1001488" lon="148.4627691"/>
      <trkpt lat="-9.1001413" lon="148.4628817"/>
      <trkpt lat="-9.1001356" lon="148.4630481"/>
      <trkpt lat="-9.1001944" lon="148.4631933"/>
      <trkpt lat="-9.1002761" lon="148.4633368"/>
      <trkpt lat="-9.1003893" lon="148.4634694"/>
      <trkpt lat="-9.1004914" lon="148.4636139"/>
      <trkpt lat="-9.1005999" lon="148.4637544"/>
      <trkpt lat="-9.1006508" lon="148.4639138"/>
      <trkpt lat="-9.1006494" lon="148.4640814"/>
      <trkpt lat="-9.1006032" lon="148.4642523"/>
      <trkpt lat="-9.1005128" lon="148.4643827"/>
      <trkpt lat="-9.1004466" lon="148.4645036"/>
      <trkpt lat="-9.1003832" lon="148.4646241"/>
      <trkpt lat="-9.1003688" lon="148.4647865"/>
      <trkpt lat="-9.1003464" lon="148.4649599"/>
      <trkpt lat="-9.1003197" lon="148.4651338"/>
      <trkpt lat="-9.1002586" lon="148.4652930"/>
      <trkpt lat="-9.1001601" lon="148.4654408"/>
      <trkpt lat="-9.1000414" lon="148.4655741"/>
      <trkpt lat="-9.0999411" lon="148.4657172"/>
      <trkpt lat="-9.0998814" lon="148.4658738"/>
      <trkpt lat="-9.0998779" lon="148.4660465"/>
      <trkpt lat="-9.0999058" lon="148.4662250"/>
      <trkpt lat="-9.0999292" lon="148.4663412"/>
      <trkpt lat="-9.0999371" lon="148.4664596"/>
      <trkpt lat="-9.0999047" lon="148.4665679"/>
      <trkpt lat="-9.0998649" lon="148.4667366"/>
      <trkpt lat="-9.0998106" lon="148.4669033"/>
      <trkpt lat="-9.0997448" lon="148.4670611"/>
      <trkpt lat="-9.0996537" lon="148.4672091"/>
      <trkpt lat="-9.0995377" lon="148.4673115"/>
      <trkpt lat="-9.0994480" lon="148.4673609"/>
      <trkpt lat="-9.0994147" lon="148.4673711"/>
      <trkpt lat="-9.0993867" lon="148.4674126"/>
      <trkpt lat="-9.0993765" lon="148.4675199"/>
      <trkpt lat="-9.0993459" lon="148.4676781"/>
      <trkpt lat="-9.0993314" lon="148.4678422"/>
      <trkpt lat="-9.0992750" lon="148.4679953"/>
      <trkpt lat="-9.0991763" lon="148.4681328"/>
      <trkpt lat="-9.0990486" lon="148.4682586"/>
      <trkpt lat="-9.0989259" lon="148.4683842"/>
      <trkpt lat="-9.0987848" lon="148.4684741"/>
      <trkpt lat="-9.0986356" lon="148.4685495"/>
      <trkpt lat="-9.0985384" lon="148.4685771"/>
      <trkpt lat="-9.0985116" lon="148.4686443"/>
      <trkpt lat="-9.0984874" lon="148.4687170"/>
      <trkpt lat="-9.0984081" lon="148.4688232"/>
      <trkpt lat="-9.0982589" lon="148.4688713"/>
      <trkpt lat="-9.0981048" lon="148.4688946"/>
      <trkpt lat="-9.0979305" lon="148.4688837"/>
      <trkpt lat="-9.0977555" lon="148.4688748"/>
      <trkpt lat="-9.0975780" lon="148.4688612"/>
      <trkpt lat="-9.0974011" lon="148.4688526"/>
      <trkpt lat="-9.0972259" lon="148.4688555"/>
      <trkpt lat="-9.0970513" lon="148.4688699"/>
      <trkpt lat="-9.0968785" lon="148.4689041"/>
      <trkpt lat="-9.0967065" lon="148.4689556"/>
      <trkpt lat="-9.0965347" lon="148.4689935"/>
      <trkpt lat="-9.0963705" lon="148.4690411"/>
      <trkpt lat="-9.0962239" lon="148.4691122"/>
      <trkpt lat="-9.0960973" lon="148.4692317"/>
      <trkpt lat="-9.0959878" lon="148.4693701"/>
      <trkpt lat="-9.0958651" lon="148.4694906"/>
      <trkpt lat="-9.0957252" lon="148.4695852"/>
      <trkpt lat="-9.0955720" lon="148.4696024"/>
      <trkpt lat="-9.0954215" lon="148.4695661"/>
      <trkpt lat="-9.0952679" lon="148.4695167"/>
      <trkpt lat="-9.0951002" lon="148.4694894"/>
      <trkpt lat="-9.0949245" lon="148.4694936"/>
      <trkpt lat="-9.0947534" lon="148.4695168"/>
      <trkpt lat="-9.0945860" lon="148.4695683"/>
      <trkpt lat="-9.0944174" lon="148.4696264"/>
      <trkpt lat="-9.0942430" lon="148.4696602"/>
      <trkpt lat="-9.0941145" lon="148.4696501"/>
      <trkpt lat="-9.0939924" lon="148.4696591"/>
      <trkpt lat="-9.0938788" lon="148.4696974"/>
      <trkpt lat="-9.0937161" lon="148.4697619"/>
      <trkpt lat="-9.0935494" lon="148.4697754"/>
      <trkpt lat="-9.0933988" lon="148.4697088"/>
      <trkpt lat="-9.0932593" lon="148.4696045"/>
      <trkpt lat="-9.0931290" lon="148.4694833"/>
      <trkpt lat="-9.0929835" lon="148.4693793"/>
      <trkpt lat="-9.0928270" lon="148.4693084"/>
      <trkpt lat="-9.0926632" lon="148.4692601"/>
      <trkpt lat="-9.0924923" lon="148.4692480"/>
      <trkpt lat="-9.0923223" lon="148.4692227"/>
      <trkpt lat="-9.0921552" lon="148.4691922"/>
      <trkpt lat="-9.0919963" lon="148.4691324"/>
      <trkpt lat="-9.0918367" lon="148.4690850"/>
      <trkpt lat="-9.0916862" lon="148.4690161"/>
      <trkpt lat="-9.0915414" lon="148.4689316"/>
      <trkpt lat="-9.0914029" lon="148.4688230"/>
      <trkpt lat="-9.0912488" lon="148.4687375"/>
      <trkpt lat="-9.0910928" lon="148.4686606"/>
      <trkpt lat="-9.0909682" lon="148.4685556"/>
      <trkpt lat="-9.0908530" lon="148.4684340"/>
      <trkpt lat="-9.0907286" lon="148.4683214"/>
      <trkpt lat="-9.0905802" lon="148.4682241"/>
      <trkpt lat="-9.0904278" lon="148.4681322"/>
      <trkpt lat="-9.0902860" lon="148.4680250"/>
      <trkpt lat="-9.0901639" lon="148.4679034"/>
      <trkpt lat="-9.0900416" lon="148.4677810"/>
      <trkpt lat="-9.0899188" lon="148.4676578"/>
      <trkpt lat="-9.0897780" lon="148.4675477"/>
      <trkpt lat="-9.0896487" lon="148.4674247"/>
      <trkpt lat="-9.0895314" lon="148.4672899"/>
      <trkpt lat="-9.0894118" lon="148.4671575"/>
      <trkpt lat="-9.0893211" lon="148.4670555"/>
      <trkpt lat="-9.0892090" lon="148.4670134"/>
      <trkpt lat="-9.0890860" lon="148.4669970"/>
      <trkpt lat="-9.0889153" lon="148.4669847"/>
      <trkpt lat="-9.0887402" lon="148.4669529"/>
      <trkpt lat="-9.0885696" lon="148.4669433"/>
      <trkpt lat="-9.0884209" lon="148.4669887"/>
      <trkpt lat="-9.0882763" lon="148.4670634"/>
      <trkpt lat="-9.0881268" lon="148.4671209"/>
      <trkpt lat="-9.0879552" lon="148.4671348"/>
      <trkpt lat="-9.0877789" lon="148.4671192"/>
      <trkpt lat="-9.0876054" lon="148.4670870"/>
      <trkpt lat="-9.0874838" lon="148.4670467"/>
      <trkpt lat="-9.0874133" lon="148.4670117"/>
    </trkseg>
    <trkseg>
      <trkpt lat="-9.1016533" lon="148.4417000"/>
      <trkpt lat="-9.1017147" lon="148.4416807"/>
      <trkpt lat="-9.1018191" lon="148.4416238"/>
      <trkpt lat="-9.1019704" lon="148.4415372"/>
      <trkpt lat="-9.1021338" lon="148.4414832"/>
      <trkpt lat="-9.1023057" lon="148.4414654"/>
      <trkpt lat="-9.1024765" lon="148.4414648"/>
      <trkpt lat="-9.1026174" lon="148.4415155"/>
      <trkpt lat="-9.1027438" lon="148.4416003"/>
      <trkpt lat="-9.1028715" lon="148.4416847"/>
      <trkpt lat="-9.1030235" lon="148.4417372"/>
      <trkpt lat="-9.1031750" lon="148.4417923"/>
      <trkpt lat="-9.1032598" lon="148.4419125"/>
      <trkpt lat="-9.1033026" lon="148.4420688"/>
      <trkpt lat="-9.1032703" lon="148.4422196"/>
      <trkpt lat="-9.1032394" lon="148.4423716"/>
      <trkpt lat="-9.1031852" lon="148.4425239"/>
      <trkpt lat="-9.1031703" lon="148.4427007"/>
      <trkpt lat="-9.1031673" lon="148.4428780"/>
      <trkpt lat="-9.1031788" lon="148.4430575"/>
      <trkpt lat="-9.1032172" lon="148.4432256"/>
      <trkpt lat="-9.1032956" lon="148.4433779"/>
      <trkpt lat="-9.1033989" lon="148.4435229"/>
      <trkpt lat="-9.1034900" lon="148.4436729"/>
      <trkpt lat="-9.1035155" lon="148.4438337"/>
      <trkpt lat="-9.1035122" lon="148.4440008"/>
      <trkpt lat="-9.1034839" lon="148.4441751"/>
      <trkpt lat="-9.1034711" lon="148.4443499"/>
      <trkpt lat="-9.1034893" lon="148.4444632"/>
      <trkpt lat="-9.1035056" lon="148.4445716"/>
      <trkpt lat="-9.1035334" lon="148.4446846"/>
      <trkpt lat="-9.1035454" lon="148.4448583"/>
      <trkpt lat="-9.1035475" lon="148.4450355"/>
      <trkpt lat="-9.1035486" lon="148.4452132"/>
      <trkpt lat="-9.1035424" lon="148.4453915"/>
      <trkpt lat="-9.1035584" lon="148.4455700"/>
      <trkpt lat="-9.1035957" lon="148.4457422"/>
      <trkpt lat="-9.1036424" lon="148.4459125"/>
      <trkpt lat="-9.1036806" lon="148.4460842"/>
      <trkpt lat="-9.1036967" lon="148.4462624"/>
      <trkpt lat="-9.1036917" lon="148.4464418"/>
      <trkpt lat="-9.1037028" lon="148.4466188"/>
      <trkpt lat="-9.1037302" lon="148.4467931"/>
      <trkpt lat="-9.1037778" lon="148.4469674"/>
      <trkpt lat="-9.1038287" lon="148.4471406"/>
      <trkpt lat="-9.1038772" lon="148.4473145"/>
      <trkpt lat="-9.1039348" lon="148.4474858"/>
      <trkpt lat="-9.1039792" lon="148.4476572"/>
      <trkpt lat="-9.1039932" lon="148.4478292"/>
      <trkpt lat="-9.1040025" lon="148.4480016"/>
      <trkpt lat="-9.1039769" lon="148.4481610"/>
      <trkpt lat="-9.1039731" lon="148.4483217"/>
      <trkpt lat="-9.1039560" lon="148.4484865"/>
      <trkpt lat="-9.1039772" lon="148.4486664"/>
      <trkpt lat="-9.1040079" lon="148.4488435"/>
      <trkpt lat="-9.1040167" lon="148.4490175"/>
      <trkpt lat="-9.1040183" lon="148.4491920"/>
      <trkpt lat="-9.1040083" lon="148.4493696"/>
      <trkpt lat="-9.1040163" lon="148.4495500"/>
      <trkpt lat="-9.1040442" lon="148.4497256"/>
      <trkpt lat="-9.1040763" lon="148.4498988"/>
      <trkpt lat="-9.1041355" lon="148.4500656"/>
      <trkpt lat="-9.1041907" lon="148.4502343"/>
      <trkpt lat="-9.1042503" lon="148.4504039"/>
      <trkpt lat="-9.1042790" lon="148.4505792"/>
      <trkpt lat="-9.1043160" lon="148.4507502"/>
      <trkpt lat="-9.1043542" lon="148.4509125"/>
      <trkpt lat="-9.1043908" lon="148.4510758"/>
      <trkpt lat="-9.1043867" lon="148.4512435"/>
      <trkpt lat="-9.1043786" lon="148.4514146"/>
      <trkpt lat="-9.1043808" lon="148.4515851"/>
      <trkpt lat="-9.1044277" lon="148.4517498"/>
      <trkpt lat="-9.1044634" lon="148.4519207"/>
      <trkpt lat="-9.1044763" lon="148.4520836"/>
      <trkpt lat="-9.1044068" lon="148.4522253"/>
      <trkpt lat="-9.1042926" lon="148.4523475"/>
      <trkpt lat="-9.1041468" lon="148.4524533"/>
      <trkpt lat="-9.1040019" lon="148.4525615"/>
      <trkpt lat="-9.1038454" lon="148.4526442"/>
      <trkpt lat="-9.1036799" lon="148.4527058"/>
      <trkpt lat="-9.1035219" lon="148.4527715"/>
      <trkpt lat="-9.1033767" lon="148.4528604"/>
      <trkpt lat="-9.1032401" lon="148.4529687"/>
      <trkpt lat="-9.1031025" lon="148.4530803"/>
      <trkpt lat="-9.1029518" lon="148.4531665"/>
      <trkpt lat="-9.1027916" lon="148.4532318"/>
      <trkpt lat="-9.1026182" lon="148.4532411"/>
      <trkpt lat="-9.1024450" lon="148.4532217"/>
      <trkpt lat="-9.1022729" lon="148.4531902"/>
      <trkpt lat="-9.1021161" lon="148.4532106"/>
      <trkpt lat="-9.1019573" lon="148.4532558"/>
      <trkpt lat="-9.1017992" lon="148.4532860"/>
      <trkpt lat="-9.1016308" lon="148.4532865"/>
      <trkpt lat="-9.1014845" lon="148.4532315"/>
      <trkpt lat="-9.1013900" lon="148.4531306"/>
      <trkpt lat="-9.1013450" lon="148.4529797"/>
      <trkpt lat="-9.1013955" lon="148.4528648"/>
      <trkpt lat="-9.1014172" lon="148.4527675"/>
      <trkpt lat="-9.1014558" lon="148.4526797"/>
      <trkpt lat="-9.1014137" lon="148.4525735"/>
      <trkpt lat="-9.1013702" lon="148.4524744"/>
      <trkpt lat="-9.1013220" lon="148.4524121"/>
      <trkpt lat="-9.1012933" lon="148.4523827"/>
      <trkpt lat="-9.1012897" lon="148.4523940"/>
      <trkpt lat="-9.1012885" lon="148.4523887"/>
      <trkpt lat="-9.1013186" lon="148.4524276"/>
      <trkpt lat="-9.1013587" lon="148.4524521"/>
      <trkpt lat="-9.1013513" lon="148.4524878"/>
      <trkpt lat="-9.1013329" lon="148.4524791"/>
      <trkpt lat="-9.1013052" lon="148.4524443"/>
      <trkpt lat="-9.1013017" lon="148.4524243"/>
      <trkpt lat="-9.1012950" lon="148.4524043"/>
      <trkpt lat="-9.1012686" lon="148.4523971"/>
      <trkpt lat="-9.1012326" lon="148.4523626"/>
      <trkpt lat="-9.1011260" lon="148.4523254"/>
      <trkpt lat="-9.1010191" lon="148.4523576"/>
      <trkpt lat="-9.1008876" lon="148.4524351"/>
      <trkpt lat="-9.1007710" lon="148.4525481"/>
      <trkpt lat="-9.1006243" lon="148.4526178"/>
      <trkpt lat="-9.1004678" lon="148.4526575"/>
      <trkpt lat="-9.1003096" lon="148.4526688"/>
      <trkpt lat="-9.1001932" lon="148.4526236"/>
      <trkpt lat="-9.1001152" lon="148.4525300"/>
      <trkpt lat="-9.1000422" lon="148.4524066"/>
      <trkpt lat="-9.1000302" lon="148.4523440"/>
      <trkpt lat="-9.1000253" lon="148.4522994"/>
      <trkpt lat="-9.1000087" lon="148.4523096"/>
      <trkpt lat="-9.0999477" lon="148.4523050"/>
      <trkpt lat="-9.0998420" lon="148.4523083"/>
      <trkpt lat="-9.0997279" lon="148.4522783"/>
      <trkpt lat="-9.0995839" lon="148.4522986"/>
      <trkpt lat="-9.0994455" lon="148.4523538"/>
      <trkpt lat="-9.0993364" lon="148.4523753"/>
      <trkpt lat="-9.0992791" lon="148.4523425"/>
      <trkpt lat="-9.0992304" lon="148.4523222"/>
      <trkpt lat="-9.0991505" lon="148.4523334"/>
      <trkpt lat="-9.0990351" lon="148.4523870"/>
      <trkpt lat="-9.0989613" lon="148.4523892"/>
      <trkpt lat="-9.0989483" lon="148.4523683"/>
    </trkseg>
    <trkseg>
      <trkpt lat="-9.0875467" lon="148.4670467"/>
      <trkpt lat="-9.0874197" lon="148.4670385"/>
      <trkpt lat="-9.0873014" lon="148.4670984"/>
      <trkpt lat="-9.0871951" lon="148.4672321"/>
      <trkpt lat="-9.0870840" lon="148.4673597"/>
      <trkpt lat="-9.0869817" lon="148.4674867"/>
    </trkseg>
    <trkseg>
      <trkpt lat="-9.0874000" lon="148.4669467"/>
      <trkpt lat="-9.0872759" lon="148.4670791"/>
      <trkpt lat="-9.0871519" lon="148.4672114"/>
      <trkpt lat="-9.0870278" lon="148.4673438"/>
      <trkpt lat="-9.0869156" lon="148.4674622"/>
      <trkpt lat="-9.0868956" lon="148.4675096"/>
      <trkpt lat="-9.0869575" lon="148.4674693"/>
      <trkpt lat="-9.0870882" lon="148.4673532"/>
      <trkpt lat="-9.0872052" lon="148.4672165"/>
      <trkpt lat="-9.0872843" lon="148.4670808"/>
      <trkpt lat="-9.0873267" lon="148.4669483"/>
    </trkseg>
    <trkseg>
      <trkpt lat="-9.0867250" lon="148.4675183"/>
      <trkpt lat="-9.0866180" lon="148.4676389"/>
      <trkpt lat="-9.0865505" lon="148.4677855"/>
      <trkpt lat="-9.0865275" lon="148.4679523"/>
      <trkpt lat="-9.0865824" lon="148.4680535"/>
      <trkpt lat="-9.0865793" lon="148.4680993"/>
      <trkpt lat="-9.0865789" lon="148.4681132"/>
      <trkpt lat="-9.0865867" lon="148.4681488"/>
      <trkpt lat="-9.0866150" lon="148.4682268"/>
      <trkpt lat="-9.0866699" lon="148.4682861"/>
      <trkpt lat="-9.0866553" lon="148.4683945"/>
      <trkpt lat="-9.0866782" lon="148.4684702"/>
      <trkpt lat="-9.0866243" lon="148.4685582"/>
      <trkpt lat="-9.0865646" lon="148.4686444"/>
      <trkpt lat="-9.0864685" lon="148.4687425"/>
      <trkpt lat="-9.0863653" lon="148.4688593"/>
      <trkpt lat="-9.0862468" lon="148.4689657"/>
      <trkpt lat="-9.0861805" lon="148.4690349"/>
      <trkpt lat="-9.0861967" lon="148.4690947"/>
      <trkpt lat="-9.0862735" lon="148.4691211"/>
      <trkpt lat="-9.0863154" lon="148.4691124"/>
      <trkpt lat="-9.0863327" lon="148.4691010"/>
      <trkpt lat="-9.0863462" lon="148.4691107"/>
      <trkpt lat="-9.0863613" lon="148.4691984"/>
      <trkpt lat="-9.0863686" lon="148.4692706"/>
      <trkpt lat="-9.0863681" lon="148.4693180"/>
      <trkpt lat="-9.0863927" lon="148.4693385"/>
      <trkpt lat="-9.0864282" lon="148.4694098"/>
      <trkpt lat="-9.0863919" lon="148.4694815"/>
      <trkpt lat="-9.0862971" lon="148.4695712"/>
      <trkpt lat="-9.0861479" lon="148.4695915"/>
      <trkpt lat="-9.0860411" lon="148.4695679"/>
      <trkpt lat="-9.0859477" lon="148.4695643"/>
      <trkpt lat="-9.0858584" lon="148.4696164"/>
      <trkpt lat="-9.0857489" lon="148.4697481"/>
      <trkpt lat="-9.0856396" lon="148.4698812"/>
      <trkpt lat="-9.0855158" lon="148.4699694"/>
      <trkpt lat="-9.0854441" lon="148.4700685"/>
      <trkpt lat="-9.0853809" lon="148.4701724"/>
      <trkpt lat="-9.0853281" lon="148.4703163"/>
      <trkpt lat="-9.0852247" lon="148.4704480"/>
      <trkpt lat="-9.0850953" lon="148.4705435"/>
      <trkpt lat="-9.0849697" lon="148.4706432"/>
      <trkpt lat="-9.0848192" lon="148.4707010"/>
      <trkpt lat="-9.0847003" lon="148.4707933"/>
      <trkpt lat="-9.0845705" lon="148.4708695"/>
      <trkpt lat="-9.0844456" lon="148.4709686"/>
      <trkpt lat="-9.0842896" lon="148.4710414"/>
      <trkpt lat="-9.0841523" lon="148.4710547"/>
      <trkpt lat="-9.0840354" lon="148.4710943"/>
      <trkpt lat="-9.0839472" lon="148.4711682"/>
      <trkpt lat="-9.0838494" lon="148.4713159"/>
      <trkpt lat="-9.0837280" lon="148.4714322"/>
      <trkpt lat="-9.0835790" lon="148.4715147"/>
      <trkpt lat="-9.0834334" lon="148.4715976"/>
      <trkpt lat="-9.0832973" lon="148.4716949"/>
      <trkpt lat="-9.0831691" lon="148.4718027"/>
      <trkpt lat="-9.0830411" lon="148.4718914"/>
      <trkpt lat="-9.0829252" lon="148.4719922"/>
      <trkpt lat="-9.0828208" lon="148.4721094"/>
      <trkpt lat="-9.0827034" lon="148.4722359"/>
      <trkpt lat="-9.0825721" lon="148.4723533"/>
      <trkpt lat="-9.0824248" lon="148.4724551"/>
      <trkpt lat="-9.0822828" lon="148.4725631"/>
      <trkpt lat="-9.0821420" lon="148.4726705"/>
      <trkpt lat="-9.0820111" lon="148.4727802"/>
      <trkpt lat="-9.0818667" lon="148.4728495"/>
      <trkpt lat="-9.0817233" lon="148.4729195"/>
      <trkpt lat="-9.0815648" lon="148.4729689"/>
      <trkpt lat="-9.0814059" lon="148.4730288"/>
      <trkpt lat="-9.0812392" lon="148.4730777"/>
      <trkpt lat="-9.0810807" lon="148.4731097"/>
      <trkpt lat="-9.0809256" lon="148.4731431"/>
      <trkpt lat="-9.0808250" lon="148.4731826"/>
      <trkpt lat="-9.0807535" lon="148.4732790"/>
      <trkpt lat="-9.0806806" lon="148.4733818"/>
      <trkpt lat="-9.0805487" lon="148.4734540"/>
      <trkpt lat="-9.0803838" lon="148.4734923"/>
      <trkpt lat="-9.0802203" lon="148.4735342"/>
      <trkpt lat="-9.0800828" lon="148.4736203"/>
      <trkpt lat="-9.0799408" lon="148.4737099"/>
      <trkpt lat="-9.0798722" lon="148.4737889"/>
      <trkpt lat="-9.0798517" lon="148.4738300"/>
    </trkseg>
  </trk>
</gpx>
