<?xml version="1.0" encoding="UTF-8"?>
<gpx version="1.1" creator="MCA Maps — Managalas clan boundary survey"
     xmlns="http://www.topografix.com/GPX/1/1"
     xmlns:xsi="http://www.w3.org/2001/XMLSchema-instance"
     xsi:schemaLocation="http://www.topografix.com/GPX/1/1 http://www.topografix.com/GPX/1/1/gpx.xsd">
  <metadata>
    <name>Murai (Z2) — clan land boundary</name>
    <desc>Murai (Z2), Zone 2. 7.3 km walked; the boundary closes</desc>
    <time>2026-08-16T11:44:03Z</time>
  </metadata>
  <trk>
    <name>Murai (Z2) - Nehemiah Nindori</name>
    <desc>Walked by Nehemiah Nindori. 7.3 km, 32 track(s), recorded on the ground. Murai (Z2), Zone 2.</desc>
    <type>walked-boundary</type>
    <trkseg>
      <trkpt lat="-9.1207583" lon="148.2734617"/>
      <trkpt lat="-9.1208647" lon="148.2733954"/>
      <trkpt lat="-9.1208697" lon="148.2733782"/>
      <trkpt lat="-9.1207733" lon="148.2734100"/>
    </trkseg>
    <trkseg>
      <trkpt lat="-9.1166267" lon="148.2790067"/>
      <trkpt lat="-9.1166049" lon="148.2791760"/>
      <trkpt lat="-9.1166176" lon="148.2793420"/>
      <trkpt lat="-9.1166227" lon="148.2795095"/>
      <trkpt lat="-9.1166124" lon="148.2796732"/>
      <trkpt lat="-9.1165934" lon="148.2798307"/>
      <trkpt lat="-9.1165990" lon="148.2799907"/>
      <trkpt lat="-9.1166645" lon="148.2801422"/>
      <trkpt lat="-9.1167648" lon="148.2802729"/>
      <trkpt lat="-9.1168746" lon="148.2803573"/>
      <trkpt lat="-9.1169683" lon="148.2804083"/>
    </trkseg>
    <trkseg>
      <trkpt lat="-9.1171233" lon="148.2803867"/>
      <trkpt lat="-9.1172596" lon="148.2804391"/>
      <trkpt lat="-9.1173767" lon="148.2805203"/>
      <trkpt lat="-9.1174827" lon="148.2806299"/>
      <trkpt lat="-9.1175977" lon="148.2807602"/>
      <trkpt lat="-9.1177143" lon="148.2808929"/>
      <trkpt lat="-9.1178017" lon="148.2810389"/>
      <trkpt lat="-9.1178918" lon="148.2811838"/>
      <trkpt lat="-9.1179958" lon="148.2813075"/>
      <trkpt lat="-9.1181240" lon="148.2814216"/>
      <trkpt lat="-9.1182394" lon="148.2814966"/>
      <trkpt lat="-9.1183400" lon="148.2815450"/>
    </trkseg>
    <trkseg>
      <trkpt lat="-9.1183350" lon="148.2815733"/>
      <trkpt lat="-9.1184042" lon="148.2817038"/>
      <trkpt lat="-9.1185082" lon="148.2818151"/>
      <trkpt lat="-9.1186432" lon="148.2819131"/>
      <trkpt lat="-9.1187780" lon="148.2820275"/>
      <trkpt lat="-9.1189175" lon="148.2821400"/>
      <trkpt lat="-9.1190676" lon="148.2822356"/>
      <trkpt lat="-9.1192131" lon="148.2823189"/>
      <trkpt lat="-9.1193550" lon="148.2823883"/>
    </trkseg>
    <trkseg>
      <trkpt lat="-9.1194183" lon="148.2823783"/>
      <trkpt lat="-9.1195630" lon="148.2824769"/>
      <trkpt lat="-9.1196978" lon="148.2825769"/>
      <trkpt lat="-9.1198133" lon="148.2826658"/>
      <trkpt lat="-9.1199083" lon="148.2827550"/>
    </trkseg>
    <trkseg>
      <trkpt lat="-9.1199050" lon="148.2827100"/>
      <trkpt lat="-9.1200710" lon="148.2826477"/>
      <trkpt lat="-9.1202429" lon="148.2826181"/>
      <trkpt lat="-9.1204209" lon="148.2826215"/>
      <trkpt lat="-9.1205929" lon="148.2826522"/>
      <trkpt lat="-9.1207583" lon="148.2826900"/>
    </trkseg>
    <trkseg>
      <trkpt lat="-9.1208417" lon="148.2827267"/>
      <trkpt lat="-9.1210043" lon="148.2827616"/>
      <trkpt lat="-9.1211514" lon="148.2827381"/>
      <trkpt lat="-9.1212839" lon="148.2826509"/>
      <trkpt lat="-9.1213915" lon="148.2825187"/>
      <trkpt lat="-9.1214899" lon="148.2823736"/>
      <trkpt lat="-9.1216070" lon="148.2822538"/>
      <trkpt lat="-9.1217520" lon="148.2821788"/>
      <trkpt lat="-9.1219280" lon="148.2821660"/>
      <trkpt lat="-9.1220694" lon="148.2821728"/>
      <trkpt lat="-9.1221733" lon="148.2821850"/>
    </trkseg>
    <trkseg>
      <trkpt lat="-9.1222167" lon="148.2822517"/>
      <trkpt lat="-9.1223719" lon="148.2823417"/>
      <trkpt lat="-9.1225075" lon="148.2824542"/>
      <trkpt lat="-9.1226346" lon="148.2825789"/>
      <trkpt lat="-9.1227734" lon="148.2826817"/>
      <trkpt lat="-9.1229000" lon="148.2827526"/>
      <trkpt lat="-9.1230033" lon="148.2828017"/>
    </trkseg>
    <trkseg>
      <trkpt lat="-9.1230500" lon="148.2829417"/>
      <trkpt lat="-9.1232081" lon="148.2829828"/>
      <trkpt lat="-9.1233383" lon="148.2830587"/>
      <trkpt lat="-9.1234674" lon="148.2831545"/>
      <trkpt lat="-9.1235934" lon="148.2832591"/>
      <trkpt lat="-9.1237381" lon="148.2833548"/>
      <trkpt lat="-9.1238534" lon="148.2834701"/>
      <trkpt lat="-9.1239504" lon="148.2835937"/>
      <trkpt lat="-9.1240021" lon="148.2837404"/>
      <trkpt lat="-9.1240725" lon="148.2838796"/>
      <trkpt lat="-9.1241266" lon="148.2840280"/>
      <trkpt lat="-9.1241938" lon="148.2841684"/>
      <trkpt lat="-9.1242652" lon="148.2842915"/>
      <trkpt lat="-9.1243124" lon="148.2844249"/>
      <trkpt lat="-9.1243836" lon="148.2845479"/>
      <trkpt lat="-9.1244543" lon="148.2846786"/>
      <trkpt lat="-9.1245659" lon="148.2847977"/>
      <trkpt lat="-9.1246377" lon="148.2849365"/>
      <trkpt lat="-9.1247203" lon="148.2850646"/>
      <trkpt lat="-9.1247752" lon="148.2851476"/>
      <trkpt lat="-9.1248400" lon="148.2851733"/>
    </trkseg>
    <trkseg>
      <trkpt lat="-9.1249783" lon="148.2851833"/>
      <trkpt lat="-9.1251483" lon="148.2852319"/>
      <trkpt lat="-9.1253195" lon="148.2852803"/>
      <trkpt lat="-9.1254894" lon="148.2853038"/>
      <trkpt lat="-9.1256521" lon="148.2852942"/>
      <trkpt lat="-9.1257876" lon="148.2852286"/>
      <trkpt lat="-9.1258983" lon="148.2851317"/>
    </trkseg>
    <trkseg>
      <trkpt lat="-9.1258667" lon="148.2851150"/>
      <trkpt lat="-9.1260299" lon="148.2850611"/>
      <trkpt lat="-9.1261887" lon="148.2850473"/>
      <trkpt lat="-9.1263328" lon="148.2850806"/>
      <trkpt lat="-9.1264391" lon="148.2851971"/>
      <trkpt lat="-9.1265051" lon="148.2853428"/>
      <trkpt lat="-9.1265397" lon="148.2855035"/>
      <trkpt lat="-9.1265733" lon="148.2856550"/>
    </trkseg>
    <trkseg>
      <trkpt lat="-9.1267517" lon="148.2856933"/>
      <trkpt lat="-9.1267607" lon="148.2858484"/>
      <trkpt lat="-9.1267749" lon="148.2860094"/>
      <trkpt lat="-9.1268257" lon="148.2861681"/>
      <trkpt lat="-9.1268945" lon="148.2863241"/>
      <trkpt lat="-9.1269835" lon="148.2864765"/>
      <trkpt lat="-9.1270650" lon="148.2866317"/>
      <trkpt lat="-9.1271251" lon="148.2867946"/>
      <trkpt lat="-9.1271948" lon="148.2869503"/>
      <trkpt lat="-9.1272893" lon="148.2870863"/>
      <trkpt lat="-9.1274130" lon="148.2872093"/>
      <trkpt lat="-9.1275468" lon="148.2873227"/>
      <trkpt lat="-9.1276604" lon="148.2874457"/>
      <trkpt lat="-9.1277861" lon="148.2875464"/>
      <trkpt lat="-9.1278930" lon="148.2876543"/>
      <trkpt lat="-9.1279816" lon="148.2877252"/>
      <trkpt lat="-9.1280267" lon="148.2877817"/>
    </trkseg>
    <trkseg>
      <trkpt lat="-9.1281133" lon="148.2879033"/>
      <trkpt lat="-9.1282243" lon="148.2879993"/>
      <trkpt lat="-9.1283639" lon="148.2880572"/>
      <trkpt lat="-9.1285232" lon="148.2880331"/>
      <trkpt lat="-9.1286250" lon="148.2879519"/>
      <trkpt lat="-9.1286675" lon="148.2878060"/>
      <trkpt lat="-9.1286454" lon="148.2876417"/>
      <trkpt lat="-9.1286188" lon="148.2874639"/>
      <trkpt lat="-9.1285848" lon="148.2872878"/>
      <trkpt lat="-9.1285557" lon="148.2871110"/>
      <trkpt lat="-9.1284914" lon="148.2869530"/>
      <trkpt lat="-9.1284785" lon="148.2868195"/>
      <trkpt lat="-9.1285194" lon="148.2867217"/>
      <trkpt lat="-9.1286383" lon="148.2866433"/>
    </trkseg>
    <trkseg>
      <trkpt lat="-9.1286500" lon="148.2866567"/>
      <trkpt lat="-9.1288223" lon="148.2866520"/>
      <trkpt lat="-9.1289882" lon="148.2866177"/>
      <trkpt lat="-9.1291561" lon="148.2865852"/>
      <trkpt lat="-9.1293174" lon="148.2865509"/>
      <trkpt lat="-9.1294587" lon="148.2865341"/>
      <trkpt lat="-9.1295717" lon="148.2865033"/>
    </trkseg>
    <trkseg>
      <trkpt lat="-9.1295350" lon="148.2863950"/>
      <trkpt lat="-9.1296221" lon="148.2865221"/>
      <trkpt lat="-9.1297124" lon="148.2866541"/>
      <trkpt lat="-9.1297871" lon="148.2867454"/>
      <trkpt lat="-9.1298100" lon="148.2868200"/>
    </trkseg>
    <trkseg>
      <trkpt lat="-9.1298233" lon="148.2868517"/>
      <trkpt lat="-9.1298483" lon="148.2870240"/>
      <trkpt lat="-9.1299128" lon="148.2871818"/>
      <trkpt lat="-9.1299978" lon="148.2873091"/>
      <trkpt lat="-9.1300767" lon="148.2874150"/>
    </trkseg>
    <trkseg>
      <trkpt lat="-9.1300850" lon="148.2875567"/>
      <trkpt lat="-9.1301660" lon="148.2877055"/>
      <trkpt lat="-9.1301667" lon="148.2877117"/>
    </trkseg>
    <trkseg>
      <trkpt lat="-9.1302267" lon="148.2877650"/>
      <trkpt lat="-9.1300955" lon="148.2878680"/>
      <trkpt lat="-9.1299716" lon="148.2879630"/>
      <trkpt lat="-9.1298550" lon="148.2880500"/>
    </trkseg>
    <trkseg>
      <trkpt lat="-9.1312900" lon="148.2878200"/>
      <trkpt lat="-9.1314025" lon="148.2877003"/>
      <trkpt lat="-9.1314738" lon="148.2875527"/>
      <trkpt lat="-9.1315153" lon="148.2873806"/>
      <trkpt lat="-9.1315344" lon="148.2872057"/>
      <trkpt lat="-9.1315585" lon="148.2870328"/>
      <trkpt lat="-9.1315979" lon="148.2868681"/>
      <trkpt lat="-9.1317026" lon="148.2867442"/>
      <trkpt lat="-9.1318537" lon="148.2866759"/>
      <trkpt lat="-9.1320298" lon="148.2866520"/>
      <trkpt lat="-9.1322083" lon="148.2866540"/>
      <trkpt lat="-9.1323873" lon="148.2866627"/>
      <trkpt lat="-9.1325658" lon="148.2866854"/>
      <trkpt lat="-9.1327443" lon="148.2866961"/>
      <trkpt lat="-9.1329206" lon="148.2867053"/>
      <trkpt lat="-9.1330902" lon="148.2867329"/>
      <trkpt lat="-9.1332526" lon="148.2867960"/>
      <trkpt lat="-9.1334150" lon="148.2868658"/>
      <trkpt lat="-9.1335803" lon="148.2868935"/>
      <trkpt lat="-9.1337472" lon="148.2868874"/>
      <trkpt lat="-9.1339160" lon="148.2868641"/>
      <trkpt lat="-9.1340870" lon="148.2868364"/>
      <trkpt lat="-9.1342310" lon="148.2868032"/>
      <trkpt lat="-9.1343417" lon="148.2867683"/>
    </trkseg>
    <trkseg>
      <trkpt lat="-9.1344017" lon="148.2867100"/>
      <trkpt lat="-9.1345778" lon="148.2867453"/>
      <trkpt lat="-9.1347556" lon="148.2867718"/>
      <trkpt lat="-9.1349346" lon="148.2867921"/>
      <trkpt lat="-9.1351061" lon="148.2868350"/>
      <trkpt lat="-9.1352726" lon="148.2868967"/>
      <trkpt lat="-9.1354377" lon="148.2869658"/>
      <trkpt lat="-9.1356057" lon="148.2870280"/>
      <trkpt lat="-9.1357713" lon="148.2870957"/>
      <trkpt lat="-9.1359347" lon="148.2871707"/>
      <trkpt lat="-9.1360657" lon="148.2872298"/>
      <trkpt lat="-9.1361667" lon="148.2872667"/>
    </trkseg>
    <trkseg>
      <trkpt lat="-9.1362650" lon="148.2872600"/>
      <trkpt lat="-9.1364403" lon="148.2872697"/>
      <trkpt lat="-9.1366120" lon="148.2872885"/>
      <trkpt lat="-9.1367651" lon="148.2873004"/>
      <trkpt lat="-9.1368678" lon="148.2872501"/>
      <trkpt lat="-9.1369489" lon="148.2871438"/>
      <trkpt lat="-9.1370272" lon="148.2869943"/>
      <trkpt lat="-9.1371100" lon="148.2868507"/>
      <trkpt lat="-9.1371490" lon="148.2866902"/>
      <trkpt lat="-9.1371534" lon="148.2865176"/>
      <trkpt lat="-9.1371685" lon="148.2863436"/>
      <trkpt lat="-9.1371851" lon="148.2861696"/>
      <trkpt lat="-9.1371963" lon="148.2860466"/>
      <trkpt lat="-9.1371867" lon="148.2859717"/>
    </trkseg>
    <trkseg>
      <trkpt lat="-9.1372233" lon="148.2859417"/>
      <trkpt lat="-9.1371054" lon="148.2858115"/>
      <trkpt lat="-9.1370100" lon="148.2857600"/>
    </trkseg>
    <trkseg>
      <trkpt lat="-9.1369600" lon="148.2857617"/>
      <trkpt lat="-9.1369310" lon="148.2855927"/>
      <trkpt lat="-9.1368689" lon="148.2854402"/>
      <trkpt lat="-9.1367768" lon="148.2853001"/>
      <trkpt lat="-9.1366718" lon="148.2851565"/>
      <trkpt lat="-9.1365898" lon="148.2849986"/>
      <trkpt lat="-9.1365242" lon="148.2848315"/>
      <trkpt lat="-9.1364628" lon="148.2846627"/>
      <trkpt lat="-9.1363868" lon="148.2845007"/>
      <trkpt lat="-9.1363094" lon="148.2843401"/>
      <trkpt lat="-9.1362714" lon="148.2841745"/>
      <trkpt lat="-9.1362748" lon="148.2840016"/>
      <trkpt lat="-9.1363319" lon="148.2838375"/>
      <trkpt lat="-9.1363791" lon="148.2837302"/>
      <trkpt lat="-9.1364167" lon="148.2836800"/>
    </trkseg>
    <trkseg>
      <trkpt lat="-9.1365383" lon="148.2835633"/>
      <trkpt lat="-9.1366258" lon="148.2834060"/>
      <trkpt lat="-9.1367020" lon="148.2832441"/>
      <trkpt lat="-9.1367745" lon="148.2830809"/>
      <trkpt lat="-9.1368534" lon="148.2829330"/>
      <trkpt lat="-9.1369326" lon="148.2827999"/>
      <trkpt lat="-9.1369886" lon="148.2826656"/>
      <trkpt lat="-9.1370310" lon="148.2825129"/>
      <trkpt lat="-9.1370600" lon="148.2823790"/>
      <trkpt lat="-9.1370917" lon="148.2822767"/>
    </trkseg>
    <trkseg>
      <trkpt lat="-9.1371117" lon="148.2821867"/>
      <trkpt lat="-9.1369667" lon="148.2821950"/>
      <trkpt lat="-9.1368142" lon="148.2822119"/>
      <trkpt lat="-9.1366736" lon="148.2821996"/>
      <trkpt lat="-9.1365259" lon="148.2821219"/>
      <trkpt lat="-9.1363803" lon="148.2820632"/>
      <trkpt lat="-9.1362151" lon="148.2820483"/>
      <trkpt lat="-9.1360480" lon="148.2820818"/>
      <trkpt lat="-9.1358950" lon="148.2821225"/>
      <trkpt lat="-9.1357583" lon="148.2821833"/>
    </trkseg>
    <trkseg>
      <trkpt lat="-9.1357267" lon="148.2822083"/>
      <trkpt lat="-9.1356493" lon="148.2820690"/>
      <trkpt lat="-9.1356524" lon="148.2819368"/>
      <trkpt lat="-9.1357364" lon="148.2818481"/>
      <trkpt lat="-9.1358807" lon="148.2818008"/>
      <trkpt lat="-9.1360012" lon="148.2817337"/>
      <trkpt lat="-9.1360695" lon="148.2816081"/>
      <trkpt lat="-9.1360757" lon="148.2814382"/>
      <trkpt lat="-9.1360418" lon="148.2812652"/>
      <trkpt lat="-9.1359946" lon="148.2810920"/>
      <trkpt lat="-9.1359238" lon="148.2809315"/>
      <trkpt lat="-9.1358820" lon="148.2807733"/>
      <trkpt lat="-9.1358886" lon="148.2806209"/>
      <trkpt lat="-9.1359660" lon="148.2804656"/>
      <trkpt lat="-9.1360825" lon="148.2803356"/>
      <trkpt lat="-9.1362099" lon="148.2802144"/>
      <trkpt lat="-9.1363464" lon="148.2801015"/>
      <trkpt lat="-9.1364447" lon="148.2799798"/>
      <trkpt lat="-9.1365150" lon="148.2798617"/>
    </trkseg>
    <trkseg>
      <trkpt lat="-9.1313567" lon="148.2878483"/>
      <trkpt lat="-9.1311859" lon="148.2879055"/>
      <trkpt lat="-9.1310157" lon="148.2879453"/>
      <trkpt lat="-9.1308439" lon="148.2879682"/>
      <trkpt lat="-9.1306778" lon="148.2879606"/>
      <trkpt lat="-9.1305106" lon="148.2879641"/>
      <trkpt lat="-9.1303441" lon="148.2879829"/>
      <trkpt lat="-9.1301749" lon="148.2880402"/>
      <trkpt lat="-9.1300093" lon="148.2881118"/>
      <trkpt lat="-9.1299028" lon="148.2881510"/>
      <trkpt lat="-9.1298517" lon="148.2881483"/>
    </trkseg>
    <trkseg>
      <trkpt lat="-9.1320983" lon="148.2757950"/>
      <trkpt lat="-9.1319196" lon="148.2757670"/>
      <trkpt lat="-9.1317416" lon="148.2757356"/>
      <trkpt lat="-9.1315646" lon="148.2756988"/>
      <trkpt lat="-9.1313873" lon="148.2756658"/>
      <trkpt lat="-9.1312095" lon="148.2756369"/>
      <trkpt lat="-9.1310306" lon="148.2756134"/>
      <trkpt lat="-9.1308514" lon="148.2755899"/>
      <trkpt lat="-9.1306749" lon="148.2755549"/>
      <trkpt lat="-9.1304986" lon="148.2755201"/>
      <trkpt lat="-9.1303225" lon="148.2754839"/>
      <trkpt lat="-9.1301434" lon="148.2754614"/>
      <trkpt lat="-9.1299644" lon="148.2754377"/>
      <trkpt lat="-9.1297850" lon="148.2754173"/>
      <trkpt lat="-9.1296058" lon="148.2754016"/>
      <trkpt lat="-9.1294328" lon="148.2753678"/>
      <trkpt lat="-9.1292669" lon="148.2753097"/>
      <trkpt lat="-9.1291074" lon="148.2752245"/>
      <trkpt lat="-9.1289508" lon="148.2751341"/>
      <trkpt lat="-9.1288027" lon="148.2750912"/>
      <trkpt lat="-9.1286923" lon="148.2751354"/>
      <trkpt lat="-9.1286179" lon="148.2752715"/>
      <trkpt lat="-9.1285622" lon="148.2754423"/>
      <trkpt lat="-9.1284926" lon="148.2756073"/>
      <trkpt lat="-9.1284009" lon="148.2757619"/>
      <trkpt lat="-9.1282977" lon="148.2759105"/>
      <trkpt lat="-9.1281896" lon="148.2760556"/>
      <trkpt lat="-9.1281176" lon="148.2762115"/>
      <trkpt lat="-9.1280849" lon="148.2763403"/>
      <trkpt lat="-9.1280883" lon="148.2764400"/>
    </trkseg>
    <trkseg>
      <trkpt lat="-9.1281583" lon="148.2764850"/>
      <trkpt lat="-9.1280154" lon="148.2765642"/>
      <trkpt lat="-9.1278816" lon="148.2766685"/>
      <trkpt lat="-9.1277483" lon="148.2767707"/>
      <trkpt lat="-9.1276084" lon="148.2768609"/>
      <trkpt lat="-9.1275014" lon="148.2769678"/>
      <trkpt lat="-9.1274080" lon="148.2771069"/>
      <trkpt lat="-9.1273092" lon="148.2771972"/>
      <trkpt lat="-9.1271971" lon="148.2771801"/>
      <trkpt lat="-9.1270812" lon="148.2770771"/>
      <trkpt lat="-9.1269648" lon="148.2769619"/>
      <trkpt lat="-9.1268284" lon="148.2768557"/>
      <trkpt lat="-9.1267000" lon="148.2767405"/>
      <trkpt lat="-9.1265815" lon="148.2766184"/>
      <trkpt lat="-9.1264467" lon="148.2765447"/>
      <trkpt lat="-9.1262922" lon="148.2765423"/>
      <trkpt lat="-9.1261444" lon="148.2766239"/>
      <trkpt lat="-9.1260068" lon="148.2767263"/>
      <trkpt lat="-9.1258647" lon="148.2768097"/>
      <trkpt lat="-9.1257133" lon="148.2768057"/>
      <trkpt lat="-9.1255664" lon="148.2767329"/>
      <trkpt lat="-9.1254644" lon="148.2766032"/>
      <trkpt lat="-9.1253950" lon="148.2764600"/>
    </trkseg>
    <trkseg>
      <trkpt lat="-9.1280083" lon="148.2765050"/>
      <trkpt lat="-9.1280422" lon="148.2763469"/>
      <trkpt lat="-9.1280874" lon="148.2761859"/>
      <trkpt lat="-9.1281593" lon="148.2760273"/>
      <trkpt lat="-9.1282547" lon="148.2758804"/>
      <trkpt lat="-9.1283627" lon="148.2757362"/>
      <trkpt lat="-9.1284610" lon="148.2755864"/>
      <trkpt lat="-9.1285287" lon="148.2754222"/>
      <trkpt lat="-9.1285744" lon="148.2752491"/>
      <trkpt lat="-9.1285977" lon="148.2751145"/>
      <trkpt lat="-9.1286167" lon="148.2750250"/>
    </trkseg>
    <trkseg>
      <trkpt lat="-9.1365267" lon="148.2798317"/>
      <trkpt lat="-9.1363819" lon="148.2797381"/>
      <trkpt lat="-9.1362913" lon="148.2796381"/>
      <trkpt lat="-9.1362550" lon="148.2795317"/>
    </trkseg>
    <trkseg>
      <trkpt lat="-9.1363200" lon="148.2794650"/>
      <trkpt lat="-9.1363485" lon="148.2792929"/>
      <trkpt lat="-9.1363741" lon="148.2791452"/>
      <trkpt lat="-9.1363967" lon="148.2790217"/>
    </trkseg>
    <trkseg>
      <trkpt lat="-9.1364833" lon="148.2789867"/>
      <trkpt lat="-9.1364404" lon="148.2788164"/>
      <trkpt lat="-9.1363717" lon="148.2786554"/>
      <trkpt lat="-9.1362609" lon="148.2785245"/>
      <trkpt lat="-9.1361266" lon="148.2784219"/>
      <trkpt lat="-9.1359899" lon="148.2783239"/>
      <trkpt lat="-9.1358487" lon="148.2782267"/>
      <trkpt lat="-9.1357067" lon="148.2781333"/>
      <trkpt lat="-9.1355418" lon="148.2781061"/>
      <trkpt lat="-9.1353709" lon="148.2781005"/>
      <trkpt lat="-9.1352057" lon="148.2781117"/>
      <trkpt lat="-9.1350462" lon="148.2780699"/>
      <trkpt lat="-9.1349123" lon="148.2779871"/>
      <trkpt lat="-9.1348075" lon="148.2778494"/>
      <trkpt lat="-9.1347419" lon="148.2776864"/>
      <trkpt lat="-9.1346882" lon="148.2775167"/>
      <trkpt lat="-9.1346049" lon="148.2774021"/>
      <trkpt lat="-9.1344739" lon="148.2773332"/>
      <trkpt lat="-9.1343292" lon="148.2772844"/>
      <trkpt lat="-9.1341941" lon="148.2772060"/>
      <trkpt lat="-9.1340831" lon="148.2770983"/>
      <trkpt lat="-9.1339569" lon="148.2769942"/>
      <trkpt lat="-9.1338165" lon="148.2768982"/>
      <trkpt lat="-9.1336588" lon="148.2768184"/>
      <trkpt lat="-9.1335046" lon="148.2767311"/>
      <trkpt lat="-9.1333710" lon="148.2766172"/>
      <trkpt lat="-9.1332666" lon="148.2764742"/>
      <trkpt lat="-9.1331793" lon="148.2763200"/>
      <trkpt lat="-9.1330745" lon="148.2761861"/>
      <trkpt lat="-9.1329350" lon="148.2760899"/>
      <trkpt lat="-9.1327678" lon="148.2760234"/>
      <trkpt lat="-9.1325966" lon="148.2759662"/>
      <trkpt lat="-9.1324252" lon="148.2759106"/>
      <trkpt lat="-9.1322780" lon="148.2758633"/>
      <trkpt lat="-9.1321550" lon="148.2758233"/>
    </trkseg>
    <trkseg>
      <trkpt lat="-9.1253467" lon="148.2763967"/>
      <trkpt lat="-9.1252372" lon="148.2762714"/>
      <trkpt lat="-9.1250958" lon="148.2761985"/>
      <trkpt lat="-9.1249238" lon="148.2761660"/>
      <trkpt lat="-9.1247479" lon="148.2761458"/>
      <trkpt lat="-9.1245787" lon="148.2761530"/>
      <trkpt lat="-9.1244144" lon="148.2761973"/>
      <trkpt lat="-9.1242630" lon="148.2762909"/>
      <trkpt lat="-9.1241503" lon="148.2764127"/>
      <trkpt lat="-9.1240514" lon="148.2765422"/>
      <trkpt lat="-9.1239522" lon="148.2766699"/>
      <trkpt lat="-9.1238180" lon="148.2767631"/>
      <trkpt lat="-9.1236637" lon="148.2768228"/>
      <trkpt lat="-9.1235072" lon="148.2768160"/>
      <trkpt lat="-9.1233725" lon="148.2767373"/>
      <trkpt lat="-9.1232440" lon="148.2766324"/>
      <trkpt lat="-9.1231259" lon="148.2765078"/>
      <trkpt lat="-9.1229844" lon="148.2764215"/>
      <trkpt lat="-9.1228373" lon="148.2763676"/>
      <trkpt lat="-9.1226728" lon="148.2763445"/>
      <trkpt lat="-9.1225123" lon="148.2763689"/>
      <trkpt lat="-9.1223552" lon="148.2764052"/>
      <trkpt lat="-9.1221932" lon="148.2764657"/>
      <trkpt lat="-9.1220229" lon="148.2765011"/>
      <trkpt lat="-9.1218548" lon="148.2765367"/>
      <trkpt lat="-9.1217004" lon="148.2766025"/>
      <trkpt lat="-9.1215516" lon="148.2766871"/>
      <trkpt lat="-9.1213986" lon="148.2767688"/>
      <trkpt lat="-9.1212323" lon="148.2768250"/>
      <trkpt lat="-9.1210584" lon="148.2768567"/>
      <trkpt lat="-9.1208922" lon="148.2768407"/>
      <trkpt lat="-9.1207523" lon="148.2767691"/>
      <trkpt lat="-9.1206383" lon="148.2766500"/>
    </trkseg>
    <trkseg>
      <trkpt lat="-9.1206133" lon="148.2766717"/>
      <trkpt lat="-9.1204426" lon="148.2767237"/>
      <trkpt lat="-9.1202689" lon="148.2767665"/>
      <trkpt lat="-9.1201068" lon="148.2768281"/>
      <trkpt lat="-9.1199707" lon="148.2769295"/>
      <trkpt lat="-9.1198851" lon="148.2770783"/>
      <trkpt lat="-9.1198265" lon="148.2772444"/>
      <trkpt lat="-9.1197515" lon="148.2773894"/>
      <trkpt lat="-9.1196596" lon="148.2775280"/>
      <trkpt lat="-9.1195499" lon="148.2776550"/>
      <trkpt lat="-9.1194399" lon="148.2777849"/>
      <trkpt lat="-9.1193179" lon="148.2779058"/>
      <trkpt lat="-9.1191709" lon="148.2779795"/>
      <trkpt lat="-9.1190174" lon="148.2780185"/>
      <trkpt lat="-9.1188641" lon="148.2780175"/>
      <trkpt lat="-9.1187170" lon="148.2780140"/>
      <trkpt lat="-9.1185712" lon="148.2780040"/>
      <trkpt lat="-9.1184070" lon="148.2780061"/>
      <trkpt lat="-9.1182463" lon="148.2779795"/>
      <trkpt lat="-9.1181172" lon="148.2779099"/>
      <trkpt lat="-9.1179977" lon="148.2778615"/>
      <trkpt lat="-9.1178964" lon="148.2778880"/>
      <trkpt lat="-9.1177837" lon="148.2779517"/>
      <trkpt lat="-9.1176652" lon="148.2779705"/>
      <trkpt lat="-9.1175194" lon="148.2779444"/>
      <trkpt lat="-9.1173558" lon="148.2779613"/>
      <trkpt lat="-9.1171884" lon="148.2779747"/>
      <trkpt lat="-9.1170287" lon="148.2780154"/>
      <trkpt lat="-9.1168893" lon="148.2780064"/>
      <trkpt lat="-9.1167633" lon="148.2780521"/>
      <trkpt lat="-9.1166416" lon="148.2780530"/>
      <trkpt lat="-9.1164995" lon="148.2780718"/>
      <trkpt lat="-9.1164178" lon="148.2780882"/>
      <trkpt lat="-9.1163927" lon="148.2781772"/>
      <trkpt lat="-9.1164600" lon="148.2783152"/>
      <trkpt lat="-9.1165290" lon="148.2784688"/>
      <trkpt lat="-9.1165929" lon="148.2786306"/>
      <trkpt lat="-9.1166195" lon="148.2787714"/>
      <trkpt lat="-9.1166283" lon="148.2788800"/>
    </trkseg>
  </trk>
</gpx>
