<?xml version="1.0" encoding="UTF-8"?>
<gpx version="1.1" creator="MCA Maps — Managalas clan boundary survey"
     xmlns="http://www.topografix.com/GPX/1/1"
     xmlns:xsi="http://www.w3.org/2001/XMLSchema-instance"
     xsi:schemaLocation="http://www.topografix.com/GPX/1/1 http://www.topografix.com/GPX/1/1/gpx.xsd">
  <metadata>
    <name>Naharaura — clan land boundary</name>
    <desc>Naharaura, Zone 6. 32.6 km walked; 2.4 km still to walk in 2 gaps. 2 join(s) under the marking threshold are not shown.</desc>
    <time>2026-08-16T11:48:57Z</time>
  </metadata>
  <wpt lat="-9.0702453" lon="148.4231069">
    <name>GAP 1 OF 2 START</name>
    <desc>0.55 km not walked. This straight line is not a boundary — it joins the two ends so the shape can be closed on paper. Naharaura, Zone 6.</desc>
    <sym>Flag</sym>
  </wpt>
  <wpt lat="-9.0653273" lon="148.4237085">
    <name>GAP 1 OF 2 END</name>
    <desc>0.55 km not walked. This straight line is not a boundary — it joins the two ends so the shape can be closed on paper. Naharaura, Zone 6.</desc>
    <sym>Flag</sym>
  </wpt>
  <wpt lat="-9.0486483" lon="148.4216619">
    <name>GAP 2 OF 2 START</name>
    <desc>1.87 km not walked. This straight line is not a boundary — it joins the two ends so the shape can be closed on paper. Naharaura, Zone 6.</desc>
    <sym>Flag</sym>
  </wpt>
  <wpt lat="-9.0550913" lon="148.4059081">
    <name>GAP 2 OF 2 END</name>
    <desc>1.87 km not walked. This straight line is not a boundary — it joins the two ends so the shape can be closed on paper. Naharaura, Zone 6.</desc>
    <sym>Flag</sym>
  </wpt>
  <trk>
    <name>GAP 1 OF 2 - NOT WALKED - 0.55 km</name>
    <desc>0.55 km not walked. This straight line is not a boundary — it joins the two ends so the shape can be closed on paper. Naharaura, Zone 6.</desc>
    <type>not-walked</type>
    <trkseg>
      <trkpt lat="-9.0702453" lon="148.4231069"/>
      <trkpt lat="-9.0653273" lon="148.4237085"/>
    </trkseg>
  </trk>
  <trk>
    <name>GAP 2 OF 2 - NOT WALKED - 1.87 km</name>
    <desc>1.87 km not walked. This straight line is not a boundary — it joins the two ends so the shape can be closed on paper. Naharaura, Zone 6.</desc>
    <type>not-walked</type>
    <trkseg>
      <trkpt lat="-9.0486483" lon="148.4216619"/>
      <trkpt lat="-9.0550913" lon="148.4059081"/>
    </trkseg>
  </trk>
  <trk>
    <name>Naharaura - Zechariah Sasavo</name>
    <desc>Walked by Zechariah Sasavo. 32.6 km, 2 track(s), recorded on the ground. Naharaura, Zone 6.</desc>
    <type>walked-boundary</type>
    <trkseg>
      <trkpt lat="-9.0550913" lon="148.4059081"/>
      <trkpt lat="-9.0549776" lon="148.4060403"/>
      <trkpt lat="-9.0548484" lon="148.4061547"/>
      <trkpt lat="-9.0546998" lon="148.4062429"/>
      <trkpt lat="-9.0545832" lon="148.4063592"/>
      <trkpt lat="-9.0544921" lon="148.4064959"/>
      <trkpt lat="-9.0544674" lon="148.4066587"/>
      <trkpt lat="-9.0545115" lon="148.4067888"/>
      <trkpt lat="-9.0546229" lon="148.4069028"/>
      <trkpt lat="-9.0547755" lon="148.4069784"/>
      <trkpt lat="-9.0549245" lon="148.4070386"/>
      <trkpt lat="-9.0550825" lon="148.4070738"/>
      <trkpt lat="-9.0552419" lon="148.4070870"/>
      <trkpt lat="-9.0553970" lon="148.4071240"/>
      <trkpt lat="-9.0555165" lon="148.4072052"/>
      <trkpt lat="-9.0556104" lon="148.4073443"/>
      <trkpt lat="-9.0556782" lon="148.4075070"/>
      <trkpt lat="-9.0557796" lon="148.4076372"/>
      <trkpt lat="-9.0558740" lon="148.4077568"/>
      <trkpt lat="-9.0559992" lon="148.4078385"/>
      <trkpt lat="-9.0561042" lon="148.4079393"/>
      <trkpt lat="-9.0562372" lon="148.4080143"/>
      <trkpt lat="-9.0563584" lon="148.4081076"/>
      <trkpt lat="-9.0565026" lon="148.4081515"/>
      <trkpt lat="-9.0565888" lon="148.4082367"/>
      <trkpt lat="-9.0566680" lon="148.4083328"/>
      <trkpt lat="-9.0566840" lon="148.4084904"/>
      <trkpt lat="-9.0567066" lon="148.4086521"/>
      <trkpt lat="-9.0567161" lon="148.4088224"/>
      <trkpt lat="-9.0567427" lon="148.4089951"/>
      <trkpt lat="-9.0567710" lon="148.4091705"/>
      <trkpt lat="-9.0568186" lon="148.4093315"/>
      <trkpt lat="-9.0568863" lon="148.4094876"/>
      <trkpt lat="-9.0569757" lon="148.4096376"/>
      <trkpt lat="-9.0570736" lon="148.4097853"/>
      <trkpt lat="-9.0571544" lon="148.4099380"/>
      <trkpt lat="-9.0571842" lon="148.4100891"/>
      <trkpt lat="-9.0571344" lon="148.4102453"/>
      <trkpt lat="-9.0570719" lon="148.4103998"/>
      <trkpt lat="-9.0570193" lon="148.4105513"/>
      <trkpt lat="-9.0569553" lon="148.4106928"/>
      <trkpt lat="-9.0568418" lon="148.4108101"/>
      <trkpt lat="-9.0566991" lon="148.4109116"/>
      <trkpt lat="-9.0565638" lon="148.4110227"/>
      <trkpt lat="-9.0564315" lon="148.4111351"/>
      <trkpt lat="-9.0563010" lon="148.4112511"/>
      <trkpt lat="-9.0561780" lon="148.4113706"/>
      <trkpt lat="-9.0560956" lon="148.4115162"/>
      <trkpt lat="-9.0560160" lon="148.4116688"/>
      <trkpt lat="-9.0559430" lon="148.4118229"/>
      <trkpt lat="-9.0559038" lon="148.4119598"/>
      <trkpt lat="-9.0558861" lon="148.4121086"/>
      <trkpt lat="-9.0558548" lon="148.4122506"/>
      <trkpt lat="-9.0557486" lon="148.4123794"/>
      <trkpt lat="-9.0556045" lon="148.4124728"/>
      <trkpt lat="-9.0554666" lon="148.4125674"/>
      <trkpt lat="-9.0553520" lon="148.4126828"/>
      <trkpt lat="-9.0552591" lon="148.4128253"/>
      <trkpt lat="-9.0551514" lon="148.4129219"/>
      <trkpt lat="-9.0550209" lon="148.4129918"/>
      <trkpt lat="-9.0548748" lon="148.4130158"/>
      <trkpt lat="-9.0547196" lon="148.4130517"/>
      <trkpt lat="-9.0545951" lon="148.4131223"/>
      <trkpt lat="-9.0544920" lon="148.4132332"/>
      <trkpt lat="-9.0543945" lon="148.4133581"/>
      <trkpt lat="-9.0542577" lon="148.4134264"/>
      <trkpt lat="-9.0541095" lon="148.4134822"/>
      <trkpt lat="-9.0539759" lon="148.4135553"/>
      <trkpt lat="-9.0538805" lon="148.4136752"/>
      <trkpt lat="-9.0538043" lon="148.4138191"/>
      <trkpt lat="-9.0537287" lon="148.4139696"/>
      <trkpt lat="-9.0536305" lon="148.4141131"/>
      <trkpt lat="-9.0535317" lon="148.4142524"/>
      <trkpt lat="-9.0534394" lon="148.4143815"/>
      <trkpt lat="-9.0533757" lon="148.4145233"/>
      <trkpt lat="-9.0532914" lon="148.4146573"/>
      <trkpt lat="-9.0532721" lon="148.4147893"/>
      <trkpt lat="-9.0533087" lon="148.4149086"/>
      <trkpt lat="-9.0534205" lon="148.4150353"/>
      <trkpt lat="-9.0535286" lon="148.4151766"/>
      <trkpt lat="-9.0536132" lon="148.4153329"/>
      <trkpt lat="-9.0537027" lon="148.4154852"/>
      <trkpt lat="-9.0537909" lon="148.4156380"/>
      <trkpt lat="-9.0538763" lon="148.4157929"/>
      <trkpt lat="-9.0539454" lon="148.4159593"/>
      <trkpt lat="-9.0540138" lon="148.4161261"/>
      <trkpt lat="-9.0540794" lon="148.4162933"/>
      <trkpt lat="-9.0541239" lon="148.4164645"/>
      <trkpt lat="-9.0541379" lon="148.4166434"/>
      <trkpt lat="-9.0541195" lon="148.4168204"/>
      <trkpt lat="-9.0541114" lon="148.4169963"/>
      <trkpt lat="-9.0540958" lon="148.4171675"/>
      <trkpt lat="-9.0541049" lon="148.4173416"/>
      <trkpt lat="-9.0541358" lon="148.4175022"/>
      <trkpt lat="-9.0542152" lon="148.4176491"/>
      <trkpt lat="-9.0543148" lon="148.4177904"/>
      <trkpt lat="-9.0544154" lon="148.4179348"/>
      <trkpt lat="-9.0544652" lon="148.4180976"/>
      <trkpt lat="-9.0544903" lon="148.4182663"/>
      <trkpt lat="-9.0545015" lon="148.4184403"/>
      <trkpt lat="-9.0545148" lon="148.4186140"/>
      <trkpt lat="-9.0545234" lon="148.4187880"/>
      <trkpt lat="-9.0545025" lon="148.4189673"/>
      <trkpt lat="-9.0544697" lon="148.4191429"/>
      <trkpt lat="-9.0544393" lon="148.4193156"/>
      <trkpt lat="-9.0544147" lon="148.4194875"/>
      <trkpt lat="-9.0544137" lon="148.4196631"/>
      <trkpt lat="-9.0543983" lon="148.4198383"/>
      <trkpt lat="-9.0544059" lon="148.4200087"/>
      <trkpt lat="-9.0544459" lon="148.4201680"/>
      <trkpt lat="-9.0545257" lon="148.4203254"/>
      <trkpt lat="-9.0546064" lon="148.4204841"/>
      <trkpt lat="-9.0546869" lon="148.4206414"/>
      <trkpt lat="-9.0547574" lon="148.4207944"/>
      <trkpt lat="-9.0548060" lon="148.4209524"/>
      <trkpt lat="-9.0548186" lon="148.4211237"/>
      <trkpt lat="-9.0547830" lon="148.4212890"/>
      <trkpt lat="-9.0547058" lon="148.4214338"/>
      <trkpt lat="-9.0545773" lon="148.4215455"/>
      <trkpt lat="-9.0545129" lon="148.4216591"/>
      <trkpt lat="-9.0545001" lon="148.4217914"/>
      <trkpt lat="-9.0545286" lon="148.4218493"/>
      <trkpt lat="-9.0545286" lon="148.4218136"/>
      <trkpt lat="-9.0544696" lon="148.4216873"/>
      <trkpt lat="-9.0543699" lon="148.4215770"/>
      <trkpt lat="-9.0542212" lon="148.4214769"/>
      <trkpt lat="-9.0540635" lon="148.4214093"/>
      <trkpt lat="-9.0539015" lon="148.4213962"/>
      <trkpt lat="-9.0537444" lon="148.4213871"/>
      <trkpt lat="-9.0536058" lon="148.4213449"/>
    </trkseg>
    <trkseg>
      <trkpt lat="-9.0487343" lon="148.4221368"/>
      <trkpt lat="-9.0486285" lon="148.4222844"/>
      <trkpt lat="-9.0485227" lon="148.4224319"/>
      <trkpt lat="-9.0484170" lon="148.4225795"/>
      <trkpt lat="-9.0483112" lon="148.4227270"/>
      <trkpt lat="-9.0482054" lon="148.4228746"/>
      <trkpt lat="-9.0480996" lon="148.4230222"/>
      <trkpt lat="-9.0479938" lon="148.4231697"/>
      <trkpt lat="-9.0478880" lon="148.4233173"/>
      <trkpt lat="-9.0477822" lon="148.4234648"/>
      <trkpt lat="-9.0476765" lon="148.4236124"/>
      <trkpt lat="-9.0475707" lon="148.4237600"/>
      <trkpt lat="-9.0474649" lon="148.4239075"/>
      <trkpt lat="-9.0473591" lon="148.4240551"/>
      <trkpt lat="-9.0472533" lon="148.4242026"/>
      <trkpt lat="-9.0472103" lon="148.4242611"/>
      <trkpt lat="-9.0472370" lon="148.4242206"/>
      <trkpt lat="-9.0473333" lon="148.4240811"/>
      <trkpt lat="-9.0474366" lon="148.4239318"/>
      <trkpt lat="-9.0475399" lon="148.4237825"/>
      <trkpt lat="-9.0476432" lon="148.4236331"/>
      <trkpt lat="-9.0477465" lon="148.4234838"/>
      <trkpt lat="-9.0478498" lon="148.4233345"/>
      <trkpt lat="-9.0479531" lon="148.4231852"/>
      <trkpt lat="-9.0480564" lon="148.4230358"/>
      <trkpt lat="-9.0481597" lon="148.4228865"/>
      <trkpt lat="-9.0482630" lon="148.4227372"/>
      <trkpt lat="-9.0483663" lon="148.4225878"/>
      <trkpt lat="-9.0484696" lon="148.4224385"/>
      <trkpt lat="-9.0485729" lon="148.4222892"/>
      <trkpt lat="-9.0486578" lon="148.4221364"/>
      <trkpt lat="-9.0486942" lon="148.4219744"/>
      <trkpt lat="-9.0486849" lon="148.4218150"/>
      <trkpt lat="-9.0486483" lon="148.4216619"/>
    </trkseg>
    <trkseg>
      <trkpt lat="-9.0486202" lon="148.4224266"/>
      <trkpt lat="-9.0485284" lon="148.4225833"/>
      <trkpt lat="-9.0484366" lon="148.4227401"/>
      <trkpt lat="-9.0483497" lon="148.4228866"/>
      <trkpt lat="-9.0483155" lon="148.4229244"/>
      <trkpt lat="-9.0483339" lon="148.4228535"/>
      <trkpt lat="-9.0483999" lon="148.4226841"/>
      <trkpt lat="-9.0484659" lon="148.4225147"/>
      <trkpt lat="-9.0485319" lon="148.4223454"/>
      <trkpt lat="-9.0485680" lon="148.4222631"/>
      <trkpt lat="-9.0485629" lon="148.4222614"/>
      <trkpt lat="-9.0485418" lon="148.4222705"/>
      <trkpt lat="-9.0485281" lon="148.4221883"/>
      <trkpt lat="-9.0485332" lon="148.4220214"/>
      <trkpt lat="-9.0485387" lon="148.4218979"/>
      <trkpt lat="-9.0485580" lon="148.4218942"/>
      <trkpt lat="-9.0485912" lon="148.4220102"/>
      <trkpt lat="-9.0486387" lon="148.4221428"/>
      <trkpt lat="-9.0486967" lon="148.4221664"/>
      <trkpt lat="-9.0486970" lon="148.4220907"/>
      <trkpt lat="-9.0486343" lon="148.4219576"/>
      <trkpt lat="-9.0484966" lon="148.4218425"/>
      <trkpt lat="-9.0483536" lon="148.4217333"/>
      <trkpt lat="-9.0482316" lon="148.4216471"/>
      <trkpt lat="-9.0481394" lon="148.4215728"/>
    </trkseg>
    <trkseg>
      <trkpt lat="-9.0479501" lon="148.4218290"/>
      <trkpt lat="-9.0478043" lon="148.4217644"/>
      <trkpt lat="-9.0476542" lon="148.4216985"/>
      <trkpt lat="-9.0475036" lon="148.4216209"/>
      <trkpt lat="-9.0473699" lon="148.4215065"/>
      <trkpt lat="-9.0472321" lon="148.4213985"/>
      <trkpt lat="-9.0470828" lon="148.4213426"/>
      <trkpt lat="-9.0469222" lon="148.4213609"/>
      <trkpt lat="-9.0467572" lon="148.4214205"/>
      <trkpt lat="-9.0465927" lon="148.4214837"/>
      <trkpt lat="-9.0464210" lon="148.4215258"/>
      <trkpt lat="-9.0462478" lon="148.4215618"/>
      <trkpt lat="-9.0460698" lon="148.4215813"/>
      <trkpt lat="-9.0458941" lon="148.4216057"/>
      <trkpt lat="-9.0457375" lon="148.4216647"/>
      <trkpt lat="-9.0456018" lon="148.4217713"/>
      <trkpt lat="-9.0454941" lon="148.4219088"/>
      <trkpt lat="-9.0453806" lon="148.4220391"/>
      <trkpt lat="-9.0452587" lon="148.4221601"/>
      <trkpt lat="-9.0451139" lon="148.4222640"/>
      <trkpt lat="-9.0449685" lon="148.4223669"/>
      <trkpt lat="-9.0448246" lon="148.4224717"/>
      <trkpt lat="-9.0446772" lon="148.4225713"/>
      <trkpt lat="-9.0445259" lon="148.4226640"/>
      <trkpt lat="-9.0443701" lon="148.4227488"/>
      <trkpt lat="-9.0442228" lon="148.4228476"/>
      <trkpt lat="-9.0440778" lon="148.4229514"/>
      <trkpt lat="-9.0439402" lon="148.4230629"/>
      <trkpt lat="-9.0438276" lon="148.4231931"/>
      <trkpt lat="-9.0437537" lon="148.4233459"/>
      <trkpt lat="-9.0437428" lon="148.4235179"/>
      <trkpt lat="-9.0437734" lon="148.4236909"/>
      <trkpt lat="-9.0438320" lon="148.4238630"/>
      <trkpt lat="-9.0438940" lon="148.4240338"/>
      <trkpt lat="-9.0439603" lon="148.4242030"/>
      <trkpt lat="-9.0440454" lon="148.4243614"/>
      <trkpt lat="-9.0441449" lon="148.4245111"/>
      <trkpt lat="-9.0442607" lon="148.4246497"/>
      <trkpt lat="-9.0443630" lon="148.4247969"/>
      <trkpt lat="-9.0444536" lon="148.4249517"/>
      <trkpt lat="-9.0445262" lon="148.4251182"/>
      <trkpt lat="-9.0445958" lon="148.4252860"/>
      <trkpt lat="-9.0446644" lon="148.4254542"/>
      <trkpt lat="-9.0447321" lon="148.4256227"/>
      <trkpt lat="-9.0447881" lon="148.4257940"/>
      <trkpt lat="-9.0448262" lon="148.4259703"/>
      <trkpt lat="-9.0448561" lon="148.4261491"/>
      <trkpt lat="-9.0448927" lon="148.4263265"/>
      <trkpt lat="-9.0449515" lon="148.4264968"/>
      <trkpt lat="-9.0450269" lon="148.4266609"/>
      <trkpt lat="-9.0451151" lon="148.4268197"/>
      <trkpt lat="-9.0452021" lon="148.4269791"/>
      <trkpt lat="-9.0452868" lon="148.4271398"/>
      <trkpt lat="-9.0453642" lon="148.4273039"/>
      <trkpt lat="-9.0454278" lon="148.4274713"/>
      <trkpt lat="-9.0455053" lon="148.4276289"/>
      <trkpt lat="-9.0456041" lon="148.4277715"/>
      <trkpt lat="-9.0457400" lon="148.4278878"/>
      <trkpt lat="-9.0458695" lon="148.4280087"/>
      <trkpt lat="-9.0459945" lon="148.4281336"/>
      <trkpt lat="-9.0461069" lon="148.4282726"/>
      <trkpt lat="-9.0462116" lon="148.4284092"/>
      <trkpt lat="-9.0463337" lon="148.4285140"/>
      <trkpt lat="-9.0464521" lon="148.4286222"/>
      <trkpt lat="-9.0465731" lon="148.4287367"/>
      <trkpt lat="-9.0466831" lon="148.4288732"/>
      <trkpt lat="-9.0468168" lon="148.4289719"/>
      <trkpt lat="-9.0469729" lon="148.4290476"/>
      <trkpt lat="-9.0471313" lon="148.4291237"/>
      <trkpt lat="-9.0472841" lon="148.4292105"/>
      <trkpt lat="-9.0474251" lon="148.4293091"/>
      <trkpt lat="-9.0475718" lon="148.4293993"/>
      <trkpt lat="-9.0477218" lon="148.4294665"/>
      <trkpt lat="-9.0478914" lon="148.4294937"/>
      <trkpt lat="-9.0480632" lon="148.4295158"/>
      <trkpt lat="-9.0482271" lon="148.4295755"/>
      <trkpt lat="-9.0483862" lon="148.4296416"/>
      <trkpt lat="-9.0485496" lon="148.4296919"/>
      <trkpt lat="-9.0487243" lon="148.4297116"/>
      <trkpt lat="-9.0489026" lon="148.4297360"/>
      <trkpt lat="-9.0490756" lon="148.4297794"/>
      <trkpt lat="-9.0492467" lon="148.4298271"/>
      <trkpt lat="-9.0494048" lon="148.4298258"/>
      <trkpt lat="-9.0495424" lon="148.4297516"/>
      <trkpt lat="-9.0496570" lon="148.4296223"/>
      <trkpt lat="-9.0497757" lon="148.4295033"/>
      <trkpt lat="-9.0499184" lon="148.4294269"/>
      <trkpt lat="-9.0500865" lon="148.4293980"/>
      <trkpt lat="-9.0502629" lon="148.4293861"/>
      <trkpt lat="-9.0504270" lon="148.4293401"/>
      <trkpt lat="-9.0505752" lon="148.4292516"/>
      <trkpt lat="-9.0507082" lon="148.4291295"/>
      <trkpt lat="-9.0508408" lon="148.4290083"/>
      <trkpt lat="-9.0509810" lon="148.4288990"/>
      <trkpt lat="-9.0511356" lon="148.4288490"/>
      <trkpt lat="-9.0512586" lon="148.4288460"/>
      <trkpt lat="-9.0513208" lon="148.4288260"/>
      <trkpt lat="-9.0513523" lon="148.4287348"/>
      <trkpt lat="-9.0514089" lon="148.4285918"/>
      <trkpt lat="-9.0515330" lon="148.4284858"/>
      <trkpt lat="-9.0516808" lon="148.4284038"/>
      <trkpt lat="-9.0518376" lon="148.4283298"/>
      <trkpt lat="-9.0519749" lon="148.4282186"/>
      <trkpt lat="-9.0521157" lon="148.4281138"/>
      <trkpt lat="-9.0522679" lon="148.4280387"/>
      <trkpt lat="-9.0524313" lon="148.4280426"/>
      <trkpt lat="-9.0525935" lon="148.4280975"/>
      <trkpt lat="-9.0527412" lon="148.4281764"/>
      <trkpt lat="-9.0528875" lon="148.4282546"/>
      <trkpt lat="-9.0530306" lon="148.4283410"/>
      <trkpt lat="-9.0531809" lon="148.4284369"/>
      <trkpt lat="-9.0533227" lon="148.4285449"/>
      <trkpt lat="-9.0534647" lon="148.4286526"/>
      <trkpt lat="-9.0536052" lon="148.4287647"/>
      <trkpt lat="-9.0537483" lon="148.4288736"/>
      <trkpt lat="-9.0538909" lon="148.4289824"/>
      <trkpt lat="-9.0540232" lon="148.4291000"/>
      <trkpt lat="-9.0541350" lon="148.4292323"/>
      <trkpt lat="-9.0542177" lon="148.4293870"/>
      <trkpt lat="-9.0542653" lon="148.4295590"/>
      <trkpt lat="-9.0542879" lon="148.4297336"/>
      <trkpt lat="-9.0542848" lon="148.4299113"/>
      <trkpt lat="-9.0542963" lon="148.4300861"/>
      <trkpt lat="-9.0543439" lon="148.4302522"/>
      <trkpt lat="-9.0544151" lon="148.4304154"/>
      <trkpt lat="-9.0544921" lon="148.4305751"/>
      <trkpt lat="-9.0545661" lon="148.4307365"/>
      <trkpt lat="-9.0546454" lon="148.4308962"/>
      <trkpt lat="-9.0547440" lon="148.4310358"/>
      <trkpt lat="-9.0548604" lon="148.4311535"/>
      <trkpt lat="-9.0550061" lon="148.4311896"/>
      <trkpt lat="-9.0551177" lon="148.4311385"/>
      <trkpt lat="-9.0551481" lon="148.4310148"/>
      <trkpt lat="-9.0551361" lon="148.4308575"/>
      <trkpt lat="-9.0550855" lon="148.4307077"/>
      <trkpt lat="-9.0550472" lon="148.4305452"/>
      <trkpt lat="-9.0549948" lon="148.4303834"/>
      <trkpt lat="-9.0550036" lon="148.4302325"/>
      <trkpt lat="-9.0550499" lon="148.4301077"/>
      <trkpt lat="-9.0551135" lon="148.4299852"/>
      <trkpt lat="-9.0551871" lon="148.4298674"/>
      <trkpt lat="-9.0552739" lon="148.4297273"/>
      <trkpt lat="-9.0553618" lon="148.4295880"/>
      <trkpt lat="-9.0554591" lon="148.4294623"/>
      <trkpt lat="-9.0555314" lon="148.4293341"/>
      <trkpt lat="-9.0555597" lon="148.4292105"/>
      <trkpt lat="-9.0555411" lon="148.4290449"/>
      <trkpt lat="-9.0554691" lon="148.4289027"/>
      <trkpt lat="-9.0553938" lon="148.4287623"/>
      <trkpt lat="-9.0553246" lon="148.4286277"/>
      <trkpt lat="-9.0552874" lon="148.4284859"/>
      <trkpt lat="-9.0552410" lon="148.4283611"/>
      <trkpt lat="-9.0551574" lon="148.4282563"/>
      <trkpt lat="-9.0550999" lon="148.4281353"/>
      <trkpt lat="-9.0551306" lon="148.4280177"/>
      <trkpt lat="-9.0552116" lon="148.4278837"/>
      <trkpt lat="-9.0553232" lon="148.4277587"/>
      <trkpt lat="-9.0554279" lon="148.4276361"/>
      <trkpt lat="-9.0555574" lon="148.4275889"/>
      <trkpt lat="-9.0556710" lon="148.4275907"/>
      <trkpt lat="-9.0557702" lon="148.4276231"/>
    </trkseg>
    <trkseg>
      <trkpt lat="-9.0558678" lon="148.4276038"/>
      <trkpt lat="-9.0560470" lon="148.4275867"/>
      <trkpt lat="-9.0562267" lon="148.4275845"/>
      <trkpt lat="-9.0564041" lon="148.4276108"/>
      <trkpt lat="-9.0565769" lon="148.4276584"/>
      <trkpt lat="-9.0567476" lon="148.4277174"/>
      <trkpt lat="-9.0569196" lon="148.4277716"/>
      <trkpt lat="-9.0570954" lon="148.4278132"/>
      <trkpt lat="-9.0572734" lon="148.4278381"/>
      <trkpt lat="-9.0574514" lon="148.4278562"/>
      <trkpt lat="-9.0576280" lon="148.4278668"/>
      <trkpt lat="-9.0578035" lon="148.4278878"/>
      <trkpt lat="-9.0579785" lon="148.4279120"/>
      <trkpt lat="-9.0581538" lon="148.4279371"/>
      <trkpt lat="-9.0583280" lon="148.4279587"/>
      <trkpt lat="-9.0585032" lon="148.4279709"/>
      <trkpt lat="-9.0586770" lon="148.4279688"/>
      <trkpt lat="-9.0588463" lon="148.4279870"/>
      <trkpt lat="-9.0590141" lon="148.4280176"/>
      <trkpt lat="-9.0591825" lon="148.4280713"/>
      <trkpt lat="-9.0593558" lon="148.4280821"/>
      <trkpt lat="-9.0595098" lon="148.4280498"/>
      <trkpt lat="-9.0596647" lon="148.4279942"/>
      <trkpt lat="-9.0598125" lon="148.4279252"/>
      <trkpt lat="-9.0599791" lon="148.4278688"/>
      <trkpt lat="-9.0601407" lon="148.4277946"/>
      <trkpt lat="-9.0603056" lon="148.4277235"/>
      <trkpt lat="-9.0604719" lon="148.4276554"/>
      <trkpt lat="-9.0606216" lon="148.4275711"/>
      <trkpt lat="-9.0607742" lon="148.4275205"/>
      <trkpt lat="-9.0609239" lon="148.4274672"/>
      <trkpt lat="-9.0610841" lon="148.4274266"/>
      <trkpt lat="-9.0612343" lon="148.4273511"/>
      <trkpt lat="-9.0613863" lon="148.4272785"/>
      <trkpt lat="-9.0615479" lon="148.4272278"/>
      <trkpt lat="-9.0617098" lon="148.4271673"/>
      <trkpt lat="-9.0618656" lon="148.4270897"/>
      <trkpt lat="-9.0619728" lon="148.4269631"/>
      <trkpt lat="-9.0620762" lon="148.4268607"/>
      <trkpt lat="-9.0621258" lon="148.4267319"/>
      <trkpt lat="-9.0622005" lon="148.4266128"/>
      <trkpt lat="-9.0622765" lon="148.4264671"/>
      <trkpt lat="-9.0623856" lon="148.4263427"/>
      <trkpt lat="-9.0624912" lon="148.4262304"/>
    </trkseg>
    <trkseg>
      <trkpt lat="-9.0625896" lon="148.4262515"/>
      <trkpt lat="-9.0627658" lon="148.4262526"/>
      <trkpt lat="-9.0629283" lon="148.4262067"/>
      <trkpt lat="-9.0630811" lon="148.4261198"/>
      <trkpt lat="-9.0632202" lon="148.4260090"/>
      <trkpt lat="-9.0633502" lon="148.4258910"/>
      <trkpt lat="-9.0634822" lon="148.4257747"/>
      <trkpt lat="-9.0636007" lon="148.4256500"/>
      <trkpt lat="-9.0636541" lon="148.4255238"/>
      <trkpt lat="-9.0636278" lon="148.4253833"/>
      <trkpt lat="-9.0635981" lon="148.4252632"/>
      <trkpt lat="-9.0636483" lon="148.4251593"/>
      <trkpt lat="-9.0637564" lon="148.4250495"/>
      <trkpt lat="-9.0638870" lon="148.4249456"/>
      <trkpt lat="-9.0640211" lon="148.4248475"/>
      <trkpt lat="-9.0641767" lon="148.4247711"/>
      <trkpt lat="-9.0643414" lon="148.4247103"/>
      <trkpt lat="-9.0645094" lon="148.4246598"/>
      <trkpt lat="-9.0646770" lon="148.4246073"/>
      <trkpt lat="-9.0648173" lon="148.4245090"/>
      <trkpt lat="-9.0649229" lon="148.4243709"/>
      <trkpt lat="-9.0650078" lon="148.4242123"/>
      <trkpt lat="-9.0650780" lon="148.4240475"/>
      <trkpt lat="-9.0651087" lon="148.4238861"/>
      <trkpt lat="-9.0651085" lon="148.4237186"/>
      <trkpt lat="-9.0650735" lon="148.4235529"/>
      <trkpt lat="-9.0650836" lon="148.4233876"/>
      <trkpt lat="-9.0651373" lon="148.4233008"/>
      <trkpt lat="-9.0652543" lon="148.4233057"/>
      <trkpt lat="-9.0653526" lon="148.4234200"/>
      <trkpt lat="-9.0653839" lon="148.4235578"/>
      <trkpt lat="-9.0653634" lon="148.4236612"/>
      <trkpt lat="-9.0653273" lon="148.4237085"/>
    </trkseg>
    <trkseg>
      <trkpt lat="-9.0681696" lon="148.4245648"/>
      <trkpt lat="-9.0682488" lon="148.4246156"/>
    </trkseg>
    <trkseg>
      <trkpt lat="-9.0683288" lon="148.4246632"/>
      <trkpt lat="-9.0684906" lon="148.4247273"/>
      <trkpt lat="-9.0686265" lon="148.4248224"/>
      <trkpt lat="-9.0687154" lon="148.4249537"/>
      <trkpt lat="-9.0688101" lon="148.4250808"/>
      <trkpt lat="-9.0689135" lon="148.4252047"/>
      <trkpt lat="-9.0689821" lon="148.4253285"/>
      <trkpt lat="-9.0689571" lon="148.4254636"/>
      <trkpt lat="-9.0689173" lon="148.4255993"/>
      <trkpt lat="-9.0689489" lon="148.4257127"/>
      <trkpt lat="-9.0690556" lon="148.4258060"/>
      <trkpt lat="-9.0691896" lon="148.4258757"/>
      <trkpt lat="-9.0693085" lon="148.4259658"/>
      <trkpt lat="-9.0694299" lon="148.4260818"/>
      <trkpt lat="-9.0694873" lon="148.4262218"/>
      <trkpt lat="-9.0695682" lon="148.4263299"/>
      <trkpt lat="-9.0696355" lon="148.4264115"/>
      <trkpt lat="-9.0696604" lon="148.4264694"/>
      <trkpt lat="-9.0695836" lon="148.4265500"/>
      <trkpt lat="-9.0694710" lon="148.4266661"/>
      <trkpt lat="-9.0694543" lon="148.4268046"/>
      <trkpt lat="-9.0695211" lon="148.4269500"/>
      <trkpt lat="-9.0696338" lon="148.4270857"/>
      <trkpt lat="-9.0696556" lon="148.4272166"/>
      <trkpt lat="-9.0696277" lon="148.4273256"/>
      <trkpt lat="-9.0695556" lon="148.4274378"/>
      <trkpt lat="-9.0695552" lon="148.4275446"/>
      <trkpt lat="-9.0696177" lon="148.4276478"/>
      <trkpt lat="-9.0697459" lon="148.4277267"/>
      <trkpt lat="-9.0698661" lon="148.4278002"/>
      <trkpt lat="-9.0699119" lon="148.4278929"/>
      <trkpt lat="-9.0699643" lon="148.4279582"/>
      <trkpt lat="-9.0700544" lon="148.4280241"/>
      <trkpt lat="-9.0701834" lon="148.4281062"/>
      <trkpt lat="-9.0702829" lon="148.4282399"/>
      <trkpt lat="-9.0703796" lon="148.4283742"/>
      <trkpt lat="-9.0705182" lon="148.4284646"/>
      <trkpt lat="-9.0706788" lon="148.4285295"/>
      <trkpt lat="-9.0708437" lon="148.4285895"/>
      <trkpt lat="-9.0709881" lon="148.4286611"/>
      <trkpt lat="-9.0710987" lon="148.4287651"/>
      <trkpt lat="-9.0712019" lon="148.4288650"/>
      <trkpt lat="-9.0713211" lon="148.4289212"/>
      <trkpt lat="-9.0714592" lon="148.4289233"/>
      <trkpt lat="-9.0715807" lon="148.4288545"/>
      <trkpt lat="-9.0716890" lon="148.4287611"/>
      <trkpt lat="-9.0718139" lon="148.4286482"/>
      <trkpt lat="-9.0719234" lon="148.4286379"/>
      <trkpt lat="-9.0719720" lon="148.4287236"/>
      <trkpt lat="-9.0719305" lon="148.4288722"/>
      <trkpt lat="-9.0718589" lon="148.4290276"/>
      <trkpt lat="-9.0717942" lon="148.4291812"/>
      <trkpt lat="-9.0717536" lon="148.4293407"/>
      <trkpt lat="-9.0717267" lon="148.4294984"/>
      <trkpt lat="-9.0717312" lon="148.4296640"/>
      <trkpt lat="-9.0717895" lon="148.4298136"/>
      <trkpt lat="-9.0719008" lon="148.4298804"/>
      <trkpt lat="-9.0720355" lon="148.4298460"/>
      <trkpt lat="-9.0721618" lon="148.4297244"/>
      <trkpt lat="-9.0722723" lon="148.4295976"/>
      <trkpt lat="-9.0723687" lon="148.4295573"/>
      <trkpt lat="-9.0724689" lon="148.4296162"/>
      <trkpt lat="-9.0725670" lon="148.4297562"/>
      <trkpt lat="-9.0726792" lon="148.4298946"/>
      <trkpt lat="-9.0728047" lon="148.4300143"/>
      <trkpt lat="-9.0729481" lon="148.4300629"/>
      <trkpt lat="-9.0730783" lon="148.4300199"/>
      <trkpt lat="-9.0731996" lon="148.4299030"/>
      <trkpt lat="-9.0732997" lon="148.4297565"/>
      <trkpt lat="-9.0734000" lon="148.4296071"/>
      <trkpt lat="-9.0735039" lon="148.4294632"/>
      <trkpt lat="-9.0735554" lon="148.4293272"/>
      <trkpt lat="-9.0735255" lon="148.4292152"/>
      <trkpt lat="-9.0733924" lon="148.4291331"/>
      <trkpt lat="-9.0732505" lon="148.4290649"/>
      <trkpt lat="-9.0731423" lon="148.4290169"/>
      <trkpt lat="-9.0730472" lon="148.4289435"/>
      <trkpt lat="-9.0730125" lon="148.4288523"/>
      <trkpt lat="-9.0729445" lon="148.4287604"/>
      <trkpt lat="-9.0728843" lon="148.4286801"/>
      <trkpt lat="-9.0727822" lon="148.4285934"/>
      <trkpt lat="-9.0727335" lon="148.4284618"/>
      <trkpt lat="-9.0726687" lon="148.4283276"/>
      <trkpt lat="-9.0725814" lon="148.4282076"/>
      <trkpt lat="-9.0724650" lon="148.4280907"/>
      <trkpt lat="-9.0723792" lon="148.4279636"/>
      <trkpt lat="-9.0723133" lon="148.4278391"/>
      <trkpt lat="-9.0722685" lon="148.4277179"/>
      <trkpt lat="-9.0722879" lon="148.4275878"/>
      <trkpt lat="-9.0723647" lon="148.4274528"/>
      <trkpt lat="-9.0723982" lon="148.4273724"/>
      <trkpt lat="-9.0723640" lon="148.4273296"/>
      <trkpt lat="-9.0722587" lon="148.4272941"/>
      <trkpt lat="-9.0721903" lon="148.4271933"/>
      <trkpt lat="-9.0721184" lon="148.4270494"/>
      <trkpt lat="-9.0720382" lon="148.4268981"/>
      <trkpt lat="-9.0719154" lon="148.4267981"/>
      <trkpt lat="-9.0717815" lon="148.4267076"/>
      <trkpt lat="-9.0716570" lon="148.4266280"/>
      <trkpt lat="-9.0715411" lon="148.4265281"/>
      <trkpt lat="-9.0714419" lon="148.4264143"/>
      <trkpt lat="-9.0713783" lon="148.4262815"/>
      <trkpt lat="-9.0713771" lon="148.4261214"/>
      <trkpt lat="-9.0713541" lon="148.4259786"/>
      <trkpt lat="-9.0713443" lon="148.4258383"/>
      <trkpt lat="-9.0713221" lon="148.4256964"/>
      <trkpt lat="-9.0713491" lon="148.4255313"/>
      <trkpt lat="-9.0713253" lon="148.4254047"/>
      <trkpt lat="-9.0712439" lon="148.4253160"/>
      <trkpt lat="-9.0711128" lon="148.4252509"/>
      <trkpt lat="-9.0709618" lon="148.4251597"/>
      <trkpt lat="-9.0708316" lon="148.4250476"/>
      <trkpt lat="-9.0707797" lon="148.4249287"/>
      <trkpt lat="-9.0708334" lon="148.4248591"/>
      <trkpt lat="-9.0709582" lon="148.4248528"/>
      <trkpt lat="-9.0709990" lon="148.4248746"/>
      <trkpt lat="-9.0709361" lon="148.4248509"/>
      <trkpt lat="-9.0708181" lon="148.4247464"/>
      <trkpt lat="-9.0707220" lon="148.4246080"/>
      <trkpt lat="-9.0706508" lon="148.4244895"/>
      <trkpt lat="-9.0705751" lon="148.4243996"/>
      <trkpt lat="-9.0704918" lon="148.4243132"/>
      <trkpt lat="-9.0703903" lon="148.4241935"/>
      <trkpt lat="-9.0702977" lon="148.4240433"/>
      <trkpt lat="-9.0702206" lon="148.4238972"/>
      <trkpt lat="-9.0702306" lon="148.4237641"/>
      <trkpt lat="-9.0702332" lon="148.4236382"/>
      <trkpt lat="-9.0702387" lon="148.4234995"/>
      <trkpt lat="-9.0701945" lon="148.4233376"/>
      <trkpt lat="-9.0701975" lon="148.4232112"/>
      <trkpt lat="-9.0702204" lon="148.4231340"/>
      <trkpt lat="-9.0702453" lon="148.4231069"/>
    </trkseg>
    <trkseg>
      <trkpt lat="-9.0703436" lon="148.4232217"/>
      <trkpt lat="-9.0703715" lon="148.4230419"/>
      <trkpt lat="-9.0703994" lon="148.4228622"/>
      <trkpt lat="-9.0704273" lon="148.4226824"/>
      <trkpt lat="-9.0704552" lon="148.4225026"/>
      <trkpt lat="-9.0704831" lon="148.4223229"/>
      <trkpt lat="-9.0705110" lon="148.4221431"/>
      <trkpt lat="-9.0705388" lon="148.4219634"/>
      <trkpt lat="-9.0705654" lon="148.4217962"/>
      <trkpt lat="-9.0705792" lon="148.4217496"/>
      <trkpt lat="-9.0705919" lon="148.4217400"/>
      <trkpt lat="-9.0706102" lon="148.4217186"/>
      <trkpt lat="-9.0706453" lon="148.4215775"/>
      <trkpt lat="-9.0706602" lon="148.4214733"/>
      <trkpt lat="-9.0706910" lon="148.4214515"/>
      <trkpt lat="-9.0707665" lon="148.4214744"/>
      <trkpt lat="-9.0709128" lon="148.4214713"/>
      <trkpt lat="-9.0710859" lon="148.4214247"/>
      <trkpt lat="-9.0712563" lon="148.4213686"/>
      <trkpt lat="-9.0714237" lon="148.4213025"/>
      <trkpt lat="-9.0715742" lon="148.4212104"/>
      <trkpt lat="-9.0717127" lon="148.4211007"/>
      <trkpt lat="-9.0718550" lon="148.4210120"/>
      <trkpt lat="-9.0720183" lon="148.4209699"/>
      <trkpt lat="-9.0721986" lon="148.4209699"/>
      <trkpt lat="-9.0723621" lon="148.4209284"/>
      <trkpt lat="-9.0724782" lon="148.4208279"/>
      <trkpt lat="-9.0725577" lon="148.4206715"/>
      <trkpt lat="-9.0726003" lon="148.4204978"/>
      <trkpt lat="-9.0726287" lon="148.4203219"/>
      <trkpt lat="-9.0726386" lon="148.4201415"/>
      <trkpt lat="-9.0726592" lon="148.4199626"/>
      <trkpt lat="-9.0726719" lon="148.4197850"/>
      <trkpt lat="-9.0726780" lon="148.4196082"/>
      <trkpt lat="-9.0726676" lon="148.4194292"/>
      <trkpt lat="-9.0726750" lon="148.4192520"/>
      <trkpt lat="-9.0726642" lon="148.4190778"/>
      <trkpt lat="-9.0726474" lon="148.4189054"/>
      <trkpt lat="-9.0726183" lon="148.4187300"/>
      <trkpt lat="-9.0725942" lon="148.4185528"/>
      <trkpt lat="-9.0725716" lon="148.4183741"/>
      <trkpt lat="-9.0725396" lon="148.4181968"/>
      <trkpt lat="-9.0724926" lon="148.4180250"/>
      <trkpt lat="-9.0724161" lon="148.4178635"/>
      <trkpt lat="-9.0723374" lon="148.4177043"/>
      <trkpt lat="-9.0722719" lon="148.4175450"/>
      <trkpt lat="-9.0721899" lon="148.4174064"/>
      <trkpt lat="-9.0721463" lon="148.4173196"/>
      <trkpt lat="-9.0721206" lon="148.4172690"/>
      <trkpt lat="-9.0721418" lon="148.4172518"/>
      <trkpt lat="-9.0721426" lon="148.4172237"/>
      <trkpt lat="-9.0720947" lon="148.4172116"/>
      <trkpt lat="-9.0720017" lon="148.4171636"/>
      <trkpt lat="-9.0718486" lon="148.4171144"/>
      <trkpt lat="-9.0717061" lon="148.4170386"/>
      <trkpt lat="-9.0715607" lon="148.4169716"/>
      <trkpt lat="-9.0714157" lon="148.4169045"/>
      <trkpt lat="-9.0712483" lon="148.4168534"/>
      <trkpt lat="-9.0710729" lon="148.4168155"/>
      <trkpt lat="-9.0709043" lon="148.4167663"/>
      <trkpt lat="-9.0707440" lon="148.4166967"/>
      <trkpt lat="-9.0705898" lon="148.4166086"/>
      <trkpt lat="-9.0704575" lon="148.4164964"/>
      <trkpt lat="-9.0703574" lon="148.4163591"/>
      <trkpt lat="-9.0702881" lon="148.4161956"/>
      <trkpt lat="-9.0701966" lon="148.4160531"/>
      <trkpt lat="-9.0700723" lon="148.4159363"/>
      <trkpt lat="-9.0699136" lon="148.4158534"/>
      <trkpt lat="-9.0697543" lon="148.4157710"/>
      <trkpt lat="-9.0695996" lon="148.4156817"/>
      <trkpt lat="-9.0694627" lon="148.4155670"/>
      <trkpt lat="-9.0693459" lon="148.4154312"/>
      <trkpt lat="-9.0692408" lon="148.4152851"/>
      <trkpt lat="-9.0691411" lon="148.4151347"/>
      <trkpt lat="-9.0690457" lon="148.4149827"/>
      <trkpt lat="-9.0689628" lon="148.4148247"/>
      <trkpt lat="-9.0688824" lon="148.4146685"/>
      <trkpt lat="-9.0687883" lon="148.4145211"/>
      <trkpt lat="-9.0686956" lon="148.4143715"/>
      <trkpt lat="-9.0686119" lon="148.4142138"/>
      <trkpt lat="-9.0685529" lon="148.4140423"/>
      <trkpt lat="-9.0684774" lon="148.4138804"/>
      <trkpt lat="-9.0683927" lon="148.4137245"/>
      <trkpt lat="-9.0682773" lon="148.4135888"/>
      <trkpt lat="-9.0681475" lon="148.4134702"/>
      <trkpt lat="-9.0679969" lon="148.4133721"/>
      <trkpt lat="-9.0678410" lon="148.4132817"/>
      <trkpt lat="-9.0676856" lon="148.4131913"/>
      <trkpt lat="-9.0675330" lon="148.4131027"/>
      <trkpt lat="-9.0673739" lon="148.4130300"/>
      <trkpt lat="-9.0672202" lon="148.4129517"/>
      <trkpt lat="-9.0670878" lon="148.4128480"/>
      <trkpt lat="-9.0669755" lon="148.4127140"/>
      <trkpt lat="-9.0668520" lon="148.4126060"/>
      <trkpt lat="-9.0666964" lon="148.4125526"/>
      <trkpt lat="-9.0665220" lon="148.4125338"/>
      <trkpt lat="-9.0663464" lon="148.4125099"/>
      <trkpt lat="-9.0661785" lon="148.4124553"/>
      <trkpt lat="-9.0660129" lon="148.4123866"/>
      <trkpt lat="-9.0658469" lon="148.4123214"/>
      <trkpt lat="-9.0656817" lon="148.4122574"/>
      <trkpt lat="-9.0655286" lon="148.4121765"/>
      <trkpt lat="-9.0653891" lon="148.4120685"/>
      <trkpt lat="-9.0652726" lon="148.4119362"/>
      <trkpt lat="-9.0652292" lon="148.4117992"/>
      <trkpt lat="-9.0651923" lon="148.4116568"/>
      <trkpt lat="-9.0651580" lon="148.4115157"/>
      <trkpt lat="-9.0650859" lon="148.4114205"/>
      <trkpt lat="-9.0650752" lon="148.4113232"/>
      <trkpt lat="-9.0651032" lon="148.4112187"/>
      <trkpt lat="-9.0651612" lon="148.4110614"/>
      <trkpt lat="-9.0651587" lon="148.4109109"/>
      <trkpt lat="-9.0650989" lon="148.4107781"/>
      <trkpt lat="-9.0649830" lon="148.4106514"/>
      <trkpt lat="-9.0648596" lon="148.4105299"/>
      <trkpt lat="-9.0647471" lon="148.4103989"/>
      <trkpt lat="-9.0646403" lon="148.4102658"/>
      <trkpt lat="-9.0645345" lon="148.4101319"/>
      <trkpt lat="-9.0644676" lon="148.4100000"/>
      <trkpt lat="-9.0644419" lon="148.4098610"/>
      <trkpt lat="-9.0644912" lon="148.4097090"/>
      <trkpt lat="-9.0645462" lon="148.4095466"/>
      <trkpt lat="-9.0646132" lon="148.4093858"/>
      <trkpt lat="-9.0646977" lon="148.4092384"/>
      <trkpt lat="-9.0648275" lon="148.4091297"/>
      <trkpt lat="-9.0649720" lon="148.4090303"/>
      <trkpt lat="-9.0650739" lon="148.4089061"/>
      <trkpt lat="-9.0651222" lon="148.4087456"/>
      <trkpt lat="-9.0651580" lon="148.4085769"/>
      <trkpt lat="-9.0652269" lon="148.4084243"/>
      <trkpt lat="-9.0653459" lon="148.4083002"/>
      <trkpt lat="-9.0654891" lon="148.4081995"/>
      <trkpt lat="-9.0656358" lon="148.4080981"/>
      <trkpt lat="-9.0657811" lon="148.4079994"/>
      <trkpt lat="-9.0659113" lon="148.4078843"/>
      <trkpt lat="-9.0660585" lon="148.4078250"/>
      <trkpt lat="-9.0661972" lon="148.4077486"/>
      <trkpt lat="-9.0663519" lon="148.4076999"/>
      <trkpt lat="-9.0665009" lon="148.4076196"/>
      <trkpt lat="-9.0666583" lon="148.4075547"/>
      <trkpt lat="-9.0668229" lon="148.4074983"/>
      <trkpt lat="-9.0669928" lon="148.4074481"/>
      <trkpt lat="-9.0671601" lon="148.4073994"/>
      <trkpt lat="-9.0672995" lon="148.4073172"/>
      <trkpt lat="-9.0674210" lon="148.4072116"/>
      <trkpt lat="-9.0674919" lon="148.4071230"/>
      <trkpt lat="-9.0675601" lon="148.4070325"/>
      <trkpt lat="-9.0676405" lon="148.4069532"/>
      <trkpt lat="-9.0677801" lon="148.4068908"/>
      <trkpt lat="-9.0679492" lon="148.4068657"/>
      <trkpt lat="-9.0681251" lon="148.4068682"/>
      <trkpt lat="-9.0682899" lon="148.4068943"/>
      <trkpt lat="-9.0684530" lon="148.4069500"/>
      <trkpt lat="-9.0686152" lon="148.4070159"/>
      <trkpt lat="-9.0687882" lon="148.4070640"/>
      <trkpt lat="-9.0689598" lon="148.4071148"/>
      <trkpt lat="-9.0690982" lon="148.4071874"/>
      <trkpt lat="-9.0691830" lon="148.4072434"/>
      <trkpt lat="-9.0692248" lon="148.4072684"/>
      <trkpt lat="-9.0692730" lon="148.4072207"/>
      <trkpt lat="-9.0693333" lon="148.4071239"/>
      <trkpt lat="-9.0694015" lon="148.4069918"/>
      <trkpt lat="-9.0694362" lon="148.4068392"/>
      <trkpt lat="-9.0694791" lon="148.4066822"/>
      <trkpt lat="-9.0695036" lon="148.4065072"/>
      <trkpt lat="-9.0695365" lon="148.4063314"/>
      <trkpt lat="-9.0695515" lon="148.4061511"/>
      <trkpt lat="-9.0695966" lon="148.4059808"/>
      <trkpt lat="-9.0696225" lon="148.4058321"/>
      <trkpt lat="-9.0696347" lon="148.4056871"/>
      <trkpt lat="-9.0695622" lon="148.4055731"/>
      <trkpt lat="-9.0694460" lon="148.4054773"/>
      <trkpt lat="-9.0692799" lon="148.4054192"/>
      <trkpt lat="-9.0691081" lon="148.4053668"/>
      <trkpt lat="-9.0689349" lon="148.4053164"/>
      <trkpt lat="-9.0687598" lon="148.4052734"/>
      <trkpt lat="-9.0685842" lon="148.4052322"/>
      <trkpt lat="-9.0684085" lon="148.4051908"/>
      <trkpt lat="-9.0682349" lon="148.4051418"/>
      <trkpt lat="-9.0680866" lon="148.4050602"/>
      <trkpt lat="-9.0679537" lon="148.4049572"/>
      <trkpt lat="-9.0678562" lon="148.4048202"/>
      <trkpt lat="-9.0677681" lon="148.4046736"/>
      <trkpt lat="-9.0676647" lon="148.4045483"/>
      <trkpt lat="-9.0675435" lon="148.4044311"/>
      <trkpt lat="-9.0674053" lon="148.4043288"/>
      <trkpt lat="-9.0672826" lon="148.4042038"/>
      <trkpt lat="-9.0671496" lon="148.4040908"/>
      <trkpt lat="-9.0670070" lon="148.4039880"/>
      <trkpt lat="-9.0668615" lon="148.4038880"/>
      <trkpt lat="-9.0667101" lon="148.4038008"/>
      <trkpt lat="-9.0665743" lon="148.4037084"/>
      <trkpt lat="-9.0664845" lon="148.4035949"/>
      <trkpt lat="-9.0664565" lon="148.4034413"/>
      <trkpt lat="-9.0664498" lon="148.4032709"/>
      <trkpt lat="-9.0664350" lon="148.4031000"/>
      <trkpt lat="-9.0664139" lon="148.4029306"/>
      <trkpt lat="-9.0664072" lon="148.4027524"/>
      <trkpt lat="-9.0664104" lon="148.4025751"/>
      <trkpt lat="-9.0663822" lon="148.4024054"/>
      <trkpt lat="-9.0663374" lon="148.4022388"/>
      <trkpt lat="-9.0662997" lon="148.4020715"/>
      <trkpt lat="-9.0663173" lon="148.4019003"/>
      <trkpt lat="-9.0663842" lon="148.4017364"/>
      <trkpt lat="-9.0664455" lon="148.4015799"/>
      <trkpt lat="-9.0664909" lon="148.4014230"/>
      <trkpt lat="-9.0664935" lon="148.4012581"/>
      <trkpt lat="-9.0665170" lon="148.4010930"/>
      <trkpt lat="-9.0665291" lon="148.4009271"/>
      <trkpt lat="-9.0665192" lon="148.4007674"/>
      <trkpt lat="-9.0664553" lon="148.4006072"/>
      <trkpt lat="-9.0663777" lon="148.4004454"/>
      <trkpt lat="-9.0663270" lon="148.4002773"/>
      <trkpt lat="-9.0662778" lon="148.4001078"/>
      <trkpt lat="-9.0662634" lon="148.3999508"/>
      <trkpt lat="-9.0663084" lon="148.3998302"/>
      <trkpt lat="-9.0664170" lon="148.3997294"/>
      <trkpt lat="-9.0665046" lon="148.3996152"/>
      <trkpt lat="-9.0665117" lon="148.3994746"/>
      <trkpt lat="-9.0664497" lon="148.3993217"/>
      <trkpt lat="-9.0663490" lon="148.3991966"/>
      <trkpt lat="-9.0663331" lon="148.3991185"/>
      <trkpt lat="-9.0663373" lon="148.3990280"/>
      <trkpt lat="-9.0663858" lon="148.3989141"/>
      <trkpt lat="-9.0663620" lon="148.3987417"/>
      <trkpt lat="-9.0663396" lon="148.3985721"/>
      <trkpt lat="-9.0663010" lon="148.3984039"/>
      <trkpt lat="-9.0662717" lon="148.3982397"/>
      <trkpt lat="-9.0662449" lon="148.3980744"/>
      <trkpt lat="-9.0662475" lon="148.3979062"/>
      <trkpt lat="-9.0662274" lon="148.3977406"/>
      <trkpt lat="-9.0661672" lon="148.3975962"/>
      <trkpt lat="-9.0660458" lon="148.3974709"/>
      <trkpt lat="-9.0659346" lon="148.3973606"/>
      <trkpt lat="-9.0658732" lon="148.3972288"/>
      <trkpt lat="-9.0658661" lon="148.3970742"/>
      <trkpt lat="-9.0658416" lon="148.3969156"/>
      <trkpt lat="-9.0657787" lon="148.3967723"/>
      <trkpt lat="-9.0657299" lon="148.3966355"/>
      <trkpt lat="-9.0657545" lon="148.3964969"/>
      <trkpt lat="-9.0658352" lon="148.3963439"/>
      <trkpt lat="-9.0658934" lon="148.3961833"/>
      <trkpt lat="-9.0659141" lon="148.3960053"/>
      <trkpt lat="-9.0659142" lon="148.3958291"/>
      <trkpt lat="-9.0658551" lon="148.3957209"/>
      <trkpt lat="-9.0657367" lon="148.3956550"/>
      <trkpt lat="-9.0655602" lon="148.3956383"/>
      <trkpt lat="-9.0653836" lon="148.3956074"/>
      <trkpt lat="-9.0652125" lon="148.3955641"/>
      <trkpt lat="-9.0650512" lon="148.3954927"/>
      <trkpt lat="-9.0649039" lon="148.3953888"/>
      <trkpt lat="-9.0647653" lon="148.3952730"/>
      <trkpt lat="-9.0646382" lon="148.3951447"/>
      <trkpt lat="-9.0645119" lon="148.3950162"/>
      <trkpt lat="-9.0643873" lon="148.3948865"/>
      <trkpt lat="-9.0642514" lon="148.3947690"/>
      <trkpt lat="-9.0641032" lon="148.3946762"/>
      <trkpt lat="-9.0639371" lon="148.3946163"/>
      <trkpt lat="-9.0637619" lon="148.3945803"/>
      <trkpt lat="-9.0635854" lon="148.3945472"/>
      <trkpt lat="-9.0634126" lon="148.3945442"/>
      <trkpt lat="-9.0632606" lon="148.3945979"/>
      <trkpt lat="-9.0631358" lon="148.3947155"/>
      <trkpt lat="-9.0630506" lon="148.3948713"/>
      <trkpt lat="-9.0629529" lon="148.3950022"/>
      <trkpt lat="-9.0628464" lon="148.3950437"/>
      <trkpt lat="-9.0627493" lon="148.3949674"/>
      <trkpt lat="-9.0627032" lon="148.3948107"/>
      <trkpt lat="-9.0626647" lon="148.3946429"/>
      <trkpt lat="-9.0626108" lon="148.3944799"/>
      <trkpt lat="-9.0625151" lon="148.3943336"/>
      <trkpt lat="-9.0623944" lon="148.3942245"/>
      <trkpt lat="-9.0622358" lon="148.3941788"/>
      <trkpt lat="-9.0620669" lon="148.3941963"/>
      <trkpt lat="-9.0619050" lon="148.3942575"/>
      <trkpt lat="-9.0617604" lon="148.3943535"/>
      <trkpt lat="-9.0616188" lon="148.3944627"/>
      <trkpt lat="-9.0614813" lon="148.3945781"/>
      <trkpt lat="-9.0613287" lon="148.3946629"/>
      <trkpt lat="-9.0611672" lon="148.3947293"/>
      <trkpt lat="-9.0609967" lon="148.3947752"/>
      <trkpt lat="-9.0608421" lon="148.3948483"/>
      <trkpt lat="-9.0607145" lon="148.3949569"/>
      <trkpt lat="-9.0605953" lon="148.3950699"/>
      <trkpt lat="-9.0604832" lon="148.3951800"/>
      <trkpt lat="-9.0603779" lon="148.3951933"/>
      <trkpt lat="-9.0602641" lon="148.3951651"/>
      <trkpt lat="-9.0601264" lon="148.3951118"/>
      <trkpt lat="-9.0599798" lon="148.3951489"/>
      <trkpt lat="-9.0598609" lon="148.3952594"/>
      <trkpt lat="-9.0597731" lon="148.3954120"/>
      <trkpt lat="-9.0596872" lon="148.3955679"/>
      <trkpt lat="-9.0596149" lon="148.3957259"/>
      <trkpt lat="-9.0595716" lon="148.3958908"/>
      <trkpt lat="-9.0595520" lon="148.3960666"/>
      <trkpt lat="-9.0595119" lon="148.3962328"/>
      <trkpt lat="-9.0594226" lon="148.3963749"/>
      <trkpt lat="-9.0593068" lon="148.3965066"/>
      <trkpt lat="-9.0591929" lon="148.3966386"/>
      <trkpt lat="-9.0591039" lon="148.3967722"/>
      <trkpt lat="-9.0590905" lon="148.3968998"/>
      <trkpt lat="-9.0591203" lon="148.3970364"/>
      <trkpt lat="-9.0591886" lon="148.3971920"/>
      <trkpt lat="-9.0592381" lon="148.3973602"/>
      <trkpt lat="-9.0592765" lon="148.3975316"/>
      <trkpt lat="-9.0593119" lon="148.3977034"/>
      <trkpt lat="-9.0593513" lon="148.3978726"/>
      <trkpt lat="-9.0593690" lon="148.3980343"/>
      <trkpt lat="-9.0593701" lon="148.3981977"/>
      <trkpt lat="-9.0593777" lon="148.3983582"/>
      <trkpt lat="-9.0594364" lon="148.3985201"/>
      <trkpt lat="-9.0595356" lon="148.3986652"/>
      <trkpt lat="-9.0596425" lon="148.3987995"/>
      <trkpt lat="-9.0597402" lon="148.3989366"/>
      <trkpt lat="-9.0598389" lon="148.3990780"/>
      <trkpt lat="-9.0599161" lon="148.3992368"/>
      <trkpt lat="-9.0599976" lon="148.3993957"/>
      <trkpt lat="-9.0600625" lon="148.3995647"/>
      <trkpt lat="-9.0601255" lon="148.3997345"/>
      <trkpt lat="-9.0601578" lon="148.3999006"/>
      <trkpt lat="-9.0601854" lon="148.4000687"/>
      <trkpt lat="-9.0602064" lon="148.4002371"/>
      <trkpt lat="-9.0602567" lon="148.4004096"/>
      <trkpt lat="-9.0603254" lon="148.4005697"/>
      <trkpt lat="-9.0604068" lon="148.4007204"/>
      <trkpt lat="-9.0604735" lon="148.4008680"/>
      <trkpt lat="-9.0605340" lon="148.4010213"/>
      <trkpt lat="-9.0606091" lon="148.4011688"/>
      <trkpt lat="-9.0607004" lon="148.4013182"/>
      <trkpt lat="-9.0607838" lon="148.4014720"/>
      <trkpt lat="-9.0607832" lon="148.4016063"/>
      <trkpt lat="-9.0607023" lon="148.4017045"/>
      <trkpt lat="-9.0605463" lon="148.4017723"/>
      <trkpt lat="-9.0603927" lon="148.4018588"/>
      <trkpt lat="-9.0602456" lon="148.4019593"/>
      <trkpt lat="-9.0601019" lon="148.4020665"/>
      <trkpt lat="-9.0599437" lon="148.4021430"/>
      <trkpt lat="-9.0597797" lon="148.4022082"/>
      <trkpt lat="-9.0596147" lon="148.4022664"/>
      <trkpt lat="-9.0594596" lon="148.4023472"/>
      <trkpt lat="-9.0593126" lon="148.4024432"/>
      <trkpt lat="-9.0591612" lon="148.4025315"/>
      <trkpt lat="-9.0590096" lon="148.4026221"/>
      <trkpt lat="-9.0588588" lon="148.4027133"/>
      <trkpt lat="-9.0587137" lon="148.4028187"/>
      <trkpt lat="-9.0585716" lon="148.4029243"/>
      <trkpt lat="-9.0584557" lon="148.4030484"/>
      <trkpt lat="-9.0583827" lon="148.4032008"/>
      <trkpt lat="-9.0583362" lon="148.4033742"/>
      <trkpt lat="-9.0582796" lon="148.4035433"/>
      <trkpt lat="-9.0581956" lon="148.4037004"/>
      <trkpt lat="-9.0580821" lon="148.4038363"/>
      <trkpt lat="-9.0579745" lon="148.4039746"/>
      <trkpt lat="-9.0578762" lon="148.4041198"/>
      <trkpt lat="-9.0577944" lon="148.4042781"/>
      <trkpt lat="-9.0577168" lon="148.4044385"/>
      <trkpt lat="-9.0576361" lon="148.4045970"/>
      <trkpt lat="-9.0575532" lon="148.4047523"/>
      <trkpt lat="-9.0574393" lon="148.4048814"/>
      <trkpt lat="-9.0572954" lon="148.4049707"/>
      <trkpt lat="-9.0571265" lon="148.4050263"/>
      <trkpt lat="-9.0569494" lon="148.4050584"/>
      <trkpt lat="-9.0567715" lon="148.4050807"/>
      <trkpt lat="-9.0565939" lon="148.4051058"/>
      <trkpt lat="-9.0564205" lon="148.4051381"/>
      <trkpt lat="-9.0562563" lon="148.4051965"/>
      <trkpt lat="-9.0560996" lon="148.4052714"/>
      <trkpt lat="-9.0559496" lon="148.4053664"/>
      <trkpt lat="-9.0557954" lon="148.4054575"/>
      <trkpt lat="-9.0556395" lon="148.4055464"/>
      <trkpt lat="-9.0554863" lon="148.4056400"/>
      <trkpt lat="-9.0553331" lon="148.4057317"/>
      <trkpt lat="-9.0552012" lon="148.4058043"/>
      <trkpt lat="-9.0550842" lon="148.4058492"/>
    </trkseg>
    <trkseg>
      <trkpt lat="-9.0550913" lon="148.4059081"/>
      <trkpt lat="-9.0549776" lon="148.4060403"/>
      <trkpt lat="-9.0548484" lon="148.4061547"/>
      <trkpt lat="-9.0546998" lon="148.4062429"/>
      <trkpt lat="-9.0545832" lon="148.4063592"/>
      <trkpt lat="-9.0544921" lon="148.4064959"/>
      <trkpt lat="-9.0544674" lon="148.4066587"/>
      <trkpt lat="-9.0545115" lon="148.4067888"/>
      <trkpt lat="-9.0546229" lon="148.4069028"/>
      <trkpt lat="-9.0547755" lon="148.4069784"/>
      <trkpt lat="-9.0549245" lon="148.4070386"/>
      <trkpt lat="-9.0550825" lon="148.4070738"/>
      <trkpt lat="-9.0552419" lon="148.4070870"/>
      <trkpt lat="-9.0553970" lon="148.4071240"/>
      <trkpt lat="-9.0555165" lon="148.4072052"/>
      <trkpt lat="-9.0556104" lon="148.4073443"/>
      <trkpt lat="-9.0556782" lon="148.4075070"/>
      <trkpt lat="-9.0557796" lon="148.4076372"/>
      <trkpt lat="-9.0558740" lon="148.4077568"/>
      <trkpt lat="-9.0559992" lon="148.4078385"/>
      <trkpt lat="-9.0561042" lon="148.4079393"/>
      <trkpt lat="-9.0562372" lon="148.4080143"/>
      <trkpt lat="-9.0563584" lon="148.4081076"/>
      <trkpt lat="-9.0565026" lon="148.4081515"/>
      <trkpt lat="-9.0565888" lon="148.4082367"/>
      <trkpt lat="-9.0566680" lon="148.4083328"/>
      <trkpt lat="-9.0566840" lon="148.4084904"/>
      <trkpt lat="-9.0567066" lon="148.4086521"/>
      <trkpt lat="-9.0567161" lon="148.4088224"/>
      <trkpt lat="-9.0567427" lon="148.4089951"/>
      <trkpt lat="-9.0567710" lon="148.4091705"/>
      <trkpt lat="-9.0568186" lon="148.4093315"/>
      <trkpt lat="-9.0568863" lon="148.4094876"/>
      <trkpt lat="-9.0569757" lon="148.4096376"/>
      <trkpt lat="-9.0570736" lon="148.4097853"/>
      <trkpt lat="-9.0571544" lon="148.4099380"/>
      <trkpt lat="-9.0571842" lon="148.4100891"/>
      <trkpt lat="-9.0571344" lon="148.4102453"/>
      <trkpt lat="-9.0570719" lon="148.4103998"/>
      <trkpt lat="-9.0570193" lon="148.4105513"/>
      <trkpt lat="-9.0569553" lon="148.4106928"/>
      <trkpt lat="-9.0568418" lon="148.4108101"/>
      <trkpt lat="-9.0566991" lon="148.4109116"/>
      <trkpt lat="-9.0565638" lon="148.4110227"/>
      <trkpt lat="-9.0564315" lon="148.4111351"/>
      <trkpt lat="-9.0563010" lon="148.4112511"/>
      <trkpt lat="-9.0561780" lon="148.4113706"/>
      <trkpt lat="-9.0560956" lon="148.4115162"/>
      <trkpt lat="-9.0560160" lon="148.4116688"/>
      <trkpt lat="-9.0559430" lon="148.4118229"/>
      <trkpt lat="-9.0559038" lon="148.4119598"/>
      <trkpt lat="-9.0558861" lon="148.4121086"/>
      <trkpt lat="-9.0558548" lon="148.4122506"/>
      <trkpt lat="-9.0557486" lon="148.4123794"/>
      <trkpt lat="-9.0556045" lon="148.4124728"/>
      <trkpt lat="-9.0554666" lon="148.4125674"/>
      <trkpt lat="-9.0553520" lon="148.4126828"/>
      <trkpt lat="-9.0552591" lon="148.4128253"/>
      <trkpt lat="-9.0551514" lon="148.4129219"/>
      <trkpt lat="-9.0550209" lon="148.4129918"/>
      <trkpt lat="-9.0548748" lon="148.4130158"/>
      <trkpt lat="-9.0547196" lon="148.4130517"/>
      <trkpt lat="-9.0545951" lon="148.4131223"/>
      <trkpt lat="-9.0544920" lon="148.4132332"/>
      <trkpt lat="-9.0543945" lon="148.4133581"/>
      <trkpt lat="-9.0542577" lon="148.4134264"/>
      <trkpt lat="-9.0541095" lon="148.4134822"/>
      <trkpt lat="-9.0539759" lon="148.4135553"/>
      <trkpt lat="-9.0538805" lon="148.4136752"/>
      <trkpt lat="-9.0538043" lon="148.4138191"/>
      <trkpt lat="-9.0537287" lon="148.4139696"/>
      <trkpt lat="-9.0536305" lon="148.4141131"/>
      <trkpt lat="-9.0535317" lon="148.4142524"/>
      <trkpt lat="-9.0534394" lon="148.4143815"/>
      <trkpt lat="-9.0533757" lon="148.4145233"/>
      <trkpt lat="-9.0532914" lon="148.4146573"/>
      <trkpt lat="-9.0532721" lon="148.4147893"/>
      <trkpt lat="-9.0533087" lon="148.4149086"/>
      <trkpt lat="-9.0534205" lon="148.4150353"/>
      <trkpt lat="-9.0535286" lon="148.4151766"/>
      <trkpt lat="-9.0536132" lon="148.4153329"/>
      <trkpt lat="-9.0537027" lon="148.4154852"/>
      <trkpt lat="-9.0537909" lon="148.4156380"/>
      <trkpt lat="-9.0538763" lon="148.4157929"/>
      <trkpt lat="-9.0539454" lon="148.4159593"/>
      <trkpt lat="-9.0540138" lon="148.4161261"/>
      <trkpt lat="-9.0540794" lon="148.4162933"/>
      <trkpt lat="-9.0541239" lon="148.4164645"/>
      <trkpt lat="-9.0541379" lon="148.4166434"/>
      <trkpt lat="-9.0541195" lon="148.4168204"/>
      <trkpt lat="-9.0541114" lon="148.4169963"/>
      <trkpt lat="-9.0540958" lon="148.4171675"/>
      <trkpt lat="-9.0541049" lon="148.4173416"/>
      <trkpt lat="-9.0541358" lon="148.4175022"/>
      <trkpt lat="-9.0542152" lon="148.4176491"/>
      <trkpt lat="-9.0543148" lon="148.4177904"/>
      <trkpt lat="-9.0544154" lon="148.4179348"/>
      <trkpt lat="-9.0544652" lon="148.4180976"/>
      <trkpt lat="-9.0544903" lon="148.4182663"/>
      <trkpt lat="-9.0545015" lon="148.4184403"/>
      <trkpt lat="-9.0545148" lon="148.4186140"/>
      <trkpt lat="-9.0545234" lon="148.4187880"/>
      <trkpt lat="-9.0545025" lon="148.4189673"/>
      <trkpt lat="-9.0544697" lon="148.4191429"/>
      <trkpt lat="-9.0544393" lon="148.4193156"/>
      <trkpt lat="-9.0544147" lon="148.4194875"/>
      <trkpt lat="-9.0544137" lon="148.4196631"/>
      <trkpt lat="-9.0543983" lon="148.4198383"/>
      <trkpt lat="-9.0544059" lon="148.4200087"/>
      <trkpt lat="-9.0544459" lon="148.4201680"/>
      <trkpt lat="-9.0545257" lon="148.4203254"/>
      <trkpt lat="-9.0546064" lon="148.4204841"/>
      <trkpt lat="-9.0546869" lon="148.4206414"/>
      <trkpt lat="-9.0547574" lon="148.4207944"/>
      <trkpt lat="-9.0548060" lon="148.4209524"/>
      <trkpt lat="-9.0548186" lon="148.4211237"/>
      <trkpt lat="-9.0547830" lon="148.4212890"/>
      <trkpt lat="-9.0547058" lon="148.4214338"/>
      <trkpt lat="-9.0545773" lon="148.4215455"/>
      <trkpt lat="-9.0545129" lon="148.4216591"/>
      <trkpt lat="-9.0545001" lon="148.4217914"/>
      <trkpt lat="-9.0545286" lon="148.4218493"/>
      <trkpt lat="-9.0545286" lon="148.4218136"/>
      <trkpt lat="-9.0544696" lon="148.4216873"/>
      <trkpt lat="-9.0543699" lon="148.4215770"/>
      <trkpt lat="-9.0542212" lon="148.4214769"/>
      <trkpt lat="-9.0540635" lon="148.4214093"/>
      <trkpt lat="-9.0539015" lon="148.4213962"/>
      <trkpt lat="-9.0537444" lon="148.4213871"/>
      <trkpt lat="-9.0536058" lon="148.4213449"/>
    </trkseg>
    <trkseg>
      <trkpt lat="-9.0487343" lon="148.4221368"/>
      <trkpt lat="-9.0486285" lon="148.4222844"/>
      <trkpt lat="-9.0485227" lon="148.4224319"/>
      <trkpt lat="-9.0484170" lon="148.4225795"/>
      <trkpt lat="-9.0483112" lon="148.4227270"/>
      <trkpt lat="-9.0482054" lon="148.4228746"/>
      <trkpt lat="-9.0480996" lon="148.4230222"/>
      <trkpt lat="-9.0479938" lon="148.4231697"/>
      <trkpt lat="-9.0478880" lon="148.4233173"/>
      <trkpt lat="-9.0477822" lon="148.4234648"/>
      <trkpt lat="-9.0476765" lon="148.4236124"/>
      <trkpt lat="-9.0475707" lon="148.4237600"/>
      <trkpt lat="-9.0474649" lon="148.4239075"/>
      <trkpt lat="-9.0473591" lon="148.4240551"/>
      <trkpt lat="-9.0472533" lon="148.4242026"/>
      <trkpt lat="-9.0472103" lon="148.4242611"/>
      <trkpt lat="-9.0472370" lon="148.4242206"/>
      <trkpt lat="-9.0473333" lon="148.4240811"/>
      <trkpt lat="-9.0474366" lon="148.4239318"/>
      <trkpt lat="-9.0475399" lon="148.4237825"/>
      <trkpt lat="-9.0476432" lon="148.4236331"/>
      <trkpt lat="-9.0477465" lon="148.4234838"/>
      <trkpt lat="-9.0478498" lon="148.4233345"/>
      <trkpt lat="-9.0479531" lon="148.4231852"/>
      <trkpt lat="-9.0480564" lon="148.4230358"/>
      <trkpt lat="-9.0481597" lon="148.4228865"/>
      <trkpt lat="-9.0482630" lon="148.4227372"/>
      <trkpt lat="-9.0483663" lon="148.4225878"/>
      <trkpt lat="-9.0484696" lon="148.4224385"/>
      <trkpt lat="-9.0485729" lon="148.4222892"/>
      <trkpt lat="-9.0486578" lon="148.4221364"/>
      <trkpt lat="-9.0486942" lon="148.4219744"/>
      <trkpt lat="-9.0486849" lon="148.4218150"/>
      <trkpt lat="-9.0486483" lon="148.4216619"/>
    </trkseg>
    <trkseg>
      <trkpt lat="-9.0486202" lon="148.4224266"/>
      <trkpt lat="-9.0485284" lon="148.4225833"/>
      <trkpt lat="-9.0484366" lon="148.4227401"/>
      <trkpt lat="-9.0483497" lon="148.4228866"/>
      <trkpt lat="-9.0483155" lon="148.4229244"/>
      <trkpt lat="-9.0483339" lon="148.4228535"/>
      <trkpt lat="-9.0483999" lon="148.4226841"/>
      <trkpt lat="-9.0484659" lon="148.4225147"/>
      <trkpt lat="-9.0485319" lon="148.4223454"/>
      <trkpt lat="-9.0485680" lon="148.4222631"/>
      <trkpt lat="-9.0485629" lon="148.4222614"/>
      <trkpt lat="-9.0485418" lon="148.4222705"/>
      <trkpt lat="-9.0485281" lon="148.4221883"/>
      <trkpt lat="-9.0485332" lon="148.4220214"/>
      <trkpt lat="-9.0485387" lon="148.4218979"/>
      <trkpt lat="-9.0485580" lon="148.4218942"/>
      <trkpt lat="-9.0485912" lon="148.4220102"/>
      <trkpt lat="-9.0486387" lon="148.4221428"/>
      <trkpt lat="-9.0486967" lon="148.4221664"/>
      <trkpt lat="-9.0486970" lon="148.4220907"/>
      <trkpt lat="-9.0486343" lon="148.4219576"/>
      <trkpt lat="-9.0484966" lon="148.4218425"/>
      <trkpt lat="-9.0483536" lon="148.4217333"/>
      <trkpt lat="-9.0482316" lon="148.4216471"/>
      <trkpt lat="-9.0481394" lon="148.4215728"/>
    </trkseg>
    <trkseg>
      <trkpt lat="-9.0479501" lon="148.4218290"/>
      <trkpt lat="-9.0478043" lon="148.4217644"/>
      <trkpt lat="-9.0476542" lon="148.4216985"/>
      <trkpt lat="-9.0475036" lon="148.4216209"/>
      <trkpt lat="-9.0473699" lon="148.4215065"/>
      <trkpt lat="-9.0472321" lon="148.4213985"/>
      <trkpt lat="-9.0470828" lon="148.4213426"/>
      <trkpt lat="-9.0469222" lon="148.4213609"/>
      <trkpt lat="-9.0467572" lon="148.4214205"/>
      <trkpt lat="-9.0465927" lon="148.4214837"/>
      <trkpt lat="-9.0464210" lon="148.4215258"/>
      <trkpt lat="-9.0462478" lon="148.4215618"/>
      <trkpt lat="-9.0460698" lon="148.4215813"/>
      <trkpt lat="-9.0458941" lon="148.4216057"/>
      <trkpt lat="-9.0457375" lon="148.4216647"/>
      <trkpt lat="-9.0456018" lon="148.4217713"/>
      <trkpt lat="-9.0454941" lon="148.4219088"/>
      <trkpt lat="-9.0453806" lon="148.4220391"/>
      <trkpt lat="-9.0452587" lon="148.4221601"/>
      <trkpt lat="-9.0451139" lon="148.4222640"/>
      <trkpt lat="-9.0449685" lon="148.4223669"/>
      <trkpt lat="-9.0448246" lon="148.4224717"/>
      <trkpt lat="-9.0446772" lon="148.4225713"/>
      <trkpt lat="-9.0445259" lon="148.4226640"/>
      <trkpt lat="-9.0443701" lon="148.4227488"/>
      <trkpt lat="-9.0442228" lon="148.4228476"/>
      <trkpt lat="-9.0440778" lon="148.4229514"/>
      <trkpt lat="-9.0439402" lon="148.4230629"/>
      <trkpt lat="-9.0438276" lon="148.4231931"/>
      <trkpt lat="-9.0437537" lon="148.4233459"/>
      <trkpt lat="-9.0437428" lon="148.4235179"/>
      <trkpt lat="-9.0437734" lon="148.4236909"/>
      <trkpt lat="-9.0438320" lon="148.4238630"/>
      <trkpt lat="-9.0438940" lon="148.4240338"/>
      <trkpt lat="-9.0439603" lon="148.4242030"/>
      <trkpt lat="-9.0440454" lon="148.4243614"/>
      <trkpt lat="-9.0441449" lon="148.4245111"/>
      <trkpt lat="-9.0442607" lon="148.4246497"/>
      <trkpt lat="-9.0443630" lon="148.4247969"/>
      <trkpt lat="-9.0444536" lon="148.4249517"/>
      <trkpt lat="-9.0445262" lon="148.4251182"/>
      <trkpt lat="-9.0445958" lon="148.4252860"/>
      <trkpt lat="-9.0446644" lon="148.4254542"/>
      <trkpt lat="-9.0447321" lon="148.4256227"/>
      <trkpt lat="-9.0447881" lon="148.4257940"/>
      <trkpt lat="-9.0448262" lon="148.4259703"/>
      <trkpt lat="-9.0448561" lon="148.4261491"/>
      <trkpt lat="-9.0448927" lon="148.4263265"/>
      <trkpt lat="-9.0449515" lon="148.4264968"/>
      <trkpt lat="-9.0450269" lon="148.4266609"/>
      <trkpt lat="-9.0451151" lon="148.4268197"/>
      <trkpt lat="-9.0452021" lon="148.4269791"/>
      <trkpt lat="-9.0452868" lon="148.4271398"/>
      <trkpt lat="-9.0453642" lon="148.4273039"/>
      <trkpt lat="-9.0454278" lon="148.4274713"/>
      <trkpt lat="-9.0455053" lon="148.4276289"/>
      <trkpt lat="-9.0456041" lon="148.4277715"/>
      <trkpt lat="-9.0457400" lon="148.4278878"/>
      <trkpt lat="-9.0458695" lon="148.4280087"/>
      <trkpt lat="-9.0459945" lon="148.4281336"/>
      <trkpt lat="-9.0461069" lon="148.4282726"/>
      <trkpt lat="-9.0462116" lon="148.4284092"/>
      <trkpt lat="-9.0463337" lon="148.4285140"/>
      <trkpt lat="-9.0464521" lon="148.4286222"/>
      <trkpt lat="-9.0465731" lon="148.4287367"/>
      <trkpt lat="-9.0466831" lon="148.4288732"/>
      <trkpt lat="-9.0468168" lon="148.4289719"/>
      <trkpt lat="-9.0469729" lon="148.4290476"/>
      <trkpt lat="-9.0471313" lon="148.4291237"/>
      <trkpt lat="-9.0472841" lon="148.4292105"/>
      <trkpt lat="-9.0474251" lon="148.4293091"/>
      <trkpt lat="-9.0475718" lon="148.4293993"/>
      <trkpt lat="-9.0477218" lon="148.4294665"/>
      <trkpt lat="-9.0478914" lon="148.4294937"/>
      <trkpt lat="-9.0480632" lon="148.4295158"/>
      <trkpt lat="-9.0482271" lon="148.4295755"/>
      <trkpt lat="-9.0483862" lon="148.4296416"/>
      <trkpt lat="-9.0485496" lon="148.4296919"/>
      <trkpt lat="-9.0487243" lon="148.4297116"/>
      <trkpt lat="-9.0489026" lon="148.4297360"/>
      <trkpt lat="-9.0490756" lon="148.4297794"/>
      <trkpt lat="-9.0492467" lon="148.4298271"/>
      <trkpt lat="-9.0494048" lon="148.4298258"/>
      <trkpt lat="-9.0495424" lon="148.4297516"/>
      <trkpt lat="-9.0496570" lon="148.4296223"/>
      <trkpt lat="-9.0497757" lon="148.4295033"/>
      <trkpt lat="-9.0499184" lon="148.4294269"/>
      <trkpt lat="-9.0500865" lon="148.4293980"/>
      <trkpt lat="-9.0502629" lon="148.4293861"/>
      <trkpt lat="-9.0504270" lon="148.4293401"/>
      <trkpt lat="-9.0505752" lon="148.4292516"/>
      <trkpt lat="-9.0507082" lon="148.4291295"/>
      <trkpt lat="-9.0508408" lon="148.4290083"/>
      <trkpt lat="-9.0509810" lon="148.4288990"/>
      <trkpt lat="-9.0511356" lon="148.4288490"/>
      <trkpt lat="-9.0512586" lon="148.4288460"/>
      <trkpt lat="-9.0513208" lon="148.4288260"/>
      <trkpt lat="-9.0513523" lon="148.4287348"/>
      <trkpt lat="-9.0514089" lon="148.4285918"/>
      <trkpt lat="-9.0515330" lon="148.4284858"/>
      <trkpt lat="-9.0516808" lon="148.4284038"/>
      <trkpt lat="-9.0518376" lon="148.4283298"/>
      <trkpt lat="-9.0519749" lon="148.4282186"/>
      <trkpt lat="-9.0521157" lon="148.4281138"/>
      <trkpt lat="-9.0522679" lon="148.4280387"/>
      <trkpt lat="-9.0524313" lon="148.4280426"/>
      <trkpt lat="-9.0525935" lon="148.4280975"/>
      <trkpt lat="-9.0527412" lon="148.4281764"/>
      <trkpt lat="-9.0528875" lon="148.4282546"/>
      <trkpt lat="-9.0530306" lon="148.4283410"/>
      <trkpt lat="-9.0531809" lon="148.4284369"/>
      <trkpt lat="-9.0533227" lon="148.4285449"/>
      <trkpt lat="-9.0534647" lon="148.4286526"/>
      <trkpt lat="-9.0536052" lon="148.4287647"/>
      <trkpt lat="-9.0537483" lon="148.4288736"/>
      <trkpt lat="-9.0538909" lon="148.4289824"/>
      <trkpt lat="-9.0540232" lon="148.4291000"/>
      <trkpt lat="-9.0541350" lon="148.4292323"/>
      <trkpt lat="-9.0542177" lon="148.4293870"/>
      <trkpt lat="-9.0542653" lon="148.4295590"/>
      <trkpt lat="-9.0542879" lon="148.4297336"/>
      <trkpt lat="-9.0542848" lon="148.4299113"/>
      <trkpt lat="-9.0542963" lon="148.4300861"/>
      <trkpt lat="-9.0543439" lon="148.4302522"/>
      <trkpt lat="-9.0544151" lon="148.4304154"/>
      <trkpt lat="-9.0544921" lon="148.4305751"/>
      <trkpt lat="-9.0545661" lon="148.4307365"/>
      <trkpt lat="-9.0546454" lon="148.4308962"/>
      <trkpt lat="-9.0547440" lon="148.4310358"/>
      <trkpt lat="-9.0548604" lon="148.4311535"/>
      <trkpt lat="-9.0550061" lon="148.4311896"/>
      <trkpt lat="-9.0551177" lon="148.4311385"/>
      <trkpt lat="-9.0551481" lon="148.4310148"/>
      <trkpt lat="-9.0551361" lon="148.4308575"/>
      <trkpt lat="-9.0550855" lon="148.4307077"/>
      <trkpt lat="-9.0550472" lon="148.4305452"/>
      <trkpt lat="-9.0549948" lon="148.4303834"/>
      <trkpt lat="-9.0550036" lon="148.4302325"/>
      <trkpt lat="-9.0550499" lon="148.4301077"/>
      <trkpt lat="-9.0551135" lon="148.4299852"/>
      <trkpt lat="-9.0551871" lon="148.4298674"/>
      <trkpt lat="-9.0552739" lon="148.4297273"/>
      <trkpt lat="-9.0553618" lon="148.4295880"/>
      <trkpt lat="-9.0554591" lon="148.4294623"/>
      <trkpt lat="-9.0555314" lon="148.4293341"/>
      <trkpt lat="-9.0555597" lon="148.4292105"/>
      <trkpt lat="-9.0555411" lon="148.4290449"/>
      <trkpt lat="-9.0554691" lon="148.4289027"/>
      <trkpt lat="-9.0553938" lon="148.4287623"/>
      <trkpt lat="-9.0553246" lon="148.4286277"/>
      <trkpt lat="-9.0552874" lon="148.4284859"/>
      <trkpt lat="-9.0552410" lon="148.4283611"/>
      <trkpt lat="-9.0551574" lon="148.4282563"/>
      <trkpt lat="-9.0550999" lon="148.4281353"/>
      <trkpt lat="-9.0551306" lon="148.4280177"/>
      <trkpt lat="-9.0552116" lon="148.4278837"/>
      <trkpt lat="-9.0553232" lon="148.4277587"/>
      <trkpt lat="-9.0554279" lon="148.4276361"/>
      <trkpt lat="-9.0555574" lon="148.4275889"/>
      <trkpt lat="-9.0556710" lon="148.4275907"/>
      <trkpt lat="-9.0557702" lon="148.4276231"/>
    </trkseg>
    <trkseg>
      <trkpt lat="-9.0558678" lon="148.4276038"/>
      <trkpt lat="-9.0560470" lon="148.4275867"/>
      <trkpt lat="-9.0562267" lon="148.4275845"/>
      <trkpt lat="-9.0564041" lon="148.4276108"/>
      <trkpt lat="-9.0565769" lon="148.4276584"/>
      <trkpt lat="-9.0567476" lon="148.4277174"/>
      <trkpt lat="-9.0569196" lon="148.4277716"/>
      <trkpt lat="-9.0570954" lon="148.4278132"/>
      <trkpt lat="-9.0572734" lon="148.4278381"/>
      <trkpt lat="-9.0574514" lon="148.4278562"/>
      <trkpt lat="-9.0576280" lon="148.4278668"/>
      <trkpt lat="-9.0578035" lon="148.4278878"/>
      <trkpt lat="-9.0579785" lon="148.4279120"/>
      <trkpt lat="-9.0581538" lon="148.4279371"/>
      <trkpt lat="-9.0583280" lon="148.4279587"/>
      <trkpt lat="-9.0585032" lon="148.4279709"/>
      <trkpt lat="-9.0586770" lon="148.4279688"/>
      <trkpt lat="-9.0588463" lon="148.4279870"/>
      <trkpt lat="-9.0590141" lon="148.4280176"/>
      <trkpt lat="-9.0591825" lon="148.4280713"/>
      <trkpt lat="-9.0593558" lon="148.4280821"/>
      <trkpt lat="-9.0595098" lon="148.4280498"/>
      <trkpt lat="-9.0596647" lon="148.4279942"/>
      <trkpt lat="-9.0598125" lon="148.4279252"/>
      <trkpt lat="-9.0599791" lon="148.4278688"/>
      <trkpt lat="-9.0601407" lon="148.4277946"/>
      <trkpt lat="-9.0603056" lon="148.4277235"/>
      <trkpt lat="-9.0604719" lon="148.4276554"/>
      <trkpt lat="-9.0606216" lon="148.4275711"/>
      <trkpt lat="-9.0607742" lon="148.4275205"/>
      <trkpt lat="-9.0609239" lon="148.4274672"/>
      <trkpt lat="-9.0610841" lon="148.4274266"/>
      <trkpt lat="-9.0612343" lon="148.4273511"/>
      <trkpt lat="-9.0613863" lon="148.4272785"/>
      <trkpt lat="-9.0615479" lon="148.4272278"/>
      <trkpt lat="-9.0617098" lon="148.4271673"/>
      <trkpt lat="-9.0618656" lon="148.4270897"/>
      <trkpt lat="-9.0619728" lon="148.4269631"/>
      <trkpt lat="-9.0620762" lon="148.4268607"/>
      <trkpt lat="-9.0621258" lon="148.4267319"/>
      <trkpt lat="-9.0622005" lon="148.4266128"/>
      <trkpt lat="-9.0622765" lon="148.4264671"/>
      <trkpt lat="-9.0623856" lon="148.4263427"/>
      <trkpt lat="-9.0624912" lon="148.4262304"/>
    </trkseg>
    <trkseg>
      <trkpt lat="-9.0625896" lon="148.4262515"/>
      <trkpt lat="-9.0627658" lon="148.4262526"/>
      <trkpt lat="-9.0629283" lon="148.4262067"/>
      <trkpt lat="-9.0630811" lon="148.4261198"/>
      <trkpt lat="-9.0632202" lon="148.4260090"/>
      <trkpt lat="-9.0633502" lon="148.4258910"/>
      <trkpt lat="-9.0634822" lon="148.4257747"/>
      <trkpt lat="-9.0636007" lon="148.4256500"/>
      <trkpt lat="-9.0636541" lon="148.4255238"/>
      <trkpt lat="-9.0636278" lon="148.4253833"/>
      <trkpt lat="-9.0635981" lon="148.4252632"/>
      <trkpt lat="-9.0636483" lon="148.4251593"/>
      <trkpt lat="-9.0637564" lon="148.4250495"/>
      <trkpt lat="-9.0638870" lon="148.4249456"/>
      <trkpt lat="-9.0640211" lon="148.4248475"/>
      <trkpt lat="-9.0641767" lon="148.4247711"/>
      <trkpt lat="-9.0643414" lon="148.4247103"/>
      <trkpt lat="-9.0645094" lon="148.4246598"/>
      <trkpt lat="-9.0646770" lon="148.4246073"/>
      <trkpt lat="-9.0648173" lon="148.4245090"/>
      <trkpt lat="-9.0649229" lon="148.4243709"/>
      <trkpt lat="-9.0650078" lon="148.4242123"/>
      <trkpt lat="-9.0650780" lon="148.4240475"/>
      <trkpt lat="-9.0651087" lon="148.4238861"/>
      <trkpt lat="-9.0651085" lon="148.4237186"/>
      <trkpt lat="-9.0650735" lon="148.4235529"/>
      <trkpt lat="-9.0650836" lon="148.4233876"/>
      <trkpt lat="-9.0651373" lon="148.4233008"/>
      <trkpt lat="-9.0652543" lon="148.4233057"/>
      <trkpt lat="-9.0653526" lon="148.4234200"/>
      <trkpt lat="-9.0653839" lon="148.4235578"/>
      <trkpt lat="-9.0653634" lon="148.4236612"/>
      <trkpt lat="-9.0653273" lon="148.4237085"/>
    </trkseg>
    <trkseg>
      <trkpt lat="-9.0681696" lon="148.4245648"/>
      <trkpt lat="-9.0682488" lon="148.4246156"/>
    </trkseg>
    <trkseg>
      <trkpt lat="-9.0683288" lon="148.4246632"/>
      <trkpt lat="-9.0684906" lon="148.4247273"/>
      <trkpt lat="-9.0686265" lon="148.4248224"/>
      <trkpt lat="-9.0687154" lon="148.4249537"/>
      <trkpt lat="-9.0688101" lon="148.4250808"/>
      <trkpt lat="-9.0689135" lon="148.4252047"/>
      <trkpt lat="-9.0689821" lon="148.4253285"/>
      <trkpt lat="-9.0689571" lon="148.4254636"/>
      <trkpt lat="-9.0689173" lon="148.4255993"/>
      <trkpt lat="-9.0689489" lon="148.4257127"/>
      <trkpt lat="-9.0690556" lon="148.4258060"/>
      <trkpt lat="-9.0691896" lon="148.4258757"/>
      <trkpt lat="-9.0693085" lon="148.4259658"/>
      <trkpt lat="-9.0694299" lon="148.4260818"/>
      <trkpt lat="-9.0694873" lon="148.4262218"/>
      <trkpt lat="-9.0695682" lon="148.4263299"/>
      <trkpt lat="-9.0696355" lon="148.4264115"/>
      <trkpt lat="-9.0696604" lon="148.4264694"/>
      <trkpt lat="-9.0695836" lon="148.4265500"/>
      <trkpt lat="-9.0694710" lon="148.4266661"/>
      <trkpt lat="-9.0694543" lon="148.4268046"/>
      <trkpt lat="-9.0695211" lon="148.4269500"/>
      <trkpt lat="-9.0696338" lon="148.4270857"/>
      <trkpt lat="-9.0696556" lon="148.4272166"/>
      <trkpt lat="-9.0696277" lon="148.4273256"/>
      <trkpt lat="-9.0695556" lon="148.4274378"/>
      <trkpt lat="-9.0695552" lon="148.4275446"/>
      <trkpt lat="-9.0696177" lon="148.4276478"/>
      <trkpt lat="-9.0697459" lon="148.4277267"/>
      <trkpt lat="-9.0698661" lon="148.4278002"/>
      <trkpt lat="-9.0699119" lon="148.4278929"/>
      <trkpt lat="-9.0699643" lon="148.4279582"/>
      <trkpt lat="-9.0700544" lon="148.4280241"/>
      <trkpt lat="-9.0701834" lon="148.4281062"/>
      <trkpt lat="-9.0702829" lon="148.4282399"/>
      <trkpt lat="-9.0703796" lon="148.4283742"/>
      <trkpt lat="-9.0705182" lon="148.4284646"/>
      <trkpt lat="-9.0706788" lon="148.4285295"/>
      <trkpt lat="-9.0708437" lon="148.4285895"/>
      <trkpt lat="-9.0709881" lon="148.4286611"/>
      <trkpt lat="-9.0710987" lon="148.4287651"/>
      <trkpt lat="-9.0712019" lon="148.4288650"/>
      <trkpt lat="-9.0713211" lon="148.4289212"/>
      <trkpt lat="-9.0714592" lon="148.4289233"/>
      <trkpt lat="-9.0715807" lon="148.4288545"/>
      <trkpt lat="-9.0716890" lon="148.4287611"/>
      <trkpt lat="-9.0718139" lon="148.4286482"/>
      <trkpt lat="-9.0719234" lon="148.4286379"/>
      <trkpt lat="-9.0719720" lon="148.4287236"/>
      <trkpt lat="-9.0719305" lon="148.4288722"/>
      <trkpt lat="-9.0718589" lon="148.4290276"/>
      <trkpt lat="-9.0717942" lon="148.4291812"/>
      <trkpt lat="-9.0717536" lon="148.4293407"/>
      <trkpt lat="-9.0717267" lon="148.4294984"/>
      <trkpt lat="-9.0717312" lon="148.4296640"/>
      <trkpt lat="-9.0717895" lon="148.4298136"/>
      <trkpt lat="-9.0719008" lon="148.4298804"/>
      <trkpt lat="-9.0720355" lon="148.4298460"/>
      <trkpt lat="-9.0721618" lon="148.4297244"/>
      <trkpt lat="-9.0722723" lon="148.4295976"/>
      <trkpt lat="-9.0723687" lon="148.4295573"/>
      <trkpt lat="-9.0724689" lon="148.4296162"/>
      <trkpt lat="-9.0725670" lon="148.4297562"/>
      <trkpt lat="-9.0726792" lon="148.4298946"/>
      <trkpt lat="-9.0728047" lon="148.4300143"/>
      <trkpt lat="-9.0729481" lon="148.4300629"/>
      <trkpt lat="-9.0730783" lon="148.4300199"/>
      <trkpt lat="-9.0731996" lon="148.4299030"/>
      <trkpt lat="-9.0732997" lon="148.4297565"/>
      <trkpt lat="-9.0734000" lon="148.4296071"/>
      <trkpt lat="-9.0735039" lon="148.4294632"/>
      <trkpt lat="-9.0735554" lon="148.4293272"/>
      <trkpt lat="-9.0735255" lon="148.4292152"/>
      <trkpt lat="-9.0733924" lon="148.4291331"/>
      <trkpt lat="-9.0732505" lon="148.4290649"/>
      <trkpt lat="-9.0731423" lon="148.4290169"/>
      <trkpt lat="-9.0730472" lon="148.4289435"/>
      <trkpt lat="-9.0730125" lon="148.4288523"/>
      <trkpt lat="-9.0729445" lon="148.4287604"/>
      <trkpt lat="-9.0728843" lon="148.4286801"/>
      <trkpt lat="-9.0727822" lon="148.4285934"/>
      <trkpt lat="-9.0727335" lon="148.4284618"/>
      <trkpt lat="-9.0726687" lon="148.4283276"/>
      <trkpt lat="-9.0725814" lon="148.4282076"/>
      <trkpt lat="-9.0724650" lon="148.4280907"/>
      <trkpt lat="-9.0723792" lon="148.4279636"/>
      <trkpt lat="-9.0723133" lon="148.4278391"/>
      <trkpt lat="-9.0722685" lon="148.4277179"/>
      <trkpt lat="-9.0722879" lon="148.4275878"/>
      <trkpt lat="-9.0723647" lon="148.4274528"/>
      <trkpt lat="-9.0723982" lon="148.4273724"/>
      <trkpt lat="-9.0723640" lon="148.4273296"/>
      <trkpt lat="-9.0722587" lon="148.4272941"/>
      <trkpt lat="-9.0721903" lon="148.4271933"/>
      <trkpt lat="-9.0721184" lon="148.4270494"/>
      <trkpt lat="-9.0720382" lon="148.4268981"/>
      <trkpt lat="-9.0719154" lon="148.4267981"/>
      <trkpt lat="-9.0717815" lon="148.4267076"/>
      <trkpt lat="-9.0716570" lon="148.4266280"/>
      <trkpt lat="-9.0715411" lon="148.4265281"/>
      <trkpt lat="-9.0714419" lon="148.4264143"/>
      <trkpt lat="-9.0713783" lon="148.4262815"/>
      <trkpt lat="-9.0713771" lon="148.4261214"/>
      <trkpt lat="-9.0713541" lon="148.4259786"/>
      <trkpt lat="-9.0713443" lon="148.4258383"/>
      <trkpt lat="-9.0713221" lon="148.4256964"/>
      <trkpt lat="-9.0713491" lon="148.4255313"/>
      <trkpt lat="-9.0713253" lon="148.4254047"/>
      <trkpt lat="-9.0712439" lon="148.4253160"/>
      <trkpt lat="-9.0711128" lon="148.4252509"/>
      <trkpt lat="-9.0709618" lon="148.4251597"/>
      <trkpt lat="-9.0708316" lon="148.4250476"/>
      <trkpt lat="-9.0707797" lon="148.4249287"/>
      <trkpt lat="-9.0708334" lon="148.4248591"/>
      <trkpt lat="-9.0709582" lon="148.4248528"/>
      <trkpt lat="-9.0709990" lon="148.4248746"/>
      <trkpt lat="-9.0709361" lon="148.4248509"/>
      <trkpt lat="-9.0708181" lon="148.4247464"/>
      <trkpt lat="-9.0707220" lon="148.4246080"/>
      <trkpt lat="-9.0706508" lon="148.4244895"/>
      <trkpt lat="-9.0705751" lon="148.4243996"/>
      <trkpt lat="-9.0704918" lon="148.4243132"/>
      <trkpt lat="-9.0703903" lon="148.4241935"/>
      <trkpt lat="-9.0702977" lon="148.4240433"/>
      <trkpt lat="-9.0702206" lon="148.4238972"/>
      <trkpt lat="-9.0702306" lon="148.4237641"/>
      <trkpt lat="-9.0702332" lon="148.4236382"/>
      <trkpt lat="-9.0702387" lon="148.4234995"/>
      <trkpt lat="-9.0701945" lon="148.4233376"/>
      <trkpt lat="-9.0701975" lon="148.4232112"/>
      <trkpt lat="-9.0702204" lon="148.4231340"/>
      <trkpt lat="-9.0702453" lon="148.4231069"/>
    </trkseg>
    <trkseg>
      <trkpt lat="-9.0703436" lon="148.4232217"/>
      <trkpt lat="-9.0703715" lon="148.4230419"/>
      <trkpt lat="-9.0703994" lon="148.4228622"/>
      <trkpt lat="-9.0704273" lon="148.4226824"/>
      <trkpt lat="-9.0704552" lon="148.4225026"/>
      <trkpt lat="-9.0704831" lon="148.4223229"/>
      <trkpt lat="-9.0705110" lon="148.4221431"/>
      <trkpt lat="-9.0705388" lon="148.4219634"/>
      <trkpt lat="-9.0705654" lon="148.4217962"/>
      <trkpt lat="-9.0705792" lon="148.4217496"/>
      <trkpt lat="-9.0705919" lon="148.4217400"/>
      <trkpt lat="-9.0706102" lon="148.4217186"/>
      <trkpt lat="-9.0706453" lon="148.4215775"/>
      <trkpt lat="-9.0706602" lon="148.4214733"/>
      <trkpt lat="-9.0706910" lon="148.4214515"/>
      <trkpt lat="-9.0707665" lon="148.4214744"/>
      <trkpt lat="-9.0709128" lon="148.4214713"/>
      <trkpt lat="-9.0710859" lon="148.4214247"/>
      <trkpt lat="-9.0712563" lon="148.4213686"/>
      <trkpt lat="-9.0714237" lon="148.4213025"/>
      <trkpt lat="-9.0715742" lon="148.4212104"/>
      <trkpt lat="-9.0717127" lon="148.4211007"/>
      <trkpt lat="-9.0718550" lon="148.4210120"/>
      <trkpt lat="-9.0720183" lon="148.4209699"/>
      <trkpt lat="-9.0721986" lon="148.4209699"/>
      <trkpt lat="-9.0723621" lon="148.4209284"/>
      <trkpt lat="-9.0724782" lon="148.4208279"/>
      <trkpt lat="-9.0725577" lon="148.4206715"/>
      <trkpt lat="-9.0726003" lon="148.4204978"/>
      <trkpt lat="-9.0726287" lon="148.4203219"/>
      <trkpt lat="-9.0726386" lon="148.4201415"/>
      <trkpt lat="-9.0726592" lon="148.4199626"/>
      <trkpt lat="-9.0726719" lon="148.4197850"/>
      <trkpt lat="-9.0726780" lon="148.4196082"/>
      <trkpt lat="-9.0726676" lon="148.4194292"/>
      <trkpt lat="-9.0726750" lon="148.4192520"/>
      <trkpt lat="-9.0726642" lon="148.4190778"/>
      <trkpt lat="-9.0726474" lon="148.4189054"/>
      <trkpt lat="-9.0726183" lon="148.4187300"/>
      <trkpt lat="-9.0725942" lon="148.4185528"/>
      <trkpt lat="-9.0725716" lon="148.4183741"/>
      <trkpt lat="-9.0725396" lon="148.4181968"/>
      <trkpt lat="-9.0724926" lon="148.4180250"/>
      <trkpt lat="-9.0724161" lon="148.4178635"/>
      <trkpt lat="-9.0723374" lon="148.4177043"/>
      <trkpt lat="-9.0722719" lon="148.4175450"/>
      <trkpt lat="-9.0721899" lon="148.4174064"/>
      <trkpt lat="-9.0721463" lon="148.4173196"/>
      <trkpt lat="-9.0721206" lon="148.4172690"/>
      <trkpt lat="-9.0721418" lon="148.4172518"/>
      <trkpt lat="-9.0721426" lon="148.4172237"/>
      <trkpt lat="-9.0720947" lon="148.4172116"/>
      <trkpt lat="-9.0720017" lon="148.4171636"/>
      <trkpt lat="-9.0718486" lon="148.4171144"/>
      <trkpt lat="-9.0717061" lon="148.4170386"/>
      <trkpt lat="-9.0715607" lon="148.4169716"/>
      <trkpt lat="-9.0714157" lon="148.4169045"/>
      <trkpt lat="-9.0712483" lon="148.4168534"/>
      <trkpt lat="-9.0710729" lon="148.4168155"/>
      <trkpt lat="-9.0709043" lon="148.4167663"/>
      <trkpt lat="-9.0707440" lon="148.4166967"/>
      <trkpt lat="-9.0705898" lon="148.4166086"/>
      <trkpt lat="-9.0704575" lon="148.4164964"/>
      <trkpt lat="-9.0703574" lon="148.4163591"/>
      <trkpt lat="-9.0702881" lon="148.4161956"/>
      <trkpt lat="-9.0701966" lon="148.4160531"/>
      <trkpt lat="-9.0700723" lon="148.4159363"/>
      <trkpt lat="-9.0699136" lon="148.4158534"/>
      <trkpt lat="-9.0697543" lon="148.4157710"/>
      <trkpt lat="-9.0695996" lon="148.4156817"/>
      <trkpt lat="-9.0694627" lon="148.4155670"/>
      <trkpt lat="-9.0693459" lon="148.4154312"/>
      <trkpt lat="-9.0692408" lon="148.4152851"/>
      <trkpt lat="-9.0691411" lon="148.4151347"/>
      <trkpt lat="-9.0690457" lon="148.4149827"/>
      <trkpt lat="-9.0689628" lon="148.4148247"/>
      <trkpt lat="-9.0688824" lon="148.4146685"/>
      <trkpt lat="-9.0687883" lon="148.4145211"/>
      <trkpt lat="-9.0686956" lon="148.4143715"/>
      <trkpt lat="-9.0686119" lon="148.4142138"/>
      <trkpt lat="-9.0685529" lon="148.4140423"/>
      <trkpt lat="-9.0684774" lon="148.4138804"/>
      <trkpt lat="-9.0683927" lon="148.4137245"/>
      <trkpt lat="-9.0682773" lon="148.4135888"/>
      <trkpt lat="-9.0681475" lon="148.4134702"/>
      <trkpt lat="-9.0679969" lon="148.4133721"/>
      <trkpt lat="-9.0678410" lon="148.4132817"/>
      <trkpt lat="-9.0676856" lon="148.4131913"/>
      <trkpt lat="-9.0675330" lon="148.4131027"/>
      <trkpt lat="-9.0673739" lon="148.4130300"/>
      <trkpt lat="-9.0672202" lon="148.4129517"/>
      <trkpt lat="-9.0670878" lon="148.4128480"/>
      <trkpt lat="-9.0669755" lon="148.4127140"/>
      <trkpt lat="-9.0668520" lon="148.4126060"/>
      <trkpt lat="-9.0666964" lon="148.4125526"/>
      <trkpt lat="-9.0665220" lon="148.4125338"/>
      <trkpt lat="-9.0663464" lon="148.4125099"/>
      <trkpt lat="-9.0661785" lon="148.4124553"/>
      <trkpt lat="-9.0660129" lon="148.4123866"/>
      <trkpt lat="-9.0658469" lon="148.4123214"/>
      <trkpt lat="-9.0656817" lon="148.4122574"/>
      <trkpt lat="-9.0655286" lon="148.4121765"/>
      <trkpt lat="-9.0653891" lon="148.4120685"/>
      <trkpt lat="-9.0652726" lon="148.4119362"/>
      <trkpt lat="-9.0652292" lon="148.4117992"/>
      <trkpt lat="-9.0651923" lon="148.4116568"/>
      <trkpt lat="-9.0651580" lon="148.4115157"/>
      <trkpt lat="-9.0650859" lon="148.4114205"/>
      <trkpt lat="-9.0650752" lon="148.4113232"/>
      <trkpt lat="-9.0651032" lon="148.4112187"/>
      <trkpt lat="-9.0651612" lon="148.4110614"/>
      <trkpt lat="-9.0651587" lon="148.4109109"/>
      <trkpt lat="-9.0650989" lon="148.4107781"/>
      <trkpt lat="-9.0649830" lon="148.4106514"/>
      <trkpt lat="-9.0648596" lon="148.4105299"/>
      <trkpt lat="-9.0647471" lon="148.4103989"/>
      <trkpt lat="-9.0646403" lon="148.4102658"/>
      <trkpt lat="-9.0645345" lon="148.4101319"/>
      <trkpt lat="-9.0644676" lon="148.4100000"/>
      <trkpt lat="-9.0644419" lon="148.4098610"/>
      <trkpt lat="-9.0644912" lon="148.4097090"/>
      <trkpt lat="-9.0645462" lon="148.4095466"/>
      <trkpt lat="-9.0646132" lon="148.4093858"/>
      <trkpt lat="-9.0646977" lon="148.4092384"/>
      <trkpt lat="-9.0648275" lon="148.4091297"/>
      <trkpt lat="-9.0649720" lon="148.4090303"/>
      <trkpt lat="-9.0650739" lon="148.4089061"/>
      <trkpt lat="-9.0651222" lon="148.4087456"/>
      <trkpt lat="-9.0651580" lon="148.4085769"/>
      <trkpt lat="-9.0652269" lon="148.4084243"/>
      <trkpt lat="-9.0653459" lon="148.4083002"/>
      <trkpt lat="-9.0654891" lon="148.4081995"/>
      <trkpt lat="-9.0656358" lon="148.4080981"/>
      <trkpt lat="-9.0657811" lon="148.4079994"/>
      <trkpt lat="-9.0659113" lon="148.4078843"/>
      <trkpt lat="-9.0660585" lon="148.4078250"/>
      <trkpt lat="-9.0661972" lon="148.4077486"/>
      <trkpt lat="-9.0663519" lon="148.4076999"/>
      <trkpt lat="-9.0665009" lon="148.4076196"/>
      <trkpt lat="-9.0666583" lon="148.4075547"/>
      <trkpt lat="-9.0668229" lon="148.4074983"/>
      <trkpt lat="-9.0669928" lon="148.4074481"/>
      <trkpt lat="-9.0671601" lon="148.4073994"/>
      <trkpt lat="-9.0672995" lon="148.4073172"/>
      <trkpt lat="-9.0674210" lon="148.4072116"/>
      <trkpt lat="-9.0674919" lon="148.4071230"/>
      <trkpt lat="-9.0675601" lon="148.4070325"/>
      <trkpt lat="-9.0676405" lon="148.4069532"/>
      <trkpt lat="-9.0677801" lon="148.4068908"/>
      <trkpt lat="-9.0679492" lon="148.4068657"/>
      <trkpt lat="-9.0681251" lon="148.4068682"/>
      <trkpt lat="-9.0682899" lon="148.4068943"/>
      <trkpt lat="-9.0684530" lon="148.4069500"/>
      <trkpt lat="-9.0686152" lon="148.4070159"/>
      <trkpt lat="-9.0687882" lon="148.4070640"/>
      <trkpt lat="-9.0689598" lon="148.4071148"/>
      <trkpt lat="-9.0690982" lon="148.4071874"/>
      <trkpt lat="-9.0691830" lon="148.4072434"/>
      <trkpt lat="-9.0692248" lon="148.4072684"/>
      <trkpt lat="-9.0692730" lon="148.4072207"/>
      <trkpt lat="-9.0693333" lon="148.4071239"/>
      <trkpt lat="-9.0694015" lon="148.4069918"/>
      <trkpt lat="-9.0694362" lon="148.4068392"/>
      <trkpt lat="-9.0694791" lon="148.4066822"/>
      <trkpt lat="-9.0695036" lon="148.4065072"/>
      <trkpt lat="-9.0695365" lon="148.4063314"/>
      <trkpt lat="-9.0695515" lon="148.4061511"/>
      <trkpt lat="-9.0695966" lon="148.4059808"/>
      <trkpt lat="-9.0696225" lon="148.4058321"/>
      <trkpt lat="-9.0696347" lon="148.4056871"/>
      <trkpt lat="-9.0695622" lon="148.4055731"/>
      <trkpt lat="-9.0694460" lon="148.4054773"/>
      <trkpt lat="-9.0692799" lon="148.4054192"/>
      <trkpt lat="-9.0691081" lon="148.4053668"/>
      <trkpt lat="-9.0689349" lon="148.4053164"/>
      <trkpt lat="-9.0687598" lon="148.4052734"/>
      <trkpt lat="-9.0685842" lon="148.4052322"/>
      <trkpt lat="-9.0684085" lon="148.4051908"/>
      <trkpt lat="-9.0682349" lon="148.4051418"/>
      <trkpt lat="-9.0680866" lon="148.4050602"/>
      <trkpt lat="-9.0679537" lon="148.4049572"/>
      <trkpt lat="-9.0678562" lon="148.4048202"/>
      <trkpt lat="-9.0677681" lon="148.4046736"/>
      <trkpt lat="-9.0676647" lon="148.4045483"/>
      <trkpt lat="-9.0675435" lon="148.4044311"/>
      <trkpt lat="-9.0674053" lon="148.4043288"/>
      <trkpt lat="-9.0672826" lon="148.4042038"/>
      <trkpt lat="-9.0671496" lon="148.4040908"/>
      <trkpt lat="-9.0670070" lon="148.4039880"/>
      <trkpt lat="-9.0668615" lon="148.4038880"/>
      <trkpt lat="-9.0667101" lon="148.4038008"/>
      <trkpt lat="-9.0665743" lon="148.4037084"/>
      <trkpt lat="-9.0664845" lon="148.4035949"/>
      <trkpt lat="-9.0664565" lon="148.4034413"/>
      <trkpt lat="-9.0664498" lon="148.4032709"/>
      <trkpt lat="-9.0664350" lon="148.4031000"/>
      <trkpt lat="-9.0664139" lon="148.4029306"/>
      <trkpt lat="-9.0664072" lon="148.4027524"/>
      <trkpt lat="-9.0664104" lon="148.4025751"/>
      <trkpt lat="-9.0663822" lon="148.4024054"/>
      <trkpt lat="-9.0663374" lon="148.4022388"/>
      <trkpt lat="-9.0662997" lon="148.4020715"/>
      <trkpt lat="-9.0663173" lon="148.4019003"/>
      <trkpt lat="-9.0663842" lon="148.4017364"/>
      <trkpt lat="-9.0664455" lon="148.4015799"/>
      <trkpt lat="-9.0664909" lon="148.4014230"/>
      <trkpt lat="-9.0664935" lon="148.4012581"/>
      <trkpt lat="-9.0665170" lon="148.4010930"/>
      <trkpt lat="-9.0665291" lon="148.4009271"/>
      <trkpt lat="-9.0665192" lon="148.4007674"/>
      <trkpt lat="-9.0664553" lon="148.4006072"/>
      <trkpt lat="-9.0663777" lon="148.4004454"/>
      <trkpt lat="-9.0663270" lon="148.4002773"/>
      <trkpt lat="-9.0662778" lon="148.4001078"/>
      <trkpt lat="-9.0662634" lon="148.3999508"/>
      <trkpt lat="-9.0663084" lon="148.3998302"/>
      <trkpt lat="-9.0664170" lon="148.3997294"/>
      <trkpt lat="-9.0665046" lon="148.3996152"/>
      <trkpt lat="-9.0665117" lon="148.3994746"/>
      <trkpt lat="-9.0664497" lon="148.3993217"/>
      <trkpt lat="-9.0663490" lon="148.3991966"/>
      <trkpt lat="-9.0663331" lon="148.3991185"/>
      <trkpt lat="-9.0663373" lon="148.3990280"/>
      <trkpt lat="-9.0663858" lon="148.3989141"/>
      <trkpt lat="-9.0663620" lon="148.3987417"/>
      <trkpt lat="-9.0663396" lon="148.3985721"/>
      <trkpt lat="-9.0663010" lon="148.3984039"/>
      <trkpt lat="-9.0662717" lon="148.3982397"/>
      <trkpt lat="-9.0662449" lon="148.3980744"/>
      <trkpt lat="-9.0662475" lon="148.3979062"/>
      <trkpt lat="-9.0662274" lon="148.3977406"/>
      <trkpt lat="-9.0661672" lon="148.3975962"/>
      <trkpt lat="-9.0660458" lon="148.3974709"/>
      <trkpt lat="-9.0659346" lon="148.3973606"/>
      <trkpt lat="-9.0658732" lon="148.3972288"/>
      <trkpt lat="-9.0658661" lon="148.3970742"/>
      <trkpt lat="-9.0658416" lon="148.3969156"/>
      <trkpt lat="-9.0657787" lon="148.3967723"/>
      <trkpt lat="-9.0657299" lon="148.3966355"/>
      <trkpt lat="-9.0657545" lon="148.3964969"/>
      <trkpt lat="-9.0658352" lon="148.3963439"/>
      <trkpt lat="-9.0658934" lon="148.3961833"/>
      <trkpt lat="-9.0659141" lon="148.3960053"/>
      <trkpt lat="-9.0659142" lon="148.3958291"/>
      <trkpt lat="-9.0658551" lon="148.3957209"/>
      <trkpt lat="-9.0657367" lon="148.3956550"/>
      <trkpt lat="-9.0655602" lon="148.3956383"/>
      <trkpt lat="-9.0653836" lon="148.3956074"/>
      <trkpt lat="-9.0652125" lon="148.3955641"/>
      <trkpt lat="-9.0650512" lon="148.3954927"/>
      <trkpt lat="-9.0649039" lon="148.3953888"/>
      <trkpt lat="-9.0647653" lon="148.3952730"/>
      <trkpt lat="-9.0646382" lon="148.3951447"/>
      <trkpt lat="-9.0645119" lon="148.3950162"/>
      <trkpt lat="-9.0643873" lon="148.3948865"/>
      <trkpt lat="-9.0642514" lon="148.3947690"/>
      <trkpt lat="-9.0641032" lon="148.3946762"/>
      <trkpt lat="-9.0639371" lon="148.3946163"/>
      <trkpt lat="-9.0637619" lon="148.3945803"/>
      <trkpt lat="-9.0635854" lon="148.3945472"/>
      <trkpt lat="-9.0634126" lon="148.3945442"/>
      <trkpt lat="-9.0632606" lon="148.3945979"/>
      <trkpt lat="-9.0631358" lon="148.3947155"/>
      <trkpt lat="-9.0630506" lon="148.3948713"/>
      <trkpt lat="-9.0629529" lon="148.3950022"/>
      <trkpt lat="-9.0628464" lon="148.3950437"/>
      <trkpt lat="-9.0627493" lon="148.3949674"/>
      <trkpt lat="-9.0627032" lon="148.3948107"/>
      <trkpt lat="-9.0626647" lon="148.3946429"/>
      <trkpt lat="-9.0626108" lon="148.3944799"/>
      <trkpt lat="-9.0625151" lon="148.3943336"/>
      <trkpt lat="-9.0623944" lon="148.3942245"/>
      <trkpt lat="-9.0622358" lon="148.3941788"/>
      <trkpt lat="-9.0620669" lon="148.3941963"/>
      <trkpt lat="-9.0619050" lon="148.3942575"/>
      <trkpt lat="-9.0617604" lon="148.3943535"/>
      <trkpt lat="-9.0616188" lon="148.3944627"/>
      <trkpt lat="-9.0614813" lon="148.3945781"/>
      <trkpt lat="-9.0613287" lon="148.3946629"/>
      <trkpt lat="-9.0611672" lon="148.3947293"/>
      <trkpt lat="-9.0609967" lon="148.3947752"/>
      <trkpt lat="-9.0608421" lon="148.3948483"/>
      <trkpt lat="-9.0607145" lon="148.3949569"/>
      <trkpt lat="-9.0605953" lon="148.3950699"/>
      <trkpt lat="-9.0604832" lon="148.3951800"/>
      <trkpt lat="-9.0603779" lon="148.3951933"/>
      <trkpt lat="-9.0602641" lon="148.3951651"/>
      <trkpt lat="-9.0601264" lon="148.3951118"/>
      <trkpt lat="-9.0599798" lon="148.3951489"/>
      <trkpt lat="-9.0598609" lon="148.3952594"/>
      <trkpt lat="-9.0597731" lon="148.3954120"/>
      <trkpt lat="-9.0596872" lon="148.3955679"/>
      <trkpt lat="-9.0596149" lon="148.3957259"/>
      <trkpt lat="-9.0595716" lon="148.3958908"/>
      <trkpt lat="-9.0595520" lon="148.3960666"/>
      <trkpt lat="-9.0595119" lon="148.3962328"/>
      <trkpt lat="-9.0594226" lon="148.3963749"/>
      <trkpt lat="-9.0593068" lon="148.3965066"/>
      <trkpt lat="-9.0591929" lon="148.3966386"/>
      <trkpt lat="-9.0591039" lon="148.3967722"/>
      <trkpt lat="-9.0590905" lon="148.3968998"/>
      <trkpt lat="-9.0591203" lon="148.3970364"/>
      <trkpt lat="-9.0591886" lon="148.3971920"/>
      <trkpt lat="-9.0592381" lon="148.3973602"/>
      <trkpt lat="-9.0592765" lon="148.3975316"/>
      <trkpt lat="-9.0593119" lon="148.3977034"/>
      <trkpt lat="-9.0593513" lon="148.3978726"/>
      <trkpt lat="-9.0593690" lon="148.3980343"/>
      <trkpt lat="-9.0593701" lon="148.3981977"/>
      <trkpt lat="-9.0593777" lon="148.3983582"/>
      <trkpt lat="-9.0594364" lon="148.3985201"/>
      <trkpt lat="-9.0595356" lon="148.3986652"/>
      <trkpt lat="-9.0596425" lon="148.3987995"/>
      <trkpt lat="-9.0597402" lon="148.3989366"/>
      <trkpt lat="-9.0598389" lon="148.3990780"/>
      <trkpt lat="-9.0599161" lon="148.3992368"/>
      <trkpt lat="-9.0599976" lon="148.3993957"/>
      <trkpt lat="-9.0600625" lon="148.3995647"/>
      <trkpt lat="-9.0601255" lon="148.3997345"/>
      <trkpt lat="-9.0601578" lon="148.3999006"/>
      <trkpt lat="-9.0601854" lon="148.4000687"/>
      <trkpt lat="-9.0602064" lon="148.4002371"/>
      <trkpt lat="-9.0602567" lon="148.4004096"/>
      <trkpt lat="-9.0603254" lon="148.4005697"/>
      <trkpt lat="-9.0604068" lon="148.4007204"/>
      <trkpt lat="-9.0604735" lon="148.4008680"/>
      <trkpt lat="-9.0605340" lon="148.4010213"/>
      <trkpt lat="-9.0606091" lon="148.4011688"/>
      <trkpt lat="-9.0607004" lon="148.4013182"/>
      <trkpt lat="-9.0607838" lon="148.4014720"/>
      <trkpt lat="-9.0607832" lon="148.4016063"/>
      <trkpt lat="-9.0607023" lon="148.4017045"/>
      <trkpt lat="-9.0605463" lon="148.4017723"/>
      <trkpt lat="-9.0603927" lon="148.4018588"/>
      <trkpt lat="-9.0602456" lon="148.4019593"/>
      <trkpt lat="-9.0601019" lon="148.4020665"/>
      <trkpt lat="-9.0599437" lon="148.4021430"/>
      <trkpt lat="-9.0597797" lon="148.4022082"/>
      <trkpt lat="-9.0596147" lon="148.4022664"/>
      <trkpt lat="-9.0594596" lon="148.4023472"/>
      <trkpt lat="-9.0593126" lon="148.4024432"/>
      <trkpt lat="-9.0591612" lon="148.4025315"/>
      <trkpt lat="-9.0590096" lon="148.4026221"/>
      <trkpt lat="-9.0588588" lon="148.4027133"/>
      <trkpt lat="-9.0587137" lon="148.4028187"/>
      <trkpt lat="-9.0585716" lon="148.4029243"/>
      <trkpt lat="-9.0584557" lon="148.4030484"/>
      <trkpt lat="-9.0583827" lon="148.4032008"/>
      <trkpt lat="-9.0583362" lon="148.4033742"/>
      <trkpt lat="-9.0582796" lon="148.4035433"/>
      <trkpt lat="-9.0581956" lon="148.4037004"/>
      <trkpt lat="-9.0580821" lon="148.4038363"/>
      <trkpt lat="-9.0579745" lon="148.4039746"/>
      <trkpt lat="-9.0578762" lon="148.4041198"/>
      <trkpt lat="-9.0577944" lon="148.4042781"/>
      <trkpt lat="-9.0577168" lon="148.4044385"/>
      <trkpt lat="-9.0576361" lon="148.4045970"/>
      <trkpt lat="-9.0575532" lon="148.4047523"/>
      <trkpt lat="-9.0574393" lon="148.4048814"/>
      <trkpt lat="-9.0572954" lon="148.4049707"/>
      <trkpt lat="-9.0571265" lon="148.4050263"/>
      <trkpt lat="-9.0569494" lon="148.4050584"/>
      <trkpt lat="-9.0567715" lon="148.4050807"/>
      <trkpt lat="-9.0565939" lon="148.4051058"/>
      <trkpt lat="-9.0564205" lon="148.4051381"/>
      <trkpt lat="-9.0562563" lon="148.4051965"/>
      <trkpt lat="-9.0560996" lon="148.4052714"/>
      <trkpt lat="-9.0559496" lon="148.4053664"/>
      <trkpt lat="-9.0557954" lon="148.4054575"/>
      <trkpt lat="-9.0556395" lon="148.4055464"/>
      <trkpt lat="-9.0554863" lon="148.4056400"/>
      <trkpt lat="-9.0553331" lon="148.4057317"/>
      <trkpt lat="-9.0552012" lon="148.4058043"/>
      <trkpt lat="-9.0550842" lon="148.4058492"/>
    </trkseg>
  </trk>
</gpx>
