<?xml version="1.0" encoding="UTF-8"?>
<gpx version="1.1" creator="MCA Maps — Managalas clan boundary survey"
     xmlns="http://www.topografix.com/GPX/1/1"
     xmlns:xsi="http://www.w3.org/2001/XMLSchema-instance"
     xsi:schemaLocation="http://www.topografix.com/GPX/1/1 http://www.topografix.com/GPX/1/1/gpx.xsd">
  <metadata>
    <name>Nui — clan land boundary</name>
    <desc>Nui, Zone 3. 23.4 km walked; 14.7 km still to walk in 5 gaps. 1 join(s) under the marking threshold are not shown.</desc>
    <time>2026-08-23T00:00:00Z</time>
  </metadata>
  <wpt lat="-9.1566971" lon="148.3308386">
    <name>GAP 1 OF 5 START</name>
    <desc>6.37 km not walked. This straight line is not a boundary — it joins the two ends so the shape can be closed on paper. Nui, Zone 3.</desc>
    <sym>Flag</sym>
  </wpt>
  <wpt lat="-9.1033516" lon="148.3090760">
    <name>GAP 1 OF 5 END</name>
    <desc>6.37 km not walked. This straight line is not a boundary — it joins the two ends so the shape can be closed on paper. Nui, Zone 3.</desc>
    <sym>Flag</sym>
  </wpt>
  <wpt lat="-9.1116137" lon="148.3223340">
    <name>GAP 2 OF 5 START</name>
    <desc>0.20 km not walked. This straight line is not a boundary — it joins the two ends so the shape can be closed on paper. Nui, Zone 3.</desc>
    <sym>Flag</sym>
  </wpt>
  <wpt lat="-9.1123607" lon="148.3240324">
    <name>GAP 2 OF 5 END</name>
    <desc>0.20 km not walked. This straight line is not a boundary — it joins the two ends so the shape can be closed on paper. Nui, Zone 3.</desc>
    <sym>Flag</sym>
  </wpt>
  <wpt lat="-9.1276646" lon="148.3368473">
    <name>GAP 3 OF 5 START</name>
    <desc>0.39 km not walked. This straight line is not a boundary — it joins the two ends so the shape can be closed on paper. Nui, Zone 3.</desc>
    <sym>Flag</sym>
  </wpt>
  <wpt lat="-9.1309972" lon="148.3357053">
    <name>GAP 3 OF 5 END</name>
    <desc>0.39 km not walked. This straight line is not a boundary — it joins the two ends so the shape can be closed on paper. Nui, Zone 3.</desc>
    <sym>Flag</sym>
  </wpt>
  <wpt lat="-9.1310723" lon="148.3348051">
    <name>GAP 4 OF 5 START</name>
    <desc>4.45 km not walked. This straight line is not a boundary — it joins the two ends so the shape can be closed on paper. Nui, Zone 3.</desc>
    <sym>Flag</sym>
  </wpt>
  <wpt lat="-9.1686261" lon="148.3494448">
    <name>GAP 4 OF 5 END</name>
    <desc>4.45 km not walked. This straight line is not a boundary — it joins the two ends so the shape can be closed on paper. Nui, Zone 3.</desc>
    <sym>Flag</sym>
  </wpt>
  <wpt lat="-9.1813377" lon="148.3502293">
    <name>GAP 5 OF 5 START</name>
    <desc>3.26 km not walked. This straight line is not a boundary — it joins the two ends so the shape can be closed on paper. Nui, Zone 3.</desc>
    <sym>Flag</sym>
  </wpt>
  <wpt lat="-9.1579831" lon="148.3321940">
    <name>GAP 5 OF 5 END</name>
    <desc>3.26 km not walked. This straight line is not a boundary — it joins the two ends so the shape can be closed on paper. Nui, Zone 3.</desc>
    <sym>Flag</sym>
  </wpt>
  <trk>
    <name>GAP 1 OF 5 - NOT WALKED - 6.37 km</name>
    <desc>6.37 km not walked. This straight line is not a boundary — it joins the two ends so the shape can be closed on paper. Nui, Zone 3.</desc>
    <type>not-walked</type>
    <trkseg>
      <trkpt lat="-9.1566971" lon="148.3308386"/>
      <trkpt lat="-9.1033516" lon="148.3090760"/>
    </trkseg>
  </trk>
  <trk>
    <name>GAP 2 OF 5 - NOT WALKED - 0.20 km</name>
    <desc>0.20 km not walked. This straight line is not a boundary — it joins the two ends so the shape can be closed on paper. Nui, Zone 3.</desc>
    <type>not-walked</type>
    <trkseg>
      <trkpt lat="-9.1116137" lon="148.3223340"/>
      <trkpt lat="-9.1123607" lon="148.3240324"/>
    </trkseg>
  </trk>
  <trk>
    <name>GAP 3 OF 5 - NOT WALKED - 0.39 km</name>
    <desc>0.39 km not walked. This straight line is not a boundary — it joins the two ends so the shape can be closed on paper. Nui, Zone 3.</desc>
    <type>not-walked</type>
    <trkseg>
      <trkpt lat="-9.1276646" lon="148.3368473"/>
      <trkpt lat="-9.1309972" lon="148.3357053"/>
    </trkseg>
  </trk>
  <trk>
    <name>GAP 4 OF 5 - NOT WALKED - 4.45 km</name>
    <desc>4.45 km not walked. This straight line is not a boundary — it joins the two ends so the shape can be closed on paper. Nui, Zone 3.</desc>
    <type>not-walked</type>
    <trkseg>
      <trkpt lat="-9.1310723" lon="148.3348051"/>
      <trkpt lat="-9.1686261" lon="148.3494448"/>
    </trkseg>
  </trk>
  <trk>
    <name>GAP 5 OF 5 - NOT WALKED - 3.26 km</name>
    <desc>3.26 km not walked. This straight line is not a boundary — it joins the two ends so the shape can be closed on paper. Nui, Zone 3.</desc>
    <type>not-walked</type>
    <trkseg>
      <trkpt lat="-9.1813377" lon="148.3502293"/>
      <trkpt lat="-9.1579831" lon="148.3321940"/>
    </trkseg>
  </trk>
  <trk>
    <name>Nui - Bobby Aneba</name>
    <desc>Walked by Bobby Aneba. 11.5 km, 3 track(s), recorded on the ground. Nui, Zone 3.</desc>
    <type>walked-boundary</type>
    <trkseg>
      <trkpt lat="-9.1033516" lon="148.3090760"/>
      <trkpt lat="-9.1033542" lon="148.3092563"/>
      <trkpt lat="-9.1033383" lon="148.3094349"/>
      <trkpt lat="-9.1033211" lon="148.3096114"/>
      <trkpt lat="-9.1033337" lon="148.3097816"/>
      <trkpt lat="-9.1033955" lon="148.3099436"/>
      <trkpt lat="-9.1034777" lon="148.3101034"/>
      <trkpt lat="-9.1035438" lon="148.3102684"/>
      <trkpt lat="-9.1035681" lon="148.3104435"/>
      <trkpt lat="-9.1036124" lon="148.3105978"/>
      <trkpt lat="-9.1036863" lon="148.3107373"/>
      <trkpt lat="-9.1037889" lon="148.3108730"/>
      <trkpt lat="-9.1038471" lon="148.3110342"/>
      <trkpt lat="-9.1038684" lon="148.3112075"/>
      <trkpt lat="-9.1039175" lon="148.3113590"/>
      <trkpt lat="-9.1040105" lon="148.3114904"/>
      <trkpt lat="-9.1041210" lon="148.3116224"/>
      <trkpt lat="-9.1042143" lon="148.3117510"/>
      <trkpt lat="-9.1042865" lon="148.3118385"/>
      <trkpt lat="-9.1043294" lon="148.3118608"/>
      <trkpt lat="-9.1043358" lon="148.3118357"/>
      <trkpt lat="-9.1043210" lon="148.3118081"/>
      <trkpt lat="-9.1043327" lon="148.3117962"/>
      <trkpt lat="-9.1043422" lon="148.3118023"/>
      <trkpt lat="-9.1043461" lon="148.3118149"/>
      <trkpt lat="-9.1043280" lon="148.3118344"/>
      <trkpt lat="-9.1043638" lon="148.3118872"/>
      <trkpt lat="-9.1044231" lon="148.3119910"/>
      <trkpt lat="-9.1045008" lon="148.3121280"/>
      <trkpt lat="-9.1045617" lon="148.3122824"/>
      <trkpt lat="-9.1046146" lon="148.3124423"/>
      <trkpt lat="-9.1046626" lon="148.3126130"/>
      <trkpt lat="-9.1046954" lon="148.3127902"/>
      <trkpt lat="-9.1047023" lon="148.3129561"/>
      <trkpt lat="-9.1047122" lon="148.3130697"/>
      <trkpt lat="-9.1047440" lon="148.3131715"/>
      <trkpt lat="-9.1048418" lon="148.3132592"/>
      <trkpt lat="-9.1049806" lon="148.3133671"/>
      <trkpt lat="-9.1051350" lon="148.3134581"/>
      <trkpt lat="-9.1052971" lon="148.3135136"/>
      <trkpt lat="-9.1054616" lon="148.3135605"/>
      <trkpt lat="-9.1055902" lon="148.3136313"/>
      <trkpt lat="-9.1056268" lon="148.3137363"/>
      <trkpt lat="-9.1056229" lon="148.3138368"/>
      <trkpt lat="-9.1055958" lon="148.3139123"/>
      <trkpt lat="-9.1055999" lon="148.3139382"/>
      <trkpt lat="-9.1056003" lon="148.3139494"/>
      <trkpt lat="-9.1056199" lon="148.3139876"/>
      <trkpt lat="-9.1056952" lon="148.3140126"/>
      <trkpt lat="-9.1058103" lon="148.3140059"/>
      <trkpt lat="-9.1059353" lon="148.3138973"/>
      <trkpt lat="-9.1060375" lon="148.3137667"/>
      <trkpt lat="-9.1061241" lon="148.3136306"/>
      <trkpt lat="-9.1062368" lon="148.3135065"/>
      <trkpt lat="-9.1063696" lon="148.3134098"/>
      <trkpt lat="-9.1065199" lon="148.3133788"/>
      <trkpt lat="-9.1066787" lon="148.3133994"/>
      <trkpt lat="-9.1068290" lon="148.3134488"/>
      <trkpt lat="-9.1069005" lon="148.3134453"/>
      <trkpt lat="-9.1069683" lon="148.3133966"/>
      <trkpt lat="-9.1070478" lon="148.3133467"/>
      <trkpt lat="-9.1072047" lon="148.3133526"/>
      <trkpt lat="-9.1073442" lon="148.3134315"/>
      <trkpt lat="-9.1074666" lon="148.3135528"/>
      <trkpt lat="-9.1075543" lon="148.3136928"/>
      <trkpt lat="-9.1076315" lon="148.3138025"/>
      <trkpt lat="-9.1077263" lon="148.3138795"/>
      <trkpt lat="-9.1078178" lon="148.3139654"/>
      <trkpt lat="-9.1078788" lon="148.3140898"/>
      <trkpt lat="-9.1078815" lon="148.3141955"/>
      <trkpt lat="-9.1078571" lon="148.3142891"/>
      <trkpt lat="-9.1078599" lon="148.3143854"/>
      <trkpt lat="-9.1078817" lon="148.3145454"/>
      <trkpt lat="-9.1079394" lon="148.3147161"/>
      <trkpt lat="-9.1080152" lon="148.3148578"/>
      <trkpt lat="-9.1080977" lon="148.3149968"/>
      <trkpt lat="-9.1081558" lon="148.3151379"/>
      <trkpt lat="-9.1081504" lon="148.3153072"/>
      <trkpt lat="-9.1081243" lon="148.3154719"/>
      <trkpt lat="-9.1080735" lon="148.3156257"/>
      <trkpt lat="-9.1080103" lon="148.3157709"/>
      <trkpt lat="-9.1079526" lon="148.3159244"/>
      <trkpt lat="-9.1079076" lon="148.3160767"/>
      <trkpt lat="-9.1078964" lon="148.3162106"/>
      <trkpt lat="-9.1079361" lon="148.3162841"/>
      <trkpt lat="-9.1080188" lon="148.3163624"/>
      <trkpt lat="-9.1081520" lon="148.3164426"/>
      <trkpt lat="-9.1082788" lon="148.3165483"/>
      <trkpt lat="-9.1083672" lon="148.3166052"/>
      <trkpt lat="-9.1084127" lon="148.3166037"/>
      <trkpt lat="-9.1084138" lon="148.3165498"/>
    </trkseg>
    <trkseg>
      <trkpt lat="-9.1086834" lon="148.3170041"/>
      <trkpt lat="-9.1087648" lon="148.3171581"/>
      <trkpt lat="-9.1088228" lon="148.3173173"/>
      <trkpt lat="-9.1088566" lon="148.3174840"/>
      <trkpt lat="-9.1088548" lon="148.3176628"/>
      <trkpt lat="-9.1088822" lon="148.3178366"/>
      <trkpt lat="-9.1089326" lon="148.3179628"/>
      <trkpt lat="-9.1089607" lon="148.3180320"/>
      <trkpt lat="-9.1089800" lon="148.3181033"/>
      <trkpt lat="-9.1090147" lon="148.3182076"/>
      <trkpt lat="-9.1091151" lon="148.3183499"/>
      <trkpt lat="-9.1092055" lon="148.3184868"/>
      <trkpt lat="-9.1092479" lon="148.3186248"/>
      <trkpt lat="-9.1092698" lon="148.3187777"/>
      <trkpt lat="-9.1092900" lon="148.3189247"/>
      <trkpt lat="-9.1093617" lon="148.3190639"/>
      <trkpt lat="-9.1094383" lon="148.3192006"/>
      <trkpt lat="-9.1095064" lon="148.3193296"/>
      <trkpt lat="-9.1095419" lon="148.3194054"/>
      <trkpt lat="-9.1095517" lon="148.3194618"/>
      <trkpt lat="-9.1096046" lon="148.3195198"/>
      <trkpt lat="-9.1096914" lon="148.3196322"/>
      <trkpt lat="-9.1098097" lon="148.3197605"/>
      <trkpt lat="-9.1099230" lon="148.3198984"/>
      <trkpt lat="-9.1100333" lon="148.3200416"/>
      <trkpt lat="-9.1101411" lon="148.3201828"/>
      <trkpt lat="-9.1102228" lon="148.3203349"/>
      <trkpt lat="-9.1102841" lon="148.3204975"/>
      <trkpt lat="-9.1103086" lon="148.3206724"/>
      <trkpt lat="-9.1103278" lon="148.3208472"/>
      <trkpt lat="-9.1103803" lon="148.3209969"/>
      <trkpt lat="-9.1104778" lon="148.3211293"/>
      <trkpt lat="-9.1105882" lon="148.3212539"/>
      <trkpt lat="-9.1106479" lon="148.3213988"/>
      <trkpt lat="-9.1106880" lon="148.3215225"/>
      <trkpt lat="-9.1107113" lon="148.3216011"/>
      <trkpt lat="-9.1107501" lon="148.3216355"/>
      <trkpt lat="-9.1108034" lon="148.3216770"/>
      <trkpt lat="-9.1108770" lon="148.3217660"/>
      <trkpt lat="-9.1109867" lon="148.3218763"/>
      <trkpt lat="-9.1111128" lon="148.3219864"/>
      <trkpt lat="-9.1112736" lon="148.3220606"/>
      <trkpt lat="-9.1114168" lon="148.3221537"/>
      <trkpt lat="-9.1115323" lon="148.3222408"/>
      <trkpt lat="-9.1116137" lon="148.3223340"/>
    </trkseg>
    <trkseg>
      <trkpt lat="-9.1123607" lon="148.3240324"/>
      <trkpt lat="-9.1124582" lon="148.3241822"/>
      <trkpt lat="-9.1125477" lon="148.3243194"/>
      <trkpt lat="-9.1125800" lon="148.3244627"/>
      <trkpt lat="-9.1125589" lon="148.3246103"/>
      <trkpt lat="-9.1125018" lon="148.3247807"/>
      <trkpt lat="-9.1124630" lon="148.3249556"/>
      <trkpt lat="-9.1124360" lon="148.3251245"/>
      <trkpt lat="-9.1123967" lon="148.3252901"/>
      <trkpt lat="-9.1123620" lon="148.3254441"/>
      <trkpt lat="-9.1123750" lon="148.3255975"/>
      <trkpt lat="-9.1123906" lon="148.3257314"/>
      <trkpt lat="-9.1124533" lon="148.3258539"/>
      <trkpt lat="-9.1124789" lon="148.3259879"/>
      <trkpt lat="-9.1125605" lon="148.3261233"/>
      <trkpt lat="-9.1126119" lon="148.3262775"/>
      <trkpt lat="-9.1126746" lon="148.3264236"/>
      <trkpt lat="-9.1127298" lon="148.3265839"/>
      <trkpt lat="-9.1128036" lon="148.3267135"/>
      <trkpt lat="-9.1128647" lon="148.3268350"/>
      <trkpt lat="-9.1128790" lon="148.3269599"/>
      <trkpt lat="-9.1127986" lon="148.3270539"/>
      <trkpt lat="-9.1126755" lon="148.3270642"/>
      <trkpt lat="-9.1125344" lon="148.3269707"/>
      <trkpt lat="-9.1123958" lon="148.3268750"/>
      <trkpt lat="-9.1123418" lon="148.3268339"/>
      <trkpt lat="-9.1123165" lon="148.3268366"/>
      <trkpt lat="-9.1123458" lon="148.3268809"/>
      <trkpt lat="-9.1123753" lon="148.3269554"/>
      <trkpt lat="-9.1124621" lon="148.3270656"/>
      <trkpt lat="-9.1126088" lon="148.3271545"/>
      <trkpt lat="-9.1127653" lon="148.3271685"/>
      <trkpt lat="-9.1129013" lon="148.3270982"/>
      <trkpt lat="-9.1130236" lon="148.3269762"/>
      <trkpt lat="-9.1131448" lon="148.3268584"/>
      <trkpt lat="-9.1132786" lon="148.3267577"/>
      <trkpt lat="-9.1134094" lon="148.3267327"/>
      <trkpt lat="-9.1135320" lon="148.3267672"/>
      <trkpt lat="-9.1136523" lon="148.3268699"/>
      <trkpt lat="-9.1137624" lon="148.3269866"/>
      <trkpt lat="-9.1138629" lon="148.3271209"/>
      <trkpt lat="-9.1139703" lon="148.3272407"/>
      <trkpt lat="-9.1140780" lon="148.3272664"/>
      <trkpt lat="-9.1142123" lon="148.3272199"/>
      <trkpt lat="-9.1143580" lon="148.3271448"/>
      <trkpt lat="-9.1145269" lon="148.3270903"/>
      <trkpt lat="-9.1146759" lon="148.3270099"/>
      <trkpt lat="-9.1148234" lon="148.3269555"/>
      <trkpt lat="-9.1149503" lon="148.3269718"/>
      <trkpt lat="-9.1150876" lon="148.3270719"/>
      <trkpt lat="-9.1152114" lon="148.3271982"/>
      <trkpt lat="-9.1153527" lon="148.3273063"/>
      <trkpt lat="-9.1155055" lon="148.3273881"/>
      <trkpt lat="-9.1156576" lon="148.3274053"/>
      <trkpt lat="-9.1157995" lon="148.3274378"/>
      <trkpt lat="-9.1158657" lon="148.3275115"/>
      <trkpt lat="-9.1158370" lon="148.3275930"/>
      <trkpt lat="-9.1157115" lon="148.3276195"/>
      <trkpt lat="-9.1155590" lon="148.3276307"/>
      <trkpt lat="-9.1154241" lon="148.3277053"/>
      <trkpt lat="-9.1153246" lon="148.3278445"/>
      <trkpt lat="-9.1152560" lon="148.3279519"/>
      <trkpt lat="-9.1152629" lon="148.3280546"/>
      <trkpt lat="-9.1153391" lon="148.3281380"/>
      <trkpt lat="-9.1154668" lon="148.3282353"/>
      <trkpt lat="-9.1155844" lon="148.3283347"/>
      <trkpt lat="-9.1156595" lon="148.3284476"/>
      <trkpt lat="-9.1156880" lon="148.3285986"/>
      <trkpt lat="-9.1156553" lon="148.3287388"/>
      <trkpt lat="-9.1155562" lon="148.3288247"/>
      <trkpt lat="-9.1154483" lon="148.3288663"/>
      <trkpt lat="-9.1153706" lon="148.3289336"/>
      <trkpt lat="-9.1153675" lon="148.3290635"/>
      <trkpt lat="-9.1153464" lon="148.3292263"/>
      <trkpt lat="-9.1153271" lon="148.3293877"/>
      <trkpt lat="-9.1153160" lon="148.3295407"/>
      <trkpt lat="-9.1153270" lon="148.3297041"/>
      <trkpt lat="-9.1152967" lon="148.3298459"/>
      <trkpt lat="-9.1152319" lon="148.3299756"/>
      <trkpt lat="-9.1152315" lon="148.3300565"/>
      <trkpt lat="-9.1153283" lon="148.3301198"/>
      <trkpt lat="-9.1154785" lon="148.3301433"/>
      <trkpt lat="-9.1156328" lon="148.3301420"/>
      <trkpt lat="-9.1157865" lon="148.3301136"/>
      <trkpt lat="-9.1159563" lon="148.3300962"/>
      <trkpt lat="-9.1161308" lon="148.3300955"/>
      <trkpt lat="-9.1163000" lon="148.3301285"/>
      <trkpt lat="-9.1164365" lon="148.3302047"/>
      <trkpt lat="-9.1165452" lon="148.3303287"/>
      <trkpt lat="-9.1166034" lon="148.3304217"/>
      <trkpt lat="-9.1166467" lon="148.3305225"/>
      <trkpt lat="-9.1166966" lon="148.3306210"/>
      <trkpt lat="-9.1167555" lon="148.3307812"/>
      <trkpt lat="-9.1167958" lon="148.3309403"/>
      <trkpt lat="-9.1168369" lon="148.3310919"/>
      <trkpt lat="-9.1168387" lon="148.3312309"/>
      <trkpt lat="-9.1168014" lon="148.3313498"/>
      <trkpt lat="-9.1166811" lon="148.3314726"/>
      <trkpt lat="-9.1165848" lon="148.3315804"/>
      <trkpt lat="-9.1165268" lon="148.3317104"/>
      <trkpt lat="-9.1165420" lon="148.3318488"/>
      <trkpt lat="-9.1166135" lon="148.3319877"/>
      <trkpt lat="-9.1167477" lon="148.3320933"/>
      <trkpt lat="-9.1169080" lon="148.3321699"/>
      <trkpt lat="-9.1170753" lon="148.3322332"/>
      <trkpt lat="-9.1172457" lon="148.3322899"/>
      <trkpt lat="-9.1174120" lon="148.3323520"/>
      <trkpt lat="-9.1175602" lon="148.3324370"/>
      <trkpt lat="-9.1177055" lon="148.3325229"/>
      <trkpt lat="-9.1178516" lon="148.3326021"/>
      <trkpt lat="-9.1180161" lon="148.3326261"/>
      <trkpt lat="-9.1181837" lon="148.3326442"/>
      <trkpt lat="-9.1183486" lon="148.3326342"/>
      <trkpt lat="-9.1184493" lon="148.3326890"/>
      <trkpt lat="-9.1185130" lon="148.3327390"/>
      <trkpt lat="-9.1185056" lon="148.3328456"/>
      <trkpt lat="-9.1185100" lon="148.3329589"/>
      <trkpt lat="-9.1185179" lon="148.3331184"/>
      <trkpt lat="-9.1185492" lon="148.3332866"/>
      <trkpt lat="-9.1185745" lon="148.3334595"/>
      <trkpt lat="-9.1186112" lon="148.3336172"/>
      <trkpt lat="-9.1187031" lon="148.3337346"/>
      <trkpt lat="-9.1188515" lon="148.3337763"/>
      <trkpt lat="-9.1190232" lon="148.3337722"/>
      <trkpt lat="-9.1191961" lon="148.3337628"/>
      <trkpt lat="-9.1193730" lon="148.3337650"/>
      <trkpt lat="-9.1195409" lon="148.3337514"/>
      <trkpt lat="-9.1196751" lon="148.3337706"/>
      <trkpt lat="-9.1198090" lon="148.3337997"/>
      <trkpt lat="-9.1199458" lon="148.3338780"/>
      <trkpt lat="-9.1201123" lon="148.3339040"/>
      <trkpt lat="-9.1202677" lon="148.3339188"/>
      <trkpt lat="-9.1204165" lon="148.3338764"/>
      <trkpt lat="-9.1205599" lon="148.3338628"/>
      <trkpt lat="-9.1206912" lon="148.3339032"/>
      <trkpt lat="-9.1208136" lon="148.3340206"/>
      <trkpt lat="-9.1209043" lon="148.3341687"/>
      <trkpt lat="-9.1210110" lon="148.3342495"/>
      <trkpt lat="-9.1211389" lon="148.3342940"/>
      <trkpt lat="-9.1212738" lon="148.3343305"/>
      <trkpt lat="-9.1213363" lon="148.3344409"/>
      <trkpt lat="-9.1213743" lon="148.3345893"/>
      <trkpt lat="-9.1214340" lon="148.3347321"/>
      <trkpt lat="-9.1215727" lon="148.3348302"/>
      <trkpt lat="-9.1217357" lon="148.3348958"/>
      <trkpt lat="-9.1219029" lon="148.3348962"/>
      <trkpt lat="-9.1220554" lon="148.3348449"/>
      <trkpt lat="-9.1221946" lon="148.3347381"/>
      <trkpt lat="-9.1223288" lon="148.3346851"/>
      <trkpt lat="-9.1224430" lon="148.3347267"/>
      <trkpt lat="-9.1225371" lon="148.3348588"/>
      <trkpt lat="-9.1226420" lon="148.3349804"/>
      <trkpt lat="-9.1227823" lon="148.3350486"/>
      <trkpt lat="-9.1229536" lon="148.3350734"/>
      <trkpt lat="-9.1230700" lon="148.3351117"/>
      <trkpt lat="-9.1231554" lon="148.3352002"/>
      <trkpt lat="-9.1232360" lon="148.3353132"/>
      <trkpt lat="-9.1233736" lon="148.3353944"/>
      <trkpt lat="-9.1235425" lon="148.3354208"/>
      <trkpt lat="-9.1237135" lon="148.3353940"/>
      <trkpt lat="-9.1238721" lon="148.3353346"/>
      <trkpt lat="-9.1240293" lon="148.3352737"/>
      <trkpt lat="-9.1241881" lon="148.3352077"/>
      <trkpt lat="-9.1243392" lon="148.3352009"/>
      <trkpt lat="-9.1244820" lon="148.3351886"/>
      <trkpt lat="-9.1245983" lon="148.3351498"/>
      <trkpt lat="-9.1246862" lon="148.3350392"/>
      <trkpt lat="-9.1247078" lon="148.3349693"/>
      <trkpt lat="-9.1247043" lon="148.3349389"/>
      <trkpt lat="-9.1246627" lon="148.3349532"/>
      <trkpt lat="-9.1246523" lon="148.3349536"/>
      <trkpt lat="-9.1246564" lon="148.3349952"/>
      <trkpt lat="-9.1247341" lon="148.3350752"/>
      <trkpt lat="-9.1248415" lon="148.3351761"/>
      <trkpt lat="-9.1249769" lon="148.3352558"/>
      <trkpt lat="-9.1250741" lon="148.3353286"/>
      <trkpt lat="-9.1251811" lon="148.3353891"/>
      <trkpt lat="-9.1252862" lon="148.3354837"/>
      <trkpt lat="-9.1254141" lon="148.3356015"/>
      <trkpt lat="-9.1254992" lon="148.3357549"/>
      <trkpt lat="-9.1255762" lon="148.3359136"/>
      <trkpt lat="-9.1256772" lon="148.3360441"/>
      <trkpt lat="-9.1258229" lon="148.3361353"/>
      <trkpt lat="-9.1259933" lon="148.3361825"/>
      <trkpt lat="-9.1261694" lon="148.3362112"/>
      <trkpt lat="-9.1263456" lon="148.3362341"/>
      <trkpt lat="-9.1264994" lon="148.3362992"/>
      <trkpt lat="-9.1266432" lon="148.3363914"/>
      <trkpt lat="-9.1267760" lon="148.3364897"/>
      <trkpt lat="-9.1269117" lon="148.3365011"/>
      <trkpt lat="-9.1270212" lon="148.3364246"/>
      <trkpt lat="-9.1271342" lon="148.3362981"/>
      <trkpt lat="-9.1272622" lon="148.3361957"/>
      <trkpt lat="-9.1274192" lon="148.3361716"/>
      <trkpt lat="-9.1275399" lon="148.3362333"/>
      <trkpt lat="-9.1276554" lon="148.3363445"/>
      <trkpt lat="-9.1277137" lon="148.3364862"/>
      <trkpt lat="-9.1277384" lon="148.3366149"/>
      <trkpt lat="-9.1277187" lon="148.3367358"/>
      <trkpt lat="-9.1277220" lon="148.3368317"/>
      <trkpt lat="-9.1277234" lon="148.3368628"/>
      <trkpt lat="-9.1277369" lon="148.3368837"/>
      <trkpt lat="-9.1277276" lon="148.3368626"/>
      <trkpt lat="-9.1277354" lon="148.3368719"/>
      <trkpt lat="-9.1277069" lon="148.3368574"/>
      <trkpt lat="-9.1276646" lon="148.3368473"/>
    </trkseg>
    <trkseg>
      <trkpt lat="-9.1310723" lon="148.3348051"/>
      <trkpt lat="-9.1310477" lon="148.3347270"/>
      <trkpt lat="-9.1310034" lon="148.3346955"/>
      <trkpt lat="-9.1310181" lon="148.3346727"/>
      <trkpt lat="-9.1310343" lon="148.3346419"/>
      <trkpt lat="-9.1310291" lon="148.3345957"/>
      <trkpt lat="-9.1309895" lon="148.3345479"/>
      <trkpt lat="-9.1310035" lon="148.3345343"/>
      <trkpt lat="-9.1311272" lon="148.3345256"/>
      <trkpt lat="-9.1312336" lon="148.3345771"/>
      <trkpt lat="-9.1312577" lon="148.3346840"/>
      <trkpt lat="-9.1312078" lon="148.3348378"/>
      <trkpt lat="-9.1311652" lon="148.3350088"/>
      <trkpt lat="-9.1311081" lon="148.3351515"/>
      <trkpt lat="-9.1310614" lon="148.3352929"/>
      <trkpt lat="-9.1310112" lon="148.3354350"/>
      <trkpt lat="-9.1309803" lon="148.3355625"/>
      <trkpt lat="-9.1309637" lon="148.3356524"/>
      <trkpt lat="-9.1309416" lon="148.3356705"/>
      <trkpt lat="-9.1309397" lon="148.3357111"/>
      <trkpt lat="-9.1309319" lon="148.3357917"/>
      <trkpt lat="-9.1309273" lon="148.3359432"/>
      <trkpt lat="-9.1309266" lon="148.3361133"/>
      <trkpt lat="-9.1309334" lon="148.3362798"/>
      <trkpt lat="-9.1309487" lon="148.3364486"/>
      <trkpt lat="-9.1309746" lon="148.3366175"/>
      <trkpt lat="-9.1309890" lon="148.3367906"/>
      <trkpt lat="-9.1310128" lon="148.3369620"/>
      <trkpt lat="-9.1310489" lon="148.3371325"/>
      <trkpt lat="-9.1311156" lon="148.3372987"/>
      <trkpt lat="-9.1311757" lon="148.3374652"/>
      <trkpt lat="-9.1312462" lon="148.3376239"/>
      <trkpt lat="-9.1313019" lon="148.3377868"/>
      <trkpt lat="-9.1313531" lon="148.3379510"/>
      <trkpt lat="-9.1313730" lon="148.3381290"/>
      <trkpt lat="-9.1313927" lon="148.3383073"/>
      <trkpt lat="-9.1314336" lon="148.3384814"/>
      <trkpt lat="-9.1314952" lon="148.3386491"/>
      <trkpt lat="-9.1315424" lon="148.3388180"/>
      <trkpt lat="-9.1315615" lon="148.3389912"/>
      <trkpt lat="-9.1315626" lon="148.3391681"/>
      <trkpt lat="-9.1315524" lon="148.3393434"/>
      <trkpt lat="-9.1315404" lon="148.3395172"/>
      <trkpt lat="-9.1315400" lon="148.3396911"/>
      <trkpt lat="-9.1315494" lon="148.3398621"/>
      <trkpt lat="-9.1315906" lon="148.3400287"/>
      <trkpt lat="-9.1316559" lon="148.3401739"/>
      <trkpt lat="-9.1317773" lon="148.3402955"/>
      <trkpt lat="-9.1318661" lon="148.3404145"/>
      <trkpt lat="-9.1319445" lon="148.3405452"/>
      <trkpt lat="-9.1320072" lon="148.3406929"/>
      <trkpt lat="-9.1321146" lon="148.3408366"/>
      <trkpt lat="-9.1322268" lon="148.3409773"/>
      <trkpt lat="-9.1323418" lon="148.3411096"/>
      <trkpt lat="-9.1324539" lon="148.3412420"/>
      <trkpt lat="-9.1325502" lon="148.3413850"/>
      <trkpt lat="-9.1326323" lon="148.3415405"/>
      <trkpt lat="-9.1327013" lon="148.3417031"/>
      <trkpt lat="-9.1327560" lon="148.3418706"/>
      <trkpt lat="-9.1327964" lon="148.3420448"/>
      <trkpt lat="-9.1328523" lon="148.3422048"/>
      <trkpt lat="-9.1329196" lon="148.3423380"/>
      <trkpt lat="-9.1329883" lon="148.3424705"/>
      <trkpt lat="-9.1330262" lon="148.3426191"/>
      <trkpt lat="-9.1330662" lon="148.3427860"/>
      <trkpt lat="-9.1331202" lon="148.3429473"/>
      <trkpt lat="-9.1331673" lon="148.3431102"/>
      <trkpt lat="-9.1332272" lon="148.3432642"/>
      <trkpt lat="-9.1332820" lon="148.3433849"/>
      <trkpt lat="-9.1333654" lon="148.3434433"/>
      <trkpt lat="-9.1334630" lon="148.3434919"/>
      <trkpt lat="-9.1335768" lon="148.3435544"/>
      <trkpt lat="-9.1337219" lon="148.3436072"/>
      <trkpt lat="-9.1338577" lon="148.3436492"/>
      <trkpt lat="-9.1339894" lon="148.3437046"/>
      <trkpt lat="-9.1340660" lon="148.3438330"/>
      <trkpt lat="-9.1341106" lon="148.3439961"/>
      <trkpt lat="-9.1341478" lon="148.3441668"/>
      <trkpt lat="-9.1341862" lon="148.3443381"/>
      <trkpt lat="-9.1342179" lon="148.3445126"/>
      <trkpt lat="-9.1342377" lon="148.3446877"/>
      <trkpt lat="-9.1342815" lon="148.3448559"/>
      <trkpt lat="-9.1343599" lon="148.3450116"/>
      <trkpt lat="-9.1344452" lon="148.3451679"/>
      <trkpt lat="-9.1345182" lon="148.3453288"/>
      <trkpt lat="-9.1345918" lon="148.3454886"/>
      <trkpt lat="-9.1346988" lon="148.3456164"/>
      <trkpt lat="-9.1348451" lon="148.3457040"/>
      <trkpt lat="-9.1349978" lon="148.3457869"/>
      <trkpt lat="-9.1351318" lon="148.3458498"/>
      <trkpt lat="-9.1352426" lon="148.3459254"/>
      <trkpt lat="-9.1352737" lon="148.3460048"/>
      <trkpt lat="-9.1352264" lon="148.3461199"/>
      <trkpt lat="-9.1351058" lon="148.3462433"/>
      <trkpt lat="-9.1350524" lon="148.3463730"/>
      <trkpt lat="-9.1350948" lon="148.3464911"/>
      <trkpt lat="-9.1352361" lon="148.3465865"/>
      <trkpt lat="-9.1354007" lon="148.3466145"/>
      <trkpt lat="-9.1355628" lon="148.3465789"/>
      <trkpt lat="-9.1356998" lon="148.3464789"/>
      <trkpt lat="-9.1358273" lon="148.3463596"/>
      <trkpt lat="-9.1359602" lon="148.3462498"/>
      <trkpt lat="-9.1361183" lon="148.3461976"/>
      <trkpt lat="-9.1362456" lon="148.3461723"/>
      <trkpt lat="-9.1363459" lon="148.3461413"/>
      <trkpt lat="-9.1363866" lon="148.3461102"/>
      <trkpt lat="-9.1364409" lon="148.3460903"/>
      <trkpt lat="-9.1364314" lon="148.3461212"/>
      <trkpt lat="-9.1364067" lon="148.3461474"/>
      <trkpt lat="-9.1363800" lon="148.3461388"/>
      <trkpt lat="-9.1364160" lon="148.3460786"/>
    </trkseg>
    <trkseg>
      <trkpt lat="-9.1692803" lon="148.3498575"/>
      <trkpt lat="-9.1694550" lon="148.3498289"/>
      <trkpt lat="-9.1696325" lon="148.3498189"/>
      <trkpt lat="-9.1698128" lon="148.3498281"/>
      <trkpt lat="-9.1699932" lon="148.3498414"/>
      <trkpt lat="-9.1701733" lon="148.3498491"/>
      <trkpt lat="-9.1703534" lon="148.3498568"/>
      <trkpt lat="-9.1705333" lon="148.3498627"/>
      <trkpt lat="-9.1707133" lon="148.3498707"/>
      <trkpt lat="-9.1708905" lon="148.3498928"/>
      <trkpt lat="-9.1710637" lon="148.3499274"/>
      <trkpt lat="-9.1712361" lon="148.3499517"/>
      <trkpt lat="-9.1714095" lon="148.3499653"/>
      <trkpt lat="-9.1715867" lon="148.3499567"/>
      <trkpt lat="-9.1717328" lon="148.3499518"/>
      <trkpt lat="-9.1718490" lon="148.3499332"/>
    </trkseg>
    <trkseg>
      <trkpt lat="-9.1579831" lon="148.3321940"/>
      <trkpt lat="-9.1578475" lon="148.3320791"/>
      <trkpt lat="-9.1577132" lon="148.3319667"/>
      <trkpt lat="-9.1575864" lon="148.3318454"/>
      <trkpt lat="-9.1574466" lon="148.3317395"/>
      <trkpt lat="-9.1572998" lon="148.3316483"/>
      <trkpt lat="-9.1571640" lon="148.3315488"/>
      <trkpt lat="-9.1570498" lon="148.3314273"/>
      <trkpt lat="-9.1569545" lon="148.3312746"/>
      <trkpt lat="-9.1568369" lon="148.3311567"/>
      <trkpt lat="-9.1566968" lon="148.3310796"/>
      <trkpt lat="-9.1565534" lon="148.3310065"/>
      <trkpt lat="-9.1564131" lon="148.3309171"/>
      <trkpt lat="-9.1562705" lon="148.3308099"/>
      <trkpt lat="-9.1561122" lon="148.3307241"/>
      <trkpt lat="-9.1559462" lon="148.3306579"/>
      <trkpt lat="-9.1557733" lon="148.3306086"/>
      <trkpt lat="-9.1556057" lon="148.3305519"/>
      <trkpt lat="-9.1554725" lon="148.3304531"/>
      <trkpt lat="-9.1553645" lon="148.3303186"/>
      <trkpt lat="-9.1552599" lon="148.3301764"/>
      <trkpt lat="-9.1551518" lon="148.3300367"/>
      <trkpt lat="-9.1550262" lon="148.3299148"/>
      <trkpt lat="-9.1548929" lon="148.3298089"/>
      <trkpt lat="-9.1547323" lon="148.3297641"/>
      <trkpt lat="-9.1545863" lon="148.3297100"/>
      <trkpt lat="-9.1545042" lon="148.3296464"/>
      <trkpt lat="-9.1544426" lon="148.3296110"/>
      <trkpt lat="-9.1543871" lon="148.3295673"/>
      <trkpt lat="-9.1542823" lon="148.3295210"/>
      <trkpt lat="-9.1541574" lon="148.3294213"/>
      <trkpt lat="-9.1540288" lon="148.3293317"/>
      <trkpt lat="-9.1539020" lon="148.3293181"/>
      <trkpt lat="-9.1537826" lon="148.3293571"/>
      <trkpt lat="-9.1536449" lon="148.3294145"/>
      <trkpt lat="-9.1535011" lon="148.3293926"/>
      <trkpt lat="-9.1533448" lon="148.3293290"/>
      <trkpt lat="-9.1532000" lon="148.3293237"/>
      <trkpt lat="-9.1530510" lon="148.3293610"/>
      <trkpt lat="-9.1529309" lon="148.3293851"/>
      <trkpt lat="-9.1528485" lon="148.3293204"/>
      <trkpt lat="-9.1527878" lon="148.3292265"/>
      <trkpt lat="-9.1527282" lon="148.3291442"/>
      <trkpt lat="-9.1526391" lon="148.3290828"/>
      <trkpt lat="-9.1525641" lon="148.3289864"/>
      <trkpt lat="-9.1525222" lon="148.3288416"/>
      <trkpt lat="-9.1524698" lon="148.3287544"/>
      <trkpt lat="-9.1523775" lon="148.3287115"/>
      <trkpt lat="-9.1522307" lon="148.3287076"/>
      <trkpt lat="-9.1521181" lon="148.3286271"/>
      <trkpt lat="-9.1520041" lon="148.3285839"/>
      <trkpt lat="-9.1518862" lon="148.3285363"/>
      <trkpt lat="-9.1517234" lon="148.3285481"/>
      <trkpt lat="-9.1515605" lon="148.3285317"/>
      <trkpt lat="-9.1514080" lon="148.3285443"/>
      <trkpt lat="-9.1512512" lon="148.3285344"/>
      <trkpt lat="-9.1511036" lon="148.3285475"/>
      <trkpt lat="-9.1509488" lon="148.3285276"/>
      <trkpt lat="-9.1508071" lon="148.3284893"/>
      <trkpt lat="-9.1506531" lon="148.3284190"/>
      <trkpt lat="-9.1504994" lon="148.3283421"/>
      <trkpt lat="-9.1503343" lon="148.3282754"/>
      <trkpt lat="-9.1501763" lon="148.3282080"/>
      <trkpt lat="-9.1500316" lon="148.3281459"/>
      <trkpt lat="-9.1498876" lon="148.3281078"/>
      <trkpt lat="-9.1497460" lon="148.3280483"/>
      <trkpt lat="-9.1495892" lon="148.3279875"/>
      <trkpt lat="-9.1494403" lon="148.3278890"/>
      <trkpt lat="-9.1492797" lon="148.3278237"/>
      <trkpt lat="-9.1491123" lon="148.3277838"/>
      <trkpt lat="-9.1489962" lon="148.3277246"/>
      <trkpt lat="-9.1489192" lon="148.3276143"/>
      <trkpt lat="-9.1489228" lon="148.3274497"/>
      <trkpt lat="-9.1488894" lon="148.3273339"/>
      <trkpt lat="-9.1488756" lon="148.3273325"/>
      <trkpt lat="-9.1488743" lon="148.3273648"/>
      <trkpt lat="-9.1489219" lon="148.3273469"/>
      <trkpt lat="-9.1489729" lon="148.3272498"/>
      <trkpt lat="-9.1489532" lon="148.3272185"/>
      <trkpt lat="-9.1489209" lon="148.3272630"/>
      <trkpt lat="-9.1488435" lon="148.3273457"/>
      <trkpt lat="-9.1487919" lon="148.3274326"/>
      <trkpt lat="-9.1487267" lon="148.3274682"/>
      <trkpt lat="-9.1487319" lon="148.3274308"/>
      <trkpt lat="-9.1487830" lon="148.3273112"/>
      <trkpt lat="-9.1488096" lon="148.3271767"/>
      <trkpt lat="-9.1488087" lon="148.3270368"/>
      <trkpt lat="-9.1487317" lon="148.3269064"/>
      <trkpt lat="-9.1486792" lon="148.3267628"/>
      <trkpt lat="-9.1486194" lon="148.3266308"/>
      <trkpt lat="-9.1486388" lon="148.3264815"/>
      <trkpt lat="-9.1486883" lon="148.3263715"/>
      <trkpt lat="-9.1487461" lon="148.3262710"/>
      <trkpt lat="-9.1487391" lon="148.3262358"/>
      <trkpt lat="-9.1487116" lon="148.3262243"/>
      <trkpt lat="-9.1486856" lon="148.3262594"/>
      <trkpt lat="-9.1487151" lon="148.3262256"/>
      <trkpt lat="-9.1487313" lon="148.3262322"/>
      <trkpt lat="-9.1487474" lon="148.3262700"/>
      <trkpt lat="-9.1487309" lon="148.3263058"/>
      <trkpt lat="-9.1487224" lon="148.3262908"/>
      <trkpt lat="-9.1486553" lon="148.3262303"/>
      <trkpt lat="-9.1485454" lon="148.3261857"/>
      <trkpt lat="-9.1484092" lon="148.3260968"/>
      <trkpt lat="-9.1483223" lon="148.3259534"/>
      <trkpt lat="-9.1482685" lon="148.3257837"/>
      <trkpt lat="-9.1482384" lon="148.3256057"/>
      <trkpt lat="-9.1482164" lon="148.3254271"/>
      <trkpt lat="-9.1481979" lon="148.3252479"/>
      <trkpt lat="-9.1481605" lon="148.3250748"/>
      <trkpt lat="-9.1480957" lon="148.3249074"/>
      <trkpt lat="-9.1480122" lon="148.3247469"/>
      <trkpt lat="-9.1479181" lon="148.3245929"/>
      <trkpt lat="-9.1477987" lon="148.3244642"/>
      <trkpt lat="-9.1476511" lon="148.3243723"/>
      <trkpt lat="-9.1474876" lon="148.3243028"/>
      <trkpt lat="-9.1473332" lon="148.3242196"/>
      <trkpt lat="-9.1472074" lon="148.3240998"/>
      <trkpt lat="-9.1471092" lon="148.3239504"/>
      <trkpt lat="-9.1470255" lon="148.3237909"/>
      <trkpt lat="-9.1469454" lon="148.3236298"/>
      <trkpt lat="-9.1468568" lon="148.3234732"/>
      <trkpt lat="-9.1467740" lon="148.3233149"/>
      <trkpt lat="-9.1467079" lon="148.3231510"/>
      <trkpt lat="-9.1466520" lon="148.3229814"/>
      <trkpt lat="-9.1465938" lon="148.3228188"/>
      <trkpt lat="-9.1465117" lon="148.3227097"/>
      <trkpt lat="-9.1464830" lon="148.3226258"/>
      <trkpt lat="-9.1464641" lon="148.3226167"/>
      <trkpt lat="-9.1464815" lon="148.3226308"/>
      <trkpt lat="-9.1464331" lon="148.3226290"/>
      <trkpt lat="-9.1463672" lon="148.3225518"/>
      <trkpt lat="-9.1462782" lon="148.3224023"/>
      <trkpt lat="-9.1461906" lon="148.3222501"/>
      <trkpt lat="-9.1461276" lon="148.3220932"/>
      <trkpt lat="-9.1460929" lon="148.3219320"/>
      <trkpt lat="-9.1460690" lon="148.3217656"/>
      <trkpt lat="-9.1460332" lon="148.3215961"/>
      <trkpt lat="-9.1459764" lon="148.3214266"/>
      <trkpt lat="-9.1459525" lon="148.3212511"/>
      <trkpt lat="-9.1459410" lon="148.3210724"/>
      <trkpt lat="-9.1459342" lon="148.3208938"/>
      <trkpt lat="-9.1458956" lon="148.3207196"/>
      <trkpt lat="-9.1458541" lon="148.3205461"/>
      <trkpt lat="-9.1457964" lon="148.3203860"/>
      <trkpt lat="-9.1457039" lon="148.3202683"/>
      <trkpt lat="-9.1455633" lon="148.3201919"/>
      <trkpt lat="-9.1453994" lon="148.3201245"/>
      <trkpt lat="-9.1452459" lon="148.3200338"/>
      <trkpt lat="-9.1451075" lon="148.3199183"/>
      <trkpt lat="-9.1449705" lon="148.3198006"/>
      <trkpt lat="-9.1448255" lon="148.3196984"/>
      <trkpt lat="-9.1446670" lon="148.3196189"/>
      <trkpt lat="-9.1445023" lon="148.3195481"/>
      <trkpt lat="-9.1443556" lon="148.3194521"/>
      <trkpt lat="-9.1442182" lon="148.3193383"/>
      <trkpt lat="-9.1440920" lon="148.3192731"/>
      <trkpt lat="-9.1439488" lon="148.3192752"/>
      <trkpt lat="-9.1438096" lon="148.3193569"/>
      <trkpt lat="-9.1436644" lon="148.3194585"/>
      <trkpt lat="-9.1435188" lon="148.3195595"/>
      <trkpt lat="-9.1433588" lon="148.3196117"/>
      <trkpt lat="-9.1432049" lon="148.3195809"/>
      <trkpt lat="-9.1430592" lon="148.3194927"/>
      <trkpt lat="-9.1429159" lon="148.3194003"/>
      <trkpt lat="-9.1427565" lon="148.3193542"/>
      <trkpt lat="-9.1425955" lon="148.3193781"/>
      <trkpt lat="-9.1424463" lon="148.3194525"/>
      <trkpt lat="-9.1423251" lon="148.3195512"/>
      <trkpt lat="-9.1422609" lon="148.3195898"/>
      <trkpt lat="-9.1422602" lon="148.3196265"/>
      <trkpt lat="-9.1422990" lon="148.3196283"/>
      <trkpt lat="-9.1423652" lon="148.3196075"/>
      <trkpt lat="-9.1424372" lon="148.3194947"/>
      <trkpt lat="-9.1425447" lon="148.3193528"/>
      <trkpt lat="-9.1426323" lon="148.3192580"/>
      <trkpt lat="-9.1426565" lon="148.3192101"/>
      <trkpt lat="-9.1426568" lon="148.3192445"/>
      <trkpt lat="-9.1426800" lon="148.3192747"/>
      <trkpt lat="-9.1427927" lon="148.3192850"/>
      <trkpt lat="-9.1428988" lon="148.3192000"/>
      <trkpt lat="-9.1429104" lon="148.3191069"/>
      <trkpt lat="-9.1428104" lon="148.3190308"/>
      <trkpt lat="-9.1426359" lon="148.3189963"/>
      <trkpt lat="-9.1424741" lon="148.3189462"/>
      <trkpt lat="-9.1423673" lon="148.3188457"/>
      <trkpt lat="-9.1423172" lon="148.3186944"/>
      <trkpt lat="-9.1423045" lon="148.3185196"/>
      <trkpt lat="-9.1422398" lon="148.3184044"/>
      <trkpt lat="-9.1421174" lon="148.3183557"/>
      <trkpt lat="-9.1419556" lon="148.3183535"/>
      <trkpt lat="-9.1418072" lon="148.3183106"/>
      <trkpt lat="-9.1416911" lon="148.3182097"/>
      <trkpt lat="-9.1415691" lon="148.3181148"/>
      <trkpt lat="-9.1414303" lon="148.3180683"/>
      <trkpt lat="-9.1412631" lon="148.3180628"/>
      <trkpt lat="-9.1411136" lon="148.3180141"/>
      <trkpt lat="-9.1409658" lon="148.3179613"/>
      <trkpt lat="-9.1408148" lon="148.3179308"/>
      <trkpt lat="-9.1406424" lon="148.3179343"/>
      <trkpt lat="-9.1404681" lon="148.3179320"/>
      <trkpt lat="-9.1402993" lon="148.3179080"/>
      <trkpt lat="-9.1401396" lon="148.3179328"/>
      <trkpt lat="-9.1400169" lon="148.3179784"/>
      <trkpt lat="-9.1399041" lon="148.3179929"/>
      <trkpt lat="-9.1397868" lon="148.3179551"/>
      <trkpt lat="-9.1396443" lon="148.3178752"/>
      <trkpt lat="-9.1394931" lon="148.3178354"/>
      <trkpt lat="-9.1393414" lon="148.3177788"/>
      <trkpt lat="-9.1391841" lon="148.3177509"/>
      <trkpt lat="-9.1390292" lon="148.3177568"/>
      <trkpt lat="-9.1388674" lon="148.3178057"/>
      <trkpt lat="-9.1386990" lon="148.3178459"/>
      <trkpt lat="-9.1385221" lon="148.3178394"/>
      <trkpt lat="-9.1383444" lon="148.3178107"/>
      <trkpt lat="-9.1381927" lon="148.3177396"/>
      <trkpt lat="-9.1380684" lon="148.3176810"/>
      <trkpt lat="-9.1379831" lon="148.3175808"/>
      <trkpt lat="-9.1379247" lon="148.3174675"/>
      <trkpt lat="-9.1378478" lon="148.3173379"/>
      <trkpt lat="-9.1377341" lon="148.3172531"/>
      <trkpt lat="-9.1375864" lon="148.3171899"/>
      <trkpt lat="-9.1374502" lon="148.3171046"/>
      <trkpt lat="-9.1373165" lon="148.3170011"/>
      <trkpt lat="-9.1371644" lon="148.3169245"/>
      <trkpt lat="-9.1369947" lon="148.3169069"/>
      <trkpt lat="-9.1368236" lon="148.3168990"/>
      <trkpt lat="-9.1366558" lon="148.3168955"/>
      <trkpt lat="-9.1365142" lon="148.3169253"/>
      <trkpt lat="-9.1363927" lon="148.3170179"/>
      <trkpt lat="-9.1362912" lon="148.3171294"/>
      <trkpt lat="-9.1362049" lon="148.3171304"/>
      <trkpt lat="-9.1361114" lon="148.3170452"/>
      <trkpt lat="-9.1360008" lon="148.3169209"/>
      <trkpt lat="-9.1358674" lon="148.3168075"/>
      <trkpt lat="-9.1357840" lon="148.3166879"/>
      <trkpt lat="-9.1357603" lon="148.3165476"/>
      <trkpt lat="-9.1357544" lon="148.3164024"/>
      <trkpt lat="-9.1357072" lon="148.3163003"/>
      <trkpt lat="-9.1355951" lon="148.3162628"/>
      <trkpt lat="-9.1354534" lon="148.3162500"/>
      <trkpt lat="-9.1353136" lon="148.3162098"/>
      <trkpt lat="-9.1351992" lon="148.3161457"/>
      <trkpt lat="-9.1350909" lon="148.3160696"/>
      <trkpt lat="-9.1349955" lon="148.3159703"/>
      <trkpt lat="-9.1348734" lon="148.3158896"/>
      <trkpt lat="-9.1347352" lon="148.3158431"/>
      <trkpt lat="-9.1345962" lon="148.3157924"/>
      <trkpt lat="-9.1345014" lon="148.3156721"/>
      <trkpt lat="-9.1344268" lon="148.3155224"/>
      <trkpt lat="-9.1343173" lon="148.3154379"/>
      <trkpt lat="-9.1341700" lon="148.3154124"/>
      <trkpt lat="-9.1340178" lon="148.3154598"/>
      <trkpt lat="-9.1338829" lon="148.3155355"/>
      <trkpt lat="-9.1337632" lon="148.3155658"/>
      <trkpt lat="-9.1336572" lon="148.3155062"/>
      <trkpt lat="-9.1335376" lon="148.3154168"/>
      <trkpt lat="-9.1333985" lon="148.3153909"/>
      <trkpt lat="-9.1332315" lon="148.3154042"/>
      <trkpt lat="-9.1330570" lon="148.3154017"/>
      <trkpt lat="-9.1329012" lon="148.3153386"/>
      <trkpt lat="-9.1327505" lon="148.3152987"/>
      <trkpt lat="-9.1326016" lon="148.3152823"/>
      <trkpt lat="-9.1324493" lon="148.3152737"/>
      <trkpt lat="-9.1323321" lon="148.3152157"/>
      <trkpt lat="-9.1323065" lon="148.3151728"/>
      <trkpt lat="-9.1323165" lon="148.3151637"/>
      <trkpt lat="-9.1323235" lon="148.3151713"/>
      <trkpt lat="-9.1322910" lon="148.3151936"/>
      <trkpt lat="-9.1322548" lon="148.3151879"/>
      <trkpt lat="-9.1322292" lon="148.3151754"/>
    </trkseg>
  </trk>
  <trk>
    <name>Nui - Iman Nakina</name>
    <desc>Walked by Iman Nakina. 12.0 km, 4 track(s), recorded on the ground. Nui, Zone 3.</desc>
    <type>walked-boundary</type>
    <trkseg>
      <trkpt lat="-9.1055373" lon="148.3138478"/>
      <trkpt lat="-9.1056466" lon="148.3139525"/>
      <trkpt lat="-9.1057682" lon="148.3139689"/>
      <trkpt lat="-9.1059016" lon="148.3139083"/>
      <trkpt lat="-9.1060155" lon="148.3137880"/>
      <trkpt lat="-9.1061134" lon="148.3136579"/>
      <trkpt lat="-9.1062163" lon="148.3135227"/>
      <trkpt lat="-9.1063507" lon="148.3134259"/>
      <trkpt lat="-9.1065099" lon="148.3133953"/>
      <trkpt lat="-9.1066722" lon="148.3134093"/>
      <trkpt lat="-9.1068168" lon="148.3134415"/>
      <trkpt lat="-9.1069275" lon="148.3134078"/>
      <trkpt lat="-9.1070339" lon="148.3133612"/>
      <trkpt lat="-9.1071448" lon="148.3133502"/>
      <trkpt lat="-9.1072829" lon="148.3134229"/>
      <trkpt lat="-9.1074121" lon="148.3135391"/>
      <trkpt lat="-9.1075239" lon="148.3136724"/>
      <trkpt lat="-9.1076336" lon="148.3138007"/>
      <trkpt lat="-9.1077424" lon="148.3139285"/>
      <trkpt lat="-9.1078272" lon="148.3140245"/>
      <trkpt lat="-9.1078715" lon="148.3141363"/>
      <trkpt lat="-9.1078618" lon="148.3141907"/>
      <trkpt lat="-9.1078571" lon="148.3142247"/>
      <trkpt lat="-9.1078227" lon="148.3142260"/>
      <trkpt lat="-9.1078375" lon="148.3142818"/>
      <trkpt lat="-9.1078610" lon="148.3143892"/>
      <trkpt lat="-9.1079171" lon="148.3145397"/>
      <trkpt lat="-9.1079597" lon="148.3147030"/>
      <trkpt lat="-9.1080293" lon="148.3148464"/>
      <trkpt lat="-9.1081030" lon="148.3149915"/>
      <trkpt lat="-9.1081538" lon="148.3151435"/>
      <trkpt lat="-9.1081804" lon="148.3153198"/>
      <trkpt lat="-9.1081727" lon="148.3154908"/>
      <trkpt lat="-9.1081479" lon="148.3156586"/>
      <trkpt lat="-9.1080672" lon="148.3158134"/>
      <trkpt lat="-9.1079985" lon="148.3159728"/>
      <trkpt lat="-9.1079441" lon="148.3161193"/>
      <trkpt lat="-9.1079816" lon="148.3162463"/>
      <trkpt lat="-9.1080645" lon="148.3163635"/>
      <trkpt lat="-9.1082094" lon="148.3164496"/>
      <trkpt lat="-9.1083098" lon="148.3165129"/>
      <trkpt lat="-9.1083993" lon="148.3165472"/>
      <trkpt lat="-9.1084080" lon="148.3165791"/>
      <trkpt lat="-9.1083850" lon="148.3166202"/>
    </trkseg>
    <trkseg>
      <trkpt lat="-9.1087222" lon="148.3169946"/>
      <trkpt lat="-9.1087941" lon="148.3171540"/>
      <trkpt lat="-9.1088437" lon="148.3173190"/>
      <trkpt lat="-9.1088754" lon="148.3174890"/>
      <trkpt lat="-9.1088841" lon="148.3176691"/>
      <trkpt lat="-9.1089164" lon="148.3178436"/>
      <trkpt lat="-9.1089363" lon="148.3179595"/>
      <trkpt lat="-9.1089474" lon="148.3180355"/>
      <trkpt lat="-9.1089301" lon="148.3180724"/>
      <trkpt lat="-9.1089654" lon="148.3181453"/>
      <trkpt lat="-9.1090214" lon="148.3182561"/>
      <trkpt lat="-9.1090979" lon="148.3184096"/>
      <trkpt lat="-9.1091587" lon="148.3185794"/>
      <trkpt lat="-9.1092268" lon="148.3187465"/>
      <trkpt lat="-9.1093102" lon="148.3189072"/>
      <trkpt lat="-9.1093833" lon="148.3190704"/>
      <trkpt lat="-9.1094606" lon="148.3192319"/>
      <trkpt lat="-9.1095265" lon="148.3193986"/>
      <trkpt lat="-9.1096206" lon="148.3195453"/>
      <trkpt lat="-9.1097350" lon="148.3196731"/>
      <trkpt lat="-9.1098651" lon="148.3197926"/>
      <trkpt lat="-9.1099902" lon="148.3199183"/>
      <trkpt lat="-9.1101110" lon="148.3200506"/>
      <trkpt lat="-9.1102169" lon="148.3201851"/>
      <trkpt lat="-9.1102872" lon="148.3203353"/>
      <trkpt lat="-9.1103273" lon="148.3205011"/>
      <trkpt lat="-9.1103270" lon="148.3206725"/>
      <trkpt lat="-9.1103281" lon="148.3208371"/>
      <trkpt lat="-9.1103624" lon="148.3209821"/>
      <trkpt lat="-9.1104582" lon="148.3211131"/>
      <trkpt lat="-9.1105908" lon="148.3212342"/>
      <trkpt lat="-9.1106469" lon="148.3213640"/>
      <trkpt lat="-9.1106904" lon="148.3214937"/>
      <trkpt lat="-9.1107111" lon="148.3215749"/>
      <trkpt lat="-9.1107871" lon="148.3216547"/>
      <trkpt lat="-9.1108715" lon="148.3217389"/>
      <trkpt lat="-9.1109829" lon="148.3218664"/>
      <trkpt lat="-9.1111198" lon="148.3219803"/>
      <trkpt lat="-9.1112717" lon="148.3220711"/>
      <trkpt lat="-9.1114197" lon="148.3221436"/>
      <trkpt lat="-9.1115360" lon="148.3222083"/>
      <trkpt lat="-9.1116191" lon="148.3222727"/>
    </trkseg>
    <trkseg>
      <trkpt lat="-9.1122630" lon="148.3240421"/>
      <trkpt lat="-9.1124137" lon="148.3241222"/>
      <trkpt lat="-9.1125387" lon="148.3242338"/>
      <trkpt lat="-9.1125967" lon="148.3243864"/>
      <trkpt lat="-9.1126002" lon="148.3245530"/>
      <trkpt lat="-9.1125575" lon="148.3247277"/>
      <trkpt lat="-9.1125146" lon="148.3248998"/>
      <trkpt lat="-9.1124962" lon="148.3250743"/>
      <trkpt lat="-9.1124814" lon="148.3252486"/>
      <trkpt lat="-9.1124842" lon="148.3254214"/>
      <trkpt lat="-9.1124816" lon="148.3255951"/>
      <trkpt lat="-9.1124855" lon="148.3257675"/>
      <trkpt lat="-9.1125231" lon="148.3259176"/>
      <trkpt lat="-9.1125792" lon="148.3260627"/>
      <trkpt lat="-9.1126579" lon="148.3262088"/>
      <trkpt lat="-9.1126918" lon="148.3263798"/>
      <trkpt lat="-9.1127330" lon="148.3265455"/>
      <trkpt lat="-9.1128007" lon="148.3266906"/>
      <trkpt lat="-9.1128955" lon="148.3268021"/>
      <trkpt lat="-9.1129218" lon="148.3269102"/>
      <trkpt lat="-9.1129042" lon="148.3270271"/>
      <trkpt lat="-9.1128090" lon="148.3271374"/>
      <trkpt lat="-9.1127078" lon="148.3271759"/>
      <trkpt lat="-9.1125754" lon="148.3271184"/>
      <trkpt lat="-9.1124517" lon="148.3270063"/>
      <trkpt lat="-9.1123813" lon="148.3269164"/>
      <trkpt lat="-9.1123438" lon="148.3268807"/>
      <trkpt lat="-9.1123402" lon="148.3268974"/>
      <trkpt lat="-9.1123386" lon="148.3268781"/>
      <trkpt lat="-9.1123454" lon="148.3268526"/>
      <trkpt lat="-9.1123955" lon="148.3268641"/>
      <trkpt lat="-9.1124702" lon="148.3269623"/>
      <trkpt lat="-9.1125836" lon="148.3270724"/>
      <trkpt lat="-9.1126755" lon="148.3271199"/>
      <trkpt lat="-9.1127846" lon="148.3271466"/>
      <trkpt lat="-9.1128689" lon="148.3271169"/>
      <trkpt lat="-9.1129555" lon="148.3270417"/>
      <trkpt lat="-9.1130479" lon="148.3269273"/>
      <trkpt lat="-9.1131662" lon="148.3268340"/>
      <trkpt lat="-9.1133144" lon="148.3267697"/>
      <trkpt lat="-9.1134369" lon="148.3267584"/>
      <trkpt lat="-9.1135586" lon="148.3268088"/>
      <trkpt lat="-9.1136869" lon="148.3269221"/>
      <trkpt lat="-9.1138029" lon="148.3270451"/>
      <trkpt lat="-9.1138882" lon="148.3271878"/>
      <trkpt lat="-9.1139668" lon="148.3272715"/>
      <trkpt lat="-9.1140649" lon="148.3272706"/>
      <trkpt lat="-9.1141997" lon="148.3272000"/>
      <trkpt lat="-9.1142839" lon="148.3271474"/>
      <trkpt lat="-9.1143783" lon="148.3271184"/>
      <trkpt lat="-9.1144740" lon="148.3270919"/>
      <trkpt lat="-9.1146291" lon="148.3270934"/>
      <trkpt lat="-9.1147107" lon="148.3271526"/>
      <trkpt lat="-9.1147360" lon="148.3272841"/>
      <trkpt lat="-9.1147178" lon="148.3274519"/>
      <trkpt lat="-9.1147454" lon="148.3276238"/>
      <trkpt lat="-9.1148133" lon="148.3277806"/>
      <trkpt lat="-9.1149059" lon="148.3279243"/>
      <trkpt lat="-9.1150345" lon="148.3280149"/>
      <trkpt lat="-9.1151797" lon="148.3280502"/>
      <trkpt lat="-9.1152741" lon="148.3280419"/>
      <trkpt lat="-9.1153197" lon="148.3280329"/>
      <trkpt lat="-9.1152745" lon="148.3280338"/>
      <trkpt lat="-9.1152408" lon="148.3280414"/>
      <trkpt lat="-9.1152055" lon="148.3280548"/>
      <trkpt lat="-9.1152489" lon="148.3281104"/>
      <trkpt lat="-9.1153592" lon="148.3281713"/>
      <trkpt lat="-9.1155050" lon="148.3282663"/>
      <trkpt lat="-9.1156287" lon="148.3283726"/>
      <trkpt lat="-9.1156726" lon="148.3285155"/>
      <trkpt lat="-9.1156777" lon="148.3286720"/>
      <trkpt lat="-9.1156052" lon="148.3287885"/>
      <trkpt lat="-9.1155091" lon="148.3288603"/>
      <trkpt lat="-9.1153976" lon="148.3289399"/>
      <trkpt lat="-9.1153590" lon="148.3290575"/>
      <trkpt lat="-9.1153415" lon="148.3292211"/>
      <trkpt lat="-9.1153398" lon="148.3293848"/>
      <trkpt lat="-9.1153245" lon="148.3295498"/>
      <trkpt lat="-9.1153356" lon="148.3297220"/>
      <trkpt lat="-9.1153088" lon="148.3298844"/>
      <trkpt lat="-9.1153202" lon="148.3300079"/>
      <trkpt lat="-9.1153762" lon="148.3301091"/>
      <trkpt lat="-9.1155131" lon="148.3301347"/>
      <trkpt lat="-9.1156632" lon="148.3301221"/>
      <trkpt lat="-9.1158232" lon="148.3300628"/>
      <trkpt lat="-9.1159918" lon="148.3300391"/>
      <trkpt lat="-9.1161568" lon="148.3300711"/>
      <trkpt lat="-9.1163191" lon="148.3301293"/>
      <trkpt lat="-9.1164520" lon="148.3302265"/>
      <trkpt lat="-9.1165303" lon="148.3303308"/>
      <trkpt lat="-9.1165872" lon="148.3303804"/>
      <trkpt lat="-9.1166118" lon="148.3304027"/>
      <trkpt lat="-9.1166408" lon="148.3304446"/>
      <trkpt lat="-9.1166405" lon="148.3305515"/>
      <trkpt lat="-9.1166849" lon="148.3306736"/>
      <trkpt lat="-9.1167212" lon="148.3307417"/>
      <trkpt lat="-9.1167784" lon="148.3308371"/>
      <trkpt lat="-9.1167931" lon="148.3309558"/>
      <trkpt lat="-9.1168459" lon="148.3311127"/>
      <trkpt lat="-9.1168501" lon="148.3312594"/>
      <trkpt lat="-9.1168072" lon="148.3313783"/>
      <trkpt lat="-9.1166920" lon="148.3314927"/>
      <trkpt lat="-9.1165774" lon="148.3316159"/>
      <trkpt lat="-9.1164926" lon="148.3317531"/>
      <trkpt lat="-9.1164989" lon="148.3318263"/>
      <trkpt lat="-9.1165428" lon="148.3319044"/>
      <trkpt lat="-9.1166525" lon="148.3319732"/>
      <trkpt lat="-9.1167691" lon="148.3320889"/>
      <trkpt lat="-9.1169301" lon="148.3321604"/>
      <trkpt lat="-9.1171019" lon="148.3322136"/>
      <trkpt lat="-9.1172711" lon="148.3322727"/>
      <trkpt lat="-9.1174173" lon="148.3323499"/>
      <trkpt lat="-9.1175507" lon="148.3324288"/>
      <trkpt lat="-9.1176855" lon="148.3325019"/>
      <trkpt lat="-9.1178332" lon="148.3325778"/>
      <trkpt lat="-9.1179721" lon="148.3326060"/>
      <trkpt lat="-9.1181160" lon="148.3326174"/>
      <trkpt lat="-9.1182689" lon="148.3325927"/>
      <trkpt lat="-9.1184351" lon="148.3326019"/>
      <trkpt lat="-9.1185363" lon="148.3326638"/>
      <trkpt lat="-9.1186026" lon="148.3327479"/>
      <trkpt lat="-9.1186282" lon="148.3328259"/>
      <trkpt lat="-9.1186375" lon="148.3328761"/>
      <trkpt lat="-9.1185965" lon="148.3329232"/>
      <trkpt lat="-9.1185949" lon="148.3330022"/>
      <trkpt lat="-9.1185808" lon="148.3330766"/>
      <trkpt lat="-9.1186209" lon="148.3331769"/>
      <trkpt lat="-9.1186022" lon="148.3332894"/>
      <trkpt lat="-9.1186173" lon="148.3334345"/>
      <trkpt lat="-9.1186071" lon="148.3335679"/>
      <trkpt lat="-9.1186100" lon="148.3336717"/>
      <trkpt lat="-9.1186694" lon="148.3337322"/>
      <trkpt lat="-9.1187880" lon="148.3337587"/>
      <trkpt lat="-9.1189488" lon="148.3337497"/>
      <trkpt lat="-9.1191118" lon="148.3337302"/>
      <trkpt lat="-9.1192723" lon="148.3337296"/>
      <trkpt lat="-9.1194423" lon="148.3337290"/>
      <trkpt lat="-9.1195939" lon="148.3337430"/>
      <trkpt lat="-9.1197352" lon="148.3337768"/>
      <trkpt lat="-9.1198812" lon="148.3338371"/>
      <trkpt lat="-9.1200432" lon="148.3338851"/>
      <trkpt lat="-9.1202165" lon="148.3338838"/>
      <trkpt lat="-9.1203842" lon="148.3338784"/>
      <trkpt lat="-9.1205062" lon="148.3338241"/>
      <trkpt lat="-9.1206070" lon="148.3337463"/>
      <trkpt lat="-9.1206610" lon="148.3336984"/>
      <trkpt lat="-9.1206870" lon="148.3337457"/>
      <trkpt lat="-9.1207220" lon="148.3338625"/>
      <trkpt lat="-9.1207994" lon="148.3339755"/>
      <trkpt lat="-9.1208855" lon="148.3340955"/>
      <trkpt lat="-9.1209696" lon="148.3342145"/>
      <trkpt lat="-9.1210429" lon="148.3342743"/>
      <trkpt lat="-9.1211803" lon="148.3342715"/>
      <trkpt lat="-9.1213225" lon="148.3342683"/>
      <trkpt lat="-9.1214346" lon="148.3343467"/>
      <trkpt lat="-9.1214420" lon="148.3344600"/>
      <trkpt lat="-9.1213984" lon="148.3345949"/>
      <trkpt lat="-9.1213997" lon="148.3347104"/>
      <trkpt lat="-9.1215054" lon="148.3348189"/>
      <trkpt lat="-9.1216686" lon="148.3348920"/>
      <trkpt lat="-9.1218309" lon="148.3349035"/>
      <trkpt lat="-9.1219896" lon="148.3348591"/>
      <trkpt lat="-9.1221284" lon="148.3347515"/>
      <trkpt lat="-9.1222695" lon="148.3346587"/>
      <trkpt lat="-9.1224066" lon="148.3346291"/>
      <trkpt lat="-9.1225128" lon="148.3346984"/>
      <trkpt lat="-9.1225851" lon="148.3348248"/>
      <trkpt lat="-9.1226528" lon="148.3349569"/>
      <trkpt lat="-9.1227737" lon="148.3350249"/>
      <trkpt lat="-9.1229321" lon="148.3350605"/>
      <trkpt lat="-9.1230877" lon="148.3350887"/>
      <trkpt lat="-9.1231748" lon="148.3351829"/>
      <trkpt lat="-9.1232428" lon="148.3353139"/>
      <trkpt lat="-9.1233229" lon="148.3354297"/>
      <trkpt lat="-9.1234617" lon="148.3354544"/>
      <trkpt lat="-9.1236127" lon="148.3354008"/>
      <trkpt lat="-9.1237689" lon="148.3353225"/>
      <trkpt lat="-9.1239183" lon="148.3352373"/>
      <trkpt lat="-9.1240623" lon="148.3351554"/>
      <trkpt lat="-9.1242060" lon="148.3351009"/>
      <trkpt lat="-9.1243604" lon="148.3351075"/>
      <trkpt lat="-9.1244620" lon="148.3351270"/>
      <trkpt lat="-9.1245153" lon="148.3351240"/>
      <trkpt lat="-9.1245470" lon="148.3350976"/>
      <trkpt lat="-9.1246249" lon="148.3350888"/>
      <trkpt lat="-9.1246744" lon="148.3350376"/>
      <trkpt lat="-9.1247292" lon="148.3349930"/>
      <trkpt lat="-9.1247108" lon="148.3349679"/>
      <trkpt lat="-9.1247122" lon="148.3349596"/>
      <trkpt lat="-9.1247267" lon="148.3349798"/>
      <trkpt lat="-9.1248090" lon="148.3350273"/>
      <trkpt lat="-9.1248691" lon="148.3351336"/>
      <trkpt lat="-9.1249236" lon="148.3352293"/>
      <trkpt lat="-9.1249848" lon="148.3352948"/>
      <trkpt lat="-9.1250820" lon="148.3353706"/>
      <trkpt lat="-9.1251601" lon="148.3354763"/>
      <trkpt lat="-9.1252553" lon="148.3355650"/>
      <trkpt lat="-9.1253698" lon="148.3356631"/>
      <trkpt lat="-9.1254748" lon="148.3357596"/>
      <trkpt lat="-9.1255564" lon="148.3359050"/>
      <trkpt lat="-9.1256455" lon="148.3360471"/>
      <trkpt lat="-9.1257651" lon="148.3361677"/>
      <trkpt lat="-9.1259080" lon="148.3362223"/>
      <trkpt lat="-9.1260691" lon="148.3362209"/>
      <trkpt lat="-9.1262431" lon="148.3362029"/>
      <trkpt lat="-9.1263990" lon="148.3362446"/>
      <trkpt lat="-9.1265319" lon="148.3363402"/>
      <trkpt lat="-9.1266539" lon="148.3364620"/>
      <trkpt lat="-9.1267903" lon="148.3365420"/>
      <trkpt lat="-9.1269237" lon="148.3365298"/>
      <trkpt lat="-9.1270326" lon="148.3364373"/>
      <trkpt lat="-9.1270989" lon="148.3362940"/>
      <trkpt lat="-9.1271875" lon="148.3362108"/>
      <trkpt lat="-9.1273096" lon="148.3361616"/>
      <trkpt lat="-9.1273990" lon="148.3361770"/>
      <trkpt lat="-9.1274529" lon="148.3361731"/>
      <trkpt lat="-9.1274762" lon="148.3362230"/>
      <trkpt lat="-9.1275689" lon="148.3362930"/>
      <trkpt lat="-9.1276444" lon="148.3364243"/>
      <trkpt lat="-9.1276845" lon="148.3365698"/>
      <trkpt lat="-9.1277211" lon="148.3367213"/>
      <trkpt lat="-9.1277137" lon="148.3367917"/>
      <trkpt lat="-9.1277031" lon="148.3367874"/>
      <trkpt lat="-9.1276666" lon="148.3367587"/>
      <trkpt lat="-9.1276946" lon="148.3367366"/>
      <trkpt lat="-9.1277116" lon="148.3367547"/>
      <trkpt lat="-9.1277212" lon="148.3367838"/>
      <trkpt lat="-9.1277051" lon="148.3368181"/>
      <trkpt lat="-9.1277102" lon="148.3368113"/>
    </trkseg>
    <trkseg>
      <trkpt lat="-9.1309972" lon="148.3357053"/>
      <trkpt lat="-9.1310067" lon="148.3357838"/>
      <trkpt lat="-9.1309911" lon="148.3359026"/>
      <trkpt lat="-9.1309988" lon="148.3360651"/>
      <trkpt lat="-9.1310053" lon="148.3362279"/>
      <trkpt lat="-9.1310328" lon="148.3363996"/>
      <trkpt lat="-9.1310464" lon="148.3365727"/>
      <trkpt lat="-9.1310625" lon="148.3367445"/>
      <trkpt lat="-9.1311120" lon="148.3369065"/>
      <trkpt lat="-9.1311695" lon="148.3370690"/>
      <trkpt lat="-9.1312561" lon="148.3372216"/>
      <trkpt lat="-9.1313080" lon="148.3373847"/>
      <trkpt lat="-9.1313616" lon="148.3375407"/>
      <trkpt lat="-9.1314152" lon="148.3376917"/>
      <trkpt lat="-9.1314951" lon="148.3378319"/>
      <trkpt lat="-9.1315288" lon="148.3379777"/>
      <trkpt lat="-9.1315142" lon="148.3381316"/>
      <trkpt lat="-9.1314984" lon="148.3382878"/>
      <trkpt lat="-9.1315220" lon="148.3384487"/>
      <trkpt lat="-9.1315674" lon="148.3386184"/>
      <trkpt lat="-9.1316083" lon="148.3387924"/>
      <trkpt lat="-9.1316070" lon="148.3389580"/>
      <trkpt lat="-9.1316234" lon="148.3391128"/>
      <trkpt lat="-9.1316229" lon="148.3392695"/>
      <trkpt lat="-9.1316306" lon="148.3394215"/>
      <trkpt lat="-9.1315967" lon="148.3395756"/>
      <trkpt lat="-9.1315932" lon="148.3397233"/>
      <trkpt lat="-9.1316252" lon="148.3398835"/>
      <trkpt lat="-9.1316757" lon="148.3400433"/>
      <trkpt lat="-9.1317464" lon="148.3401832"/>
      <trkpt lat="-9.1318444" lon="148.3402975"/>
      <trkpt lat="-9.1319404" lon="148.3404209"/>
      <trkpt lat="-9.1320177" lon="148.3405382"/>
      <trkpt lat="-9.1320799" lon="148.3406705"/>
      <trkpt lat="-9.1321484" lon="148.3407953"/>
      <trkpt lat="-9.1322387" lon="148.3409209"/>
      <trkpt lat="-9.1323427" lon="148.3410387"/>
      <trkpt lat="-9.1324727" lon="148.3411497"/>
      <trkpt lat="-9.1325739" lon="148.3412845"/>
      <trkpt lat="-9.1326693" lon="148.3414278"/>
      <trkpt lat="-9.1327402" lon="148.3415823"/>
      <trkpt lat="-9.1328017" lon="148.3417446"/>
      <trkpt lat="-9.1328363" lon="148.3419182"/>
      <trkpt lat="-9.1328568" lon="148.3420897"/>
      <trkpt lat="-9.1328836" lon="148.3422166"/>
      <trkpt lat="-9.1329417" lon="148.3423153"/>
      <trkpt lat="-9.1329841" lon="148.3424166"/>
      <trkpt lat="-9.1329962" lon="148.3424855"/>
      <trkpt lat="-9.1330098" lon="148.3425640"/>
      <trkpt lat="-9.1330593" lon="148.3426440"/>
      <trkpt lat="-9.1331457" lon="148.3427929"/>
      <trkpt lat="-9.1332129" lon="148.3429571"/>
      <trkpt lat="-9.1332528" lon="148.3431212"/>
      <trkpt lat="-9.1332840" lon="148.3432877"/>
      <trkpt lat="-9.1332723" lon="148.3433884"/>
      <trkpt lat="-9.1333213" lon="148.3434515"/>
      <trkpt lat="-9.1334035" lon="148.3434914"/>
      <trkpt lat="-9.1335506" lon="148.3435796"/>
      <trkpt lat="-9.1337063" lon="148.3436359"/>
      <trkpt lat="-9.1338618" lon="148.3436848"/>
      <trkpt lat="-9.1340127" lon="148.3437146"/>
      <trkpt lat="-9.1341033" lon="148.3438110"/>
      <trkpt lat="-9.1341411" lon="148.3439465"/>
      <trkpt lat="-9.1341428" lon="148.3441211"/>
      <trkpt lat="-9.1341860" lon="148.3442842"/>
      <trkpt lat="-9.1342187" lon="148.3444283"/>
      <trkpt lat="-9.1342390" lon="148.3445716"/>
      <trkpt lat="-9.1342491" lon="148.3446916"/>
      <trkpt lat="-9.1342845" lon="148.3448244"/>
      <trkpt lat="-9.1343645" lon="148.3449452"/>
      <trkpt lat="-9.1344185" lon="148.3450933"/>
      <trkpt lat="-9.1344857" lon="148.3452404"/>
      <trkpt lat="-9.1345321" lon="148.3454000"/>
      <trkpt lat="-9.1346217" lon="148.3455387"/>
      <trkpt lat="-9.1347338" lon="148.3456573"/>
      <trkpt lat="-9.1348862" lon="148.3457146"/>
      <trkpt lat="-9.1350303" lon="148.3457779"/>
      <trkpt lat="-9.1351578" lon="148.3458207"/>
      <trkpt lat="-9.1352707" lon="148.3458892"/>
      <trkpt lat="-9.1353344" lon="148.3459291"/>
      <trkpt lat="-9.1353309" lon="148.3460055"/>
      <trkpt lat="-9.1352502" lon="148.3461069"/>
      <trkpt lat="-9.1352250" lon="148.3461789"/>
      <trkpt lat="-9.1352810" lon="148.3462019"/>
      <trkpt lat="-9.1354311" lon="148.3461752"/>
      <trkpt lat="-9.1355788" lon="148.3462141"/>
      <trkpt lat="-9.1357328" lon="148.3462259"/>
      <trkpt lat="-9.1358816" lon="148.3462468"/>
      <trkpt lat="-9.1360448" lon="148.3462110"/>
      <trkpt lat="-9.1362114" lon="148.3461848"/>
      <trkpt lat="-9.1363376" lon="148.3461630"/>
      <trkpt lat="-9.1363887" lon="148.3461652"/>
      <trkpt lat="-9.1364058" lon="148.3461678"/>
      <trkpt lat="-9.1364003" lon="148.3461670"/>
      <trkpt lat="-9.1364353" lon="148.3461646"/>
      <trkpt lat="-9.1365012" lon="148.3461681"/>
      <trkpt lat="-9.1365792" lon="148.3461614"/>
      <trkpt lat="-9.1365915" lon="148.3461326"/>
      <trkpt lat="-9.1365057" lon="148.3461366"/>
      <trkpt lat="-9.1364552" lon="148.3460974"/>
      <trkpt lat="-9.1364151" lon="148.3461202"/>
      <trkpt lat="-9.1364095" lon="148.3461117"/>
      <trkpt lat="-9.1363961" lon="148.3461080"/>
      <trkpt lat="-9.1364062" lon="148.3460661"/>
      <trkpt lat="-9.1364472" lon="148.3460598"/>
      <trkpt lat="-9.1364428" lon="148.3460870"/>
      <trkpt lat="-9.1364309" lon="148.3460987"/>
    </trkseg>
    <trkseg>
      <trkpt lat="-9.1686261" lon="148.3494448"/>
      <trkpt lat="-9.1687932" lon="148.3495127"/>
      <trkpt lat="-9.1689614" lon="148.3495778"/>
      <trkpt lat="-9.1691344" lon="148.3496193"/>
      <trkpt lat="-9.1693076" lon="148.3496590"/>
      <trkpt lat="-9.1694846" lon="148.3496818"/>
      <trkpt lat="-9.1696623" lon="148.3497027"/>
      <trkpt lat="-9.1698421" lon="148.3497009"/>
      <trkpt lat="-9.1700223" lon="148.3496913"/>
      <trkpt lat="-9.1702023" lon="148.3496875"/>
      <trkpt lat="-9.1703802" lon="148.3497046"/>
      <trkpt lat="-9.1705571" lon="148.3497164"/>
      <trkpt lat="-9.1707344" lon="148.3497226"/>
      <trkpt lat="-9.1709106" lon="148.3497329"/>
      <trkpt lat="-9.1710441" lon="148.3498067"/>
      <trkpt lat="-9.1711660" lon="148.3498844"/>
      <trkpt lat="-9.1712829" lon="148.3499583"/>
      <trkpt lat="-9.1714321" lon="148.3500083"/>
      <trkpt lat="-9.1715885" lon="148.3500445"/>
      <trkpt lat="-9.1717500" lon="148.3500836"/>
      <trkpt lat="-9.1718982" lon="148.3500568"/>
      <trkpt lat="-9.1720047" lon="148.3500341"/>
      <trkpt lat="-9.1721043" lon="148.3500211"/>
      <trkpt lat="-9.1721609" lon="148.3500279"/>
      <trkpt lat="-9.1722134" lon="148.3500472"/>
      <trkpt lat="-9.1722605" lon="148.3500015"/>
      <trkpt lat="-9.1723682" lon="148.3499462"/>
      <trkpt lat="-9.1725226" lon="148.3498711"/>
      <trkpt lat="-9.1726149" lon="148.3497922"/>
      <trkpt lat="-9.1727066" lon="148.3497204"/>
      <trkpt lat="-9.1727927" lon="148.3496809"/>
      <trkpt lat="-9.1729241" lon="148.3497115"/>
      <trkpt lat="-9.1729688" lon="148.3497112"/>
      <trkpt lat="-9.1729433" lon="148.3497382"/>
      <trkpt lat="-9.1729061" lon="148.3497405"/>
      <trkpt lat="-9.1729126" lon="148.3497908"/>
      <trkpt lat="-9.1729254" lon="148.3497820"/>
      <trkpt lat="-9.1729451" lon="148.3497203"/>
      <trkpt lat="-9.1729501" lon="148.3496679"/>
      <trkpt lat="-9.1730072" lon="148.3496300"/>
      <trkpt lat="-9.1730101" lon="148.3496191"/>
      <trkpt lat="-9.1730326" lon="148.3496573"/>
      <trkpt lat="-9.1730723" lon="148.3497009"/>
      <trkpt lat="-9.1732026" lon="148.3497585"/>
      <trkpt lat="-9.1733708" lon="148.3497386"/>
      <trkpt lat="-9.1735392" lon="148.3496926"/>
      <trkpt lat="-9.1737000" lon="148.3496675"/>
      <trkpt lat="-9.1738407" lon="148.3497114"/>
      <trkpt lat="-9.1739645" lon="148.3498199"/>
      <trkpt lat="-9.1740473" lon="148.3499660"/>
      <trkpt lat="-9.1741148" lon="148.3501089"/>
      <trkpt lat="-9.1741438" lon="148.3502052"/>
      <trkpt lat="-9.1741804" lon="148.3502978"/>
      <trkpt lat="-9.1742507" lon="148.3503634"/>
      <trkpt lat="-9.1743797" lon="148.3504276"/>
      <trkpt lat="-9.1745503" lon="148.3504524"/>
      <trkpt lat="-9.1747290" lon="148.3504675"/>
      <trkpt lat="-9.1748890" lon="148.3504929"/>
      <trkpt lat="-9.1750220" lon="148.3504704"/>
      <trkpt lat="-9.1751205" lon="148.3503922"/>
      <trkpt lat="-9.1751840" lon="148.3502920"/>
      <trkpt lat="-9.1752595" lon="148.3501995"/>
      <trkpt lat="-9.1753707" lon="148.3501524"/>
      <trkpt lat="-9.1755242" lon="148.3501055"/>
      <trkpt lat="-9.1756457" lon="148.3500653"/>
      <trkpt lat="-9.1757478" lon="148.3500590"/>
      <trkpt lat="-9.1758583" lon="148.3500765"/>
      <trkpt lat="-9.1759932" lon="148.3501635"/>
      <trkpt lat="-9.1761292" lon="148.3502438"/>
      <trkpt lat="-9.1762541" lon="148.3503505"/>
      <trkpt lat="-9.1763485" lon="148.3504423"/>
      <trkpt lat="-9.1764505" lon="148.3505334"/>
      <trkpt lat="-9.1765620" lon="148.3505896"/>
      <trkpt lat="-9.1767159" lon="148.3506471"/>
      <trkpt lat="-9.1768727" lon="148.3506498"/>
      <trkpt lat="-9.1770161" lon="148.3506712"/>
      <trkpt lat="-9.1771608" lon="148.3506960"/>
      <trkpt lat="-9.1773089" lon="148.3507311"/>
      <trkpt lat="-9.1774724" lon="148.3507592"/>
      <trkpt lat="-9.1776113" lon="148.3507110"/>
      <trkpt lat="-9.1777309" lon="148.3506387"/>
      <trkpt lat="-9.1777756" lon="148.3505054"/>
      <trkpt lat="-9.1777926" lon="148.3503613"/>
      <trkpt lat="-9.1777798" lon="148.3502016"/>
      <trkpt lat="-9.1778055" lon="148.3500398"/>
      <trkpt lat="-9.1778604" lon="148.3498795"/>
      <trkpt lat="-9.1779594" lon="148.3497909"/>
      <trkpt lat="-9.1780960" lon="148.3497416"/>
      <trkpt lat="-9.1782404" lon="148.3496957"/>
      <trkpt lat="-9.1783765" lon="148.3496660"/>
      <trkpt lat="-9.1785025" lon="148.3496159"/>
      <trkpt lat="-9.1786481" lon="148.3496216"/>
      <trkpt lat="-9.1788099" lon="148.3496044"/>
      <trkpt lat="-9.1789310" lon="148.3496551"/>
      <trkpt lat="-9.1790471" lon="148.3497316"/>
      <trkpt lat="-9.1791622" lon="148.3498160"/>
      <trkpt lat="-9.1793108" lon="148.3498253"/>
      <trkpt lat="-9.1794653" lon="148.3497779"/>
      <trkpt lat="-9.1795366" lon="148.3497499"/>
      <trkpt lat="-9.1795631" lon="148.3497844"/>
      <trkpt lat="-9.1795440" lon="148.3498110"/>
      <trkpt lat="-9.1795774" lon="148.3498136"/>
      <trkpt lat="-9.1796167" lon="148.3497787"/>
      <trkpt lat="-9.1796425" lon="148.3497792"/>
      <trkpt lat="-9.1796686" lon="148.3497199"/>
      <trkpt lat="-9.1797512" lon="148.3496618"/>
      <trkpt lat="-9.1798947" lon="148.3495804"/>
      <trkpt lat="-9.1800661" lon="148.3495280"/>
      <trkpt lat="-9.1802066" lon="148.3495180"/>
      <trkpt lat="-9.1803088" lon="148.3495846"/>
      <trkpt lat="-9.1804055" lon="148.3496813"/>
      <trkpt lat="-9.1805237" lon="148.3497151"/>
      <trkpt lat="-9.1806463" lon="148.3497391"/>
      <trkpt lat="-9.1807690" lon="148.3497754"/>
      <trkpt lat="-9.1809011" lon="148.3498483"/>
      <trkpt lat="-9.1810407" lon="148.3498940"/>
      <trkpt lat="-9.1811325" lon="148.3499681"/>
      <trkpt lat="-9.1811991" lon="148.3500761"/>
      <trkpt lat="-9.1812396" lon="148.3501776"/>
      <trkpt lat="-9.1813247" lon="148.3502210"/>
      <trkpt lat="-9.1813474" lon="148.3502297"/>
      <trkpt lat="-9.1813377" lon="148.3502293"/>
    </trkseg>
    <trkseg>
      <trkpt lat="-9.1577546" lon="148.3320509"/>
      <trkpt lat="-9.1578041" lon="148.3319719"/>
      <trkpt lat="-9.1578109" lon="148.3319366"/>
      <trkpt lat="-9.1578183" lon="148.3319410"/>
      <trkpt lat="-9.1577861" lon="148.3319317"/>
      <trkpt lat="-9.1577215" lon="148.3318902"/>
      <trkpt lat="-9.1575910" lon="148.3318043"/>
      <trkpt lat="-9.1574514" lon="148.3317139"/>
      <trkpt lat="-9.1573290" lon="148.3316027"/>
      <trkpt lat="-9.1572303" lon="148.3315023"/>
      <trkpt lat="-9.1571927" lon="148.3313901"/>
      <trkpt lat="-9.1571514" lon="148.3312855"/>
      <trkpt lat="-9.1571134" lon="148.3312679"/>
      <trkpt lat="-9.1570607" lon="148.3312205"/>
      <trkpt lat="-9.1570209" lon="148.3312694"/>
      <trkpt lat="-9.1569359" lon="148.3312781"/>
      <trkpt lat="-9.1568234" lon="148.3313261"/>
      <trkpt lat="-9.1567000" lon="148.3313030"/>
    </trkseg>
    <trkseg>
      <trkpt lat="-9.1566034" lon="148.3313130"/>
      <trkpt lat="-9.1566907" lon="148.3311795"/>
      <trkpt lat="-9.1567247" lon="148.3310276"/>
      <trkpt lat="-9.1567159" lon="148.3309093"/>
      <trkpt lat="-9.1566971" lon="148.3308386"/>
    </trkseg>
    <trkseg>
      <trkpt lat="-9.1566144" lon="148.3308831"/>
      <trkpt lat="-9.1564890" lon="148.3309201"/>
      <trkpt lat="-9.1564012" lon="148.3309128"/>
      <trkpt lat="-9.1563727" lon="148.3308517"/>
      <trkpt lat="-9.1563312" lon="148.3307651"/>
      <trkpt lat="-9.1562555" lon="148.3306665"/>
      <trkpt lat="-9.1561205" lon="148.3305643"/>
      <trkpt lat="-9.1559668" lon="148.3305017"/>
      <trkpt lat="-9.1558001" lon="148.3304614"/>
      <trkpt lat="-9.1556235" lon="148.3304429"/>
      <trkpt lat="-9.1554654" lon="148.3303945"/>
      <trkpt lat="-9.1553598" lon="148.3302909"/>
      <trkpt lat="-9.1553030" lon="148.3301369"/>
      <trkpt lat="-9.1552360" lon="148.3299963"/>
      <trkpt lat="-9.1551509" lon="148.3298674"/>
      <trkpt lat="-9.1550182" lon="148.3297810"/>
      <trkpt lat="-9.1548767" lon="148.3297240"/>
      <trkpt lat="-9.1547042" lon="148.3297198"/>
      <trkpt lat="-9.1545751" lon="148.3296766"/>
      <trkpt lat="-9.1544610" lon="148.3295856"/>
      <trkpt lat="-9.1543518" lon="148.3294586"/>
      <trkpt lat="-9.1542018" lon="148.3293646"/>
      <trkpt lat="-9.1540529" lon="148.3292916"/>
      <trkpt lat="-9.1539129" lon="148.3292600"/>
      <trkpt lat="-9.1538116" lon="148.3293068"/>
      <trkpt lat="-9.1537246" lon="148.3293977"/>
      <trkpt lat="-9.1536472" lon="148.3294411"/>
      <trkpt lat="-9.1535419" lon="148.3293957"/>
      <trkpt lat="-9.1534132" lon="148.3293071"/>
      <trkpt lat="-9.1532677" lon="148.3292878"/>
      <trkpt lat="-9.1531140" lon="148.3293272"/>
      <trkpt lat="-9.1529758" lon="148.3293412"/>
      <trkpt lat="-9.1528853" lon="148.3293119"/>
      <trkpt lat="-9.1528182" lon="148.3292439"/>
      <trkpt lat="-9.1527823" lon="148.3291619"/>
      <trkpt lat="-9.1527196" lon="148.3291042"/>
      <trkpt lat="-9.1526694" lon="148.3291149"/>
      <trkpt lat="-9.1526064" lon="148.3291354"/>
      <trkpt lat="-9.1525795" lon="148.3290836"/>
      <trkpt lat="-9.1525578" lon="148.3289260"/>
      <trkpt lat="-9.1525013" lon="148.3287895"/>
      <trkpt lat="-9.1523858" lon="148.3287059"/>
      <trkpt lat="-9.1522246" lon="148.3286540"/>
      <trkpt lat="-9.1520863" lon="148.3285798"/>
      <trkpt lat="-9.1519482" lon="148.3285087"/>
      <trkpt lat="-9.1518141" lon="148.3284551"/>
      <trkpt lat="-9.1516640" lon="148.3284798"/>
      <trkpt lat="-9.1515138" lon="148.3284807"/>
      <trkpt lat="-9.1513849" lon="148.3284762"/>
      <trkpt lat="-9.1512530" lon="148.3284534"/>
      <trkpt lat="-9.1511300" lon="148.3284826"/>
      <trkpt lat="-9.1509956" lon="148.3285219"/>
      <trkpt lat="-9.1508566" lon="148.3285238"/>
      <trkpt lat="-9.1507030" lon="148.3284819"/>
      <trkpt lat="-9.1505455" lon="148.3284135"/>
      <trkpt lat="-9.1504082" lon="148.3283256"/>
      <trkpt lat="-9.1502797" lon="148.3282213"/>
      <trkpt lat="-9.1501395" lon="148.3281434"/>
      <trkpt lat="-9.1499756" lon="148.3280921"/>
      <trkpt lat="-9.1498029" lon="148.3280839"/>
      <trkpt lat="-9.1496496" lon="148.3280462"/>
      <trkpt lat="-9.1495510" lon="148.3279920"/>
      <trkpt lat="-9.1494602" lon="148.3279523"/>
      <trkpt lat="-9.1493652" lon="148.3278955"/>
      <trkpt lat="-9.1492302" lon="148.3278330"/>
      <trkpt lat="-9.1490977" lon="148.3277316"/>
      <trkpt lat="-9.1489842" lon="148.3276888"/>
      <trkpt lat="-9.1489242" lon="148.3276556"/>
      <trkpt lat="-9.1488613" lon="148.3276296"/>
      <trkpt lat="-9.1488544" lon="148.3275341"/>
      <trkpt lat="-9.1488449" lon="148.3274343"/>
      <trkpt lat="-9.1488905" lon="148.3273517"/>
      <trkpt lat="-9.1488819" lon="148.3273311"/>
      <trkpt lat="-9.1488996" lon="148.3273004"/>
      <trkpt lat="-9.1489444" lon="148.3272115"/>
      <trkpt lat="-9.1489780" lon="148.3271424"/>
      <trkpt lat="-9.1489951" lon="148.3271331"/>
      <trkpt lat="-9.1489911" lon="148.3271643"/>
      <trkpt lat="-9.1489711" lon="148.3271612"/>
      <trkpt lat="-9.1488928" lon="148.3271062"/>
      <trkpt lat="-9.1488066" lon="148.3270022"/>
      <trkpt lat="-9.1487145" lon="148.3269043"/>
      <trkpt lat="-9.1486479" lon="148.3267966"/>
      <trkpt lat="-9.1485697" lon="148.3266913"/>
      <trkpt lat="-9.1485862" lon="148.3265377"/>
      <trkpt lat="-9.1486145" lon="148.3263746"/>
      <trkpt lat="-9.1486851" lon="148.3262871"/>
      <trkpt lat="-9.1487294" lon="148.3262340"/>
      <trkpt lat="-9.1487350" lon="148.3262659"/>
      <trkpt lat="-9.1486762" lon="148.3262605"/>
      <trkpt lat="-9.1485637" lon="148.3262251"/>
      <trkpt lat="-9.1484492" lon="148.3261230"/>
      <trkpt lat="-9.1483658" lon="148.3259823"/>
      <trkpt lat="-9.1483092" lon="148.3258288"/>
      <trkpt lat="-9.1483038" lon="148.3256588"/>
      <trkpt lat="-9.1482894" lon="148.3254863"/>
      <trkpt lat="-9.1482899" lon="148.3253078"/>
      <trkpt lat="-9.1482533" lon="148.3251348"/>
      <trkpt lat="-9.1482006" lon="148.3249660"/>
      <trkpt lat="-9.1481133" lon="148.3248084"/>
      <trkpt lat="-9.1480183" lon="148.3246555"/>
      <trkpt lat="-9.1479019" lon="148.3245186"/>
      <trkpt lat="-9.1477702" lon="148.3243985"/>
      <trkpt lat="-9.1476152" lon="148.3243160"/>
      <trkpt lat="-9.1474463" lon="148.3242718"/>
      <trkpt lat="-9.1472947" lon="148.3242153"/>
      <trkpt lat="-9.1471779" lon="148.3241142"/>
      <trkpt lat="-9.1471027" lon="148.3239587"/>
      <trkpt lat="-9.1470229" lon="148.3238106"/>
      <trkpt lat="-9.1469456" lon="148.3236615"/>
      <trkpt lat="-9.1468544" lon="148.3235165"/>
      <trkpt lat="-9.1467729" lon="148.3233552"/>
      <trkpt lat="-9.1467194" lon="148.3231918"/>
      <trkpt lat="-9.1466814" lon="148.3230240"/>
      <trkpt lat="-9.1466312" lon="148.3228650"/>
      <trkpt lat="-9.1465332" lon="148.3227600"/>
      <trkpt lat="-9.1464606" lon="148.3227255"/>
      <trkpt lat="-9.1464301" lon="148.3226916"/>
      <trkpt lat="-9.1463916" lon="148.3226354"/>
      <trkpt lat="-9.1463315" lon="148.3225190"/>
      <trkpt lat="-9.1462381" lon="148.3223953"/>
      <trkpt lat="-9.1461540" lon="148.3222535"/>
      <trkpt lat="-9.1460699" lon="148.3220998"/>
      <trkpt lat="-9.1460159" lon="148.3219378"/>
      <trkpt lat="-9.1459880" lon="148.3217616"/>
      <trkpt lat="-9.1459561" lon="148.3215918"/>
      <trkpt lat="-9.1459165" lon="148.3214220"/>
      <trkpt lat="-9.1458814" lon="148.3212510"/>
      <trkpt lat="-9.1458516" lon="148.3210741"/>
      <trkpt lat="-9.1458302" lon="148.3208965"/>
      <trkpt lat="-9.1458063" lon="148.3207194"/>
      <trkpt lat="-9.1457897" lon="148.3205416"/>
      <trkpt lat="-9.1457290" lon="148.3203872"/>
      <trkpt lat="-9.1456241" lon="148.3202758"/>
      <trkpt lat="-9.1454687" lon="148.3202005"/>
      <trkpt lat="-9.1453113" lon="148.3201246"/>
      <trkpt lat="-9.1451646" lon="148.3200255"/>
      <trkpt lat="-9.1450275" lon="148.3199074"/>
      <trkpt lat="-9.1448959" lon="148.3197836"/>
      <trkpt lat="-9.1447524" lon="148.3196846"/>
      <trkpt lat="-9.1445967" lon="148.3196107"/>
      <trkpt lat="-9.1444261" lon="148.3195591"/>
      <trkpt lat="-9.1442870" lon="148.3194686"/>
      <trkpt lat="-9.1441769" lon="148.3193482"/>
      <trkpt lat="-9.1440806" lon="148.3192916"/>
      <trkpt lat="-9.1439529" lon="148.3193017"/>
      <trkpt lat="-9.1438146" lon="148.3193992"/>
      <trkpt lat="-9.1436678" lon="148.3194828"/>
      <trkpt lat="-9.1435313" lon="148.3195782"/>
      <trkpt lat="-9.1433744" lon="148.3196273"/>
      <trkpt lat="-9.1432130" lon="148.3196241"/>
      <trkpt lat="-9.1430506" lon="148.3195603"/>
      <trkpt lat="-9.1428906" lon="148.3194836"/>
      <trkpt lat="-9.1427366" lon="148.3194596"/>
      <trkpt lat="-9.1425771" lon="148.3194980"/>
      <trkpt lat="-9.1424230" lon="148.3195774"/>
      <trkpt lat="-9.1423247" lon="148.3196165"/>
      <trkpt lat="-9.1422757" lon="148.3196300"/>
      <trkpt lat="-9.1423036" lon="148.3196151"/>
      <trkpt lat="-9.1423524" lon="148.3195587"/>
      <trkpt lat="-9.1424437" lon="148.3194542"/>
      <trkpt lat="-9.1425541" lon="148.3193158"/>
      <trkpt lat="-9.1426941" lon="148.3192357"/>
      <trkpt lat="-9.1427990" lon="148.3191923"/>
      <trkpt lat="-9.1429082" lon="148.3191690"/>
      <trkpt lat="-9.1429161" lon="148.3191203"/>
      <trkpt lat="-9.1428608" lon="148.3190871"/>
      <trkpt lat="-9.1427029" lon="148.3190456"/>
      <trkpt lat="-9.1425378" lon="148.3189944"/>
      <trkpt lat="-9.1424095" lon="148.3188837"/>
      <trkpt lat="-9.1423208" lon="148.3187443"/>
      <trkpt lat="-9.1422612" lon="148.3185977"/>
      <trkpt lat="-9.1421653" lon="148.3185129"/>
      <trkpt lat="-9.1420312" lon="148.3184707"/>
      <trkpt lat="-9.1418932" lon="148.3184166"/>
      <trkpt lat="-9.1417638" lon="148.3183300"/>
      <trkpt lat="-9.1416673" lon="148.3182025"/>
      <trkpt lat="-9.1415516" lon="148.3181024"/>
      <trkpt lat="-9.1414294" lon="148.3180459"/>
      <trkpt lat="-9.1412767" lon="148.3180487"/>
      <trkpt lat="-9.1411248" lon="148.3180528"/>
      <trkpt lat="-9.1409778" lon="148.3180669"/>
      <trkpt lat="-9.1408219" lon="148.3180871"/>
      <trkpt lat="-9.1406508" lon="148.3181231"/>
      <trkpt lat="-9.1404743" lon="148.3181173"/>
      <trkpt lat="-9.1403166" lon="148.3180549"/>
      <trkpt lat="-9.1401958" lon="148.3179909"/>
      <trkpt lat="-9.1401201" lon="148.3179979"/>
      <trkpt lat="-9.1400430" lon="148.3180876"/>
      <trkpt lat="-9.1399577" lon="148.3181520"/>
      <trkpt lat="-9.1398411" lon="148.3181222"/>
      <trkpt lat="-9.1397138" lon="148.3180250"/>
      <trkpt lat="-9.1395585" lon="148.3179660"/>
      <trkpt lat="-9.1394014" lon="148.3179178"/>
      <trkpt lat="-9.1392762" lon="148.3178464"/>
      <trkpt lat="-9.1391683" lon="148.3177777"/>
      <trkpt lat="-9.1390657" lon="148.3177776"/>
      <trkpt lat="-9.1389268" lon="148.3178511"/>
      <trkpt lat="-9.1387720" lon="148.3179018"/>
      <trkpt lat="-9.1385995" lon="148.3178949"/>
      <trkpt lat="-9.1384321" lon="148.3178457"/>
      <trkpt lat="-9.1382640" lon="148.3177994"/>
      <trkpt lat="-9.1380958" lon="148.3177741"/>
      <trkpt lat="-9.1379569" lon="148.3177711"/>
      <trkpt lat="-9.1378891" lon="148.3177188"/>
      <trkpt lat="-9.1378842" lon="148.3176004"/>
      <trkpt lat="-9.1378706" lon="148.3174371"/>
      <trkpt lat="-9.1377851" lon="148.3173290"/>
      <trkpt lat="-9.1376379" lon="148.3172644"/>
      <trkpt lat="-9.1375014" lon="148.3172018"/>
      <trkpt lat="-9.1373914" lon="148.3171035"/>
      <trkpt lat="-9.1372834" lon="148.3169996"/>
      <trkpt lat="-9.1371353" lon="148.3169401"/>
      <trkpt lat="-9.1369614" lon="148.3169235"/>
      <trkpt lat="-9.1367911" lon="148.3169008"/>
      <trkpt lat="-9.1366422" lon="148.3168838"/>
      <trkpt lat="-9.1365623" lon="148.3169135"/>
      <trkpt lat="-9.1364824" lon="148.3170020"/>
      <trkpt lat="-9.1364011" lon="148.3171079"/>
      <trkpt lat="-9.1362834" lon="148.3171117"/>
      <trkpt lat="-9.1361688" lon="148.3170507"/>
      <trkpt lat="-9.1360408" lon="148.3169451"/>
      <trkpt lat="-9.1359178" lon="148.3168393"/>
      <trkpt lat="-9.1358161" lon="148.3167209"/>
      <trkpt lat="-9.1357954" lon="148.3165743"/>
      <trkpt lat="-9.1357542" lon="148.3164366"/>
      <trkpt lat="-9.1356821" lon="148.3163358"/>
      <trkpt lat="-9.1355350" lon="148.3163161"/>
      <trkpt lat="-9.1354056" lon="148.3162847"/>
      <trkpt lat="-9.1352791" lon="148.3162420"/>
      <trkpt lat="-9.1351435" lon="148.3161534"/>
      <trkpt lat="-9.1350210" lon="148.3160634"/>
      <trkpt lat="-9.1349118" lon="148.3159644"/>
      <trkpt lat="-9.1348017" lon="148.3158833"/>
      <trkpt lat="-9.1346530" lon="148.3158236"/>
      <trkpt lat="-9.1345440" lon="148.3157350"/>
      <trkpt lat="-9.1344558" lon="148.3156023"/>
      <trkpt lat="-9.1343589" lon="148.3155159"/>
      <trkpt lat="-9.1342193" lon="148.3154586"/>
      <trkpt lat="-9.1340666" lon="148.3154726"/>
      <trkpt lat="-9.1339332" lon="148.3155183"/>
      <trkpt lat="-9.1338016" lon="148.3155618"/>
      <trkpt lat="-9.1336806" lon="148.3155278"/>
      <trkpt lat="-9.1335517" lon="148.3154371"/>
      <trkpt lat="-9.1334084" lon="148.3153893"/>
      <trkpt lat="-9.1332502" lon="148.3153815"/>
      <trkpt lat="-9.1330906" lon="148.3153771"/>
      <trkpt lat="-9.1329385" lon="148.3153513"/>
      <trkpt lat="-9.1328138" lon="148.3152985"/>
      <trkpt lat="-9.1326821" lon="148.3152770"/>
      <trkpt lat="-9.1325414" lon="148.3152753"/>
      <trkpt lat="-9.1324005" lon="148.3152678"/>
      <trkpt lat="-9.1322915" lon="148.3152111"/>
      <trkpt lat="-9.1322184" lon="148.3151170"/>
    </trkseg>
    <trkseg>
      <trkpt lat="-9.1323154" lon="148.3151469"/>
      <trkpt lat="-9.1323296" lon="148.3151374"/>
      <trkpt lat="-9.1323426" lon="148.3151373"/>
      <trkpt lat="-9.1323188" lon="148.3151340"/>
      <trkpt lat="-9.1323193" lon="148.3151089"/>
      <trkpt lat="-9.1323236" lon="148.3151033"/>
      <trkpt lat="-9.1323377" lon="148.3151068"/>
      <trkpt lat="-9.1323126" lon="148.3151605"/>
    </trkseg>
  </trk>
</gpx>
