<?xml version="1.0" encoding="UTF-8"?>
<gpx version="1.1" creator="MCA Maps — Managalas clan boundary survey"
     xmlns="http://www.topografix.com/GPX/1/1"
     xmlns:xsi="http://www.w3.org/2001/XMLSchema-instance"
     xsi:schemaLocation="http://www.topografix.com/GPX/1/1 http://www.topografix.com/GPX/1/1/gpx.xsd">
  <metadata>
    <name>Pina Ora — clan land boundary</name>
    <desc>Pina Ora, Zone 6. 18.9 km walked; 1.4 km still to walk in 3 gaps. 1 join(s) under the marking threshold are not shown.</desc>
    <time>2026-08-16T11:44:03Z</time>
  </metadata>
  <wpt lat="-9.0515306" lon="148.3829851">
    <name>GAP 1 OF 3 START</name>
    <desc>0.21 km not walked. This straight line is not a boundary — it joins the two ends so the shape can be closed on paper. Pina Ora, Zone 6.</desc>
    <sym>Flag</sym>
  </wpt>
  <wpt lat="-9.0505860" lon="148.3845997">
    <name>GAP 1 OF 3 END</name>
    <desc>0.21 km not walked. This straight line is not a boundary — it joins the two ends so the shape can be closed on paper. Pina Ora, Zone 6.</desc>
    <sym>Flag</sym>
  </wpt>
  <wpt lat="-9.0505860" lon="148.3845997">
    <name>GAP 2 OF 3 START</name>
    <desc>0.40 km not walked. This straight line is not a boundary — it joins the two ends so the shape can be closed on paper. Pina Ora, Zone 6.</desc>
    <sym>Flag</sym>
  </wpt>
  <wpt lat="-9.0502613" lon="148.3881930">
    <name>GAP 2 OF 3 END</name>
    <desc>0.40 km not walked. This straight line is not a boundary — it joins the two ends so the shape can be closed on paper. Pina Ora, Zone 6.</desc>
    <sym>Flag</sym>
  </wpt>
  <wpt lat="-9.0474714" lon="148.4209569">
    <name>GAP 3 OF 3 START</name>
    <desc>0.79 km not walked. This straight line is not a boundary — it joins the two ends so the shape can be closed on paper. Pina Ora, Zone 6.</desc>
    <sym>Flag</sym>
  </wpt>
  <wpt lat="-9.0545267" lon="148.4219535">
    <name>GAP 3 OF 3 END</name>
    <desc>0.79 km not walked. This straight line is not a boundary — it joins the two ends so the shape can be closed on paper. Pina Ora, Zone 6.</desc>
    <sym>Flag</sym>
  </wpt>
  <trk>
    <name>GAP 1 OF 3 - NOT WALKED - 0.21 km</name>
    <desc>0.21 km not walked. This straight line is not a boundary — it joins the two ends so the shape can be closed on paper. Pina Ora, Zone 6.</desc>
    <type>not-walked</type>
    <trkseg>
      <trkpt lat="-9.0515306" lon="148.3829851"/>
      <trkpt lat="-9.0505860" lon="148.3845997"/>
    </trkseg>
  </trk>
  <trk>
    <name>GAP 2 OF 3 - NOT WALKED - 0.40 km</name>
    <desc>0.40 km not walked. This straight line is not a boundary — it joins the two ends so the shape can be closed on paper. Pina Ora, Zone 6.</desc>
    <type>not-walked</type>
    <trkseg>
      <trkpt lat="-9.0505860" lon="148.3845997"/>
      <trkpt lat="-9.0502613" lon="148.3881930"/>
    </trkseg>
  </trk>
  <trk>
    <name>GAP 3 OF 3 - NOT WALKED - 0.79 km</name>
    <desc>0.79 km not walked. This straight line is not a boundary — it joins the two ends so the shape can be closed on paper. Pina Ora, Zone 6.</desc>
    <type>not-walked</type>
    <trkseg>
      <trkpt lat="-9.0474714" lon="148.4209569"/>
      <trkpt lat="-9.0545267" lon="148.4219535"/>
    </trkseg>
  </trk>
  <trk>
    <name>Pina Ora - Alban Ezekiel</name>
    <desc>Walked by Alban Ezekiel. 18.9 km, 3 track(s), recorded on the ground. Pina Ora, Zone 6.</desc>
    <type>walked-boundary</type>
    <trkseg>
      <trkpt lat="-9.0590625" lon="148.3968016"/>
      <trkpt lat="-9.0591346" lon="148.3969634"/>
      <trkpt lat="-9.0591920" lon="148.3971320"/>
      <trkpt lat="-9.0592454" lon="148.3973042"/>
      <trkpt lat="-9.0593203" lon="148.3974651"/>
      <trkpt lat="-9.0593835" lon="148.3976247"/>
      <trkpt lat="-9.0594170" lon="148.3977888"/>
      <trkpt lat="-9.0594185" lon="148.3979661"/>
      <trkpt lat="-9.0594077" lon="148.3981454"/>
      <trkpt lat="-9.0594208" lon="148.3983216"/>
      <trkpt lat="-9.0594548" lon="148.3984923"/>
      <trkpt lat="-9.0595329" lon="148.3986477"/>
      <trkpt lat="-9.0596399" lon="148.3987730"/>
      <trkpt lat="-9.0597393" lon="148.3989005"/>
      <trkpt lat="-9.0598457" lon="148.3990285"/>
      <trkpt lat="-9.0599429" lon="148.3991754"/>
      <trkpt lat="-9.0600301" lon="148.3993170"/>
      <trkpt lat="-9.0600923" lon="148.3994706"/>
      <trkpt lat="-9.0601367" lon="148.3996355"/>
      <trkpt lat="-9.0601793" lon="148.3998078"/>
      <trkpt lat="-9.0602230" lon="148.3999806"/>
      <trkpt lat="-9.0602466" lon="148.4001560"/>
      <trkpt lat="-9.0602770" lon="148.4003288"/>
      <trkpt lat="-9.0603134" lon="148.4004982"/>
      <trkpt lat="-9.0603767" lon="148.4006577"/>
      <trkpt lat="-9.0604388" lon="148.4008105"/>
      <trkpt lat="-9.0605064" lon="148.4009630"/>
      <trkpt lat="-9.0605812" lon="148.4011154"/>
      <trkpt lat="-9.0606735" lon="148.4012706"/>
      <trkpt lat="-9.0607605" lon="148.4014284"/>
      <trkpt lat="-9.0608615" lon="148.4015557"/>
      <trkpt lat="-9.0609824" lon="148.4015976"/>
      <trkpt lat="-9.0611381" lon="148.4015674"/>
      <trkpt lat="-9.0613041" lon="148.4015110"/>
      <trkpt lat="-9.0614501" lon="148.4014359"/>
      <trkpt lat="-9.0615936" lon="148.4013599"/>
      <trkpt lat="-9.0617351" lon="148.4013035"/>
      <trkpt lat="-9.0618851" lon="148.4013436"/>
      <trkpt lat="-9.0619565" lon="148.4014403"/>
      <trkpt lat="-9.0619132" lon="148.4015116"/>
      <trkpt lat="-9.0617774" lon="148.4015130"/>
      <trkpt lat="-9.0616101" lon="148.4014897"/>
      <trkpt lat="-9.0614424" lon="148.4014741"/>
      <trkpt lat="-9.0612747" lon="148.4015060"/>
      <trkpt lat="-9.0611131" lon="148.4015585"/>
      <trkpt lat="-9.0609534" lon="148.4016339"/>
      <trkpt lat="-9.0607907" lon="148.4017040"/>
      <trkpt lat="-9.0606246" lon="148.4017694"/>
      <trkpt lat="-9.0604636" lon="148.4018472"/>
      <trkpt lat="-9.0603140" lon="148.4019461"/>
      <trkpt lat="-9.0601687" lon="148.4020503"/>
      <trkpt lat="-9.0600201" lon="148.4021436"/>
      <trkpt lat="-9.0598598" lon="148.4022077"/>
      <trkpt lat="-9.0596905" lon="148.4022546"/>
      <trkpt lat="-9.0595292" lon="148.4023202"/>
      <trkpt lat="-9.0593747" lon="148.4024071"/>
      <trkpt lat="-9.0592254" lon="148.4025053"/>
      <trkpt lat="-9.0590763" lon="148.4026040"/>
      <trkpt lat="-9.0589256" lon="148.4026994"/>
      <trkpt lat="-9.0587762" lon="148.4027960"/>
      <trkpt lat="-9.0586259" lon="148.4028911"/>
      <trkpt lat="-9.0585037" lon="148.4030108"/>
      <trkpt lat="-9.0584230" lon="148.4031583"/>
      <trkpt lat="-9.0583668" lon="148.4033247"/>
      <trkpt lat="-9.0583065" lon="148.4034841"/>
      <trkpt lat="-9.0582369" lon="148.4036410"/>
      <trkpt lat="-9.0581433" lon="148.4037785"/>
      <trkpt lat="-9.0580360" lon="148.4039132"/>
      <trkpt lat="-9.0579282" lon="148.4040470"/>
      <trkpt lat="-9.0578549" lon="148.4041967"/>
      <trkpt lat="-9.0577818" lon="148.4043403"/>
      <trkpt lat="-9.0577170" lon="148.4044862"/>
      <trkpt lat="-9.0576342" lon="148.4046322"/>
      <trkpt lat="-9.0575635" lon="148.4047938"/>
      <trkpt lat="-9.0574462" lon="148.4049158"/>
      <trkpt lat="-9.0572991" lon="148.4049879"/>
      <trkpt lat="-9.0571246" lon="148.4050265"/>
      <trkpt lat="-9.0569479" lon="148.4050529"/>
      <trkpt lat="-9.0567713" lon="148.4050758"/>
      <trkpt lat="-9.0565955" lon="148.4050982"/>
      <trkpt lat="-9.0564228" lon="148.4051352"/>
      <trkpt lat="-9.0562573" lon="148.4052023"/>
      <trkpt lat="-9.0560957" lon="148.4052810"/>
      <trkpt lat="-9.0559381" lon="148.4053689"/>
      <trkpt lat="-9.0557853" lon="148.4054639"/>
      <trkpt lat="-9.0556306" lon="148.4055555"/>
      <trkpt lat="-9.0554801" lon="148.4056532"/>
      <trkpt lat="-9.0553261" lon="148.4057456"/>
      <trkpt lat="-9.0551793" lon="148.4058486"/>
      <trkpt lat="-9.0550351" lon="148.4059549"/>
      <trkpt lat="-9.0548991" lon="148.4060670"/>
      <trkpt lat="-9.0547591" lon="148.4061721"/>
      <trkpt lat="-9.0546236" lon="148.4062735"/>
      <trkpt lat="-9.0545057" lon="148.4063921"/>
      <trkpt lat="-9.0544245" lon="148.4065386"/>
      <trkpt lat="-9.0544154" lon="148.4066953"/>
      <trkpt lat="-9.0544809" lon="148.4068322"/>
      <trkpt lat="-9.0546117" lon="148.4069298"/>
      <trkpt lat="-9.0547511" lon="148.4070214"/>
      <trkpt lat="-9.0549010" lon="148.4070749"/>
      <trkpt lat="-9.0550595" lon="148.4071154"/>
      <trkpt lat="-9.0552353" lon="148.4071323"/>
      <trkpt lat="-9.0553862" lon="148.4071980"/>
      <trkpt lat="-9.0554856" lon="148.4073163"/>
      <trkpt lat="-9.0555695" lon="148.4074604"/>
      <trkpt lat="-9.0556218" lon="148.4076078"/>
      <trkpt lat="-9.0557204" lon="148.4077188"/>
      <trkpt lat="-9.0558169" lon="148.4078188"/>
      <trkpt lat="-9.0559537" lon="148.4078869"/>
      <trkpt lat="-9.0560759" lon="148.4079499"/>
      <trkpt lat="-9.0561653" lon="148.4079747"/>
      <trkpt lat="-9.0562446" lon="148.4080237"/>
      <trkpt lat="-9.0563413" lon="148.4080630"/>
      <trkpt lat="-9.0564487" lon="148.4081466"/>
      <trkpt lat="-9.0565509" lon="148.4082431"/>
      <trkpt lat="-9.0566145" lon="148.4083907"/>
      <trkpt lat="-9.0566627" lon="148.4085611"/>
      <trkpt lat="-9.0567035" lon="148.4087142"/>
      <trkpt lat="-9.0567329" lon="148.4088461"/>
      <trkpt lat="-9.0567725" lon="148.4089760"/>
      <trkpt lat="-9.0567873" lon="148.4091299"/>
      <trkpt lat="-9.0568187" lon="148.4093036"/>
      <trkpt lat="-9.0568650" lon="148.4094690"/>
      <trkpt lat="-9.0569523" lon="148.4096224"/>
      <trkpt lat="-9.0569849" lon="148.4097505"/>
      <trkpt lat="-9.0570350" lon="148.4098644"/>
      <trkpt lat="-9.0570753" lon="148.4099796"/>
      <trkpt lat="-9.0571159" lon="148.4100797"/>
      <trkpt lat="-9.0570960" lon="148.4102017"/>
      <trkpt lat="-9.0570248" lon="148.4103225"/>
      <trkpt lat="-9.0569718" lon="148.4104842"/>
      <trkpt lat="-9.0569157" lon="148.4106282"/>
      <trkpt lat="-9.0568646" lon="148.4107564"/>
      <trkpt lat="-9.0567898" lon="148.4108323"/>
      <trkpt lat="-9.0566811" lon="148.4108959"/>
      <trkpt lat="-9.0565495" lon="148.4109685"/>
      <trkpt lat="-9.0564297" lon="148.4110813"/>
      <trkpt lat="-9.0563106" lon="148.4111948"/>
      <trkpt lat="-9.0562207" lon="148.4113240"/>
      <trkpt lat="-9.0561141" lon="148.4114481"/>
      <trkpt lat="-9.0560254" lon="148.4115634"/>
      <trkpt lat="-9.0559308" lon="148.4116629"/>
      <trkpt lat="-9.0558662" lon="148.4117766"/>
      <trkpt lat="-9.0558425" lon="148.4118707"/>
      <trkpt lat="-9.0558536" lon="148.4119816"/>
      <trkpt lat="-9.0558654" lon="148.4120987"/>
      <trkpt lat="-9.0558614" lon="148.4122260"/>
      <trkpt lat="-9.0557952" lon="148.4123174"/>
      <trkpt lat="-9.0557242" lon="148.4123572"/>
      <trkpt lat="-9.0556452" lon="148.4124250"/>
      <trkpt lat="-9.0555543" lon="148.4124835"/>
      <trkpt lat="-9.0554470" lon="148.4125828"/>
      <trkpt lat="-9.0553327" lon="148.4126972"/>
      <trkpt lat="-9.0552314" lon="148.4128022"/>
      <trkpt lat="-9.0551530" lon="148.4128995"/>
      <trkpt lat="-9.0550788" lon="148.4129524"/>
      <trkpt lat="-9.0550188" lon="148.4129648"/>
      <trkpt lat="-9.0549487" lon="148.4129551"/>
      <trkpt lat="-9.0548715" lon="148.4129105"/>
      <trkpt lat="-9.0548254" lon="148.4129360"/>
      <trkpt lat="-9.0547574" lon="148.4129545"/>
      <trkpt lat="-9.0547102" lon="148.4130174"/>
      <trkpt lat="-9.0546281" lon="148.4130666"/>
      <trkpt lat="-9.0545517" lon="148.4131386"/>
      <trkpt lat="-9.0544480" lon="148.4132246"/>
      <trkpt lat="-9.0543932" lon="148.4133149"/>
      <trkpt lat="-9.0543627" lon="148.4134115"/>
      <trkpt lat="-9.0543398" lon="148.4134479"/>
      <trkpt lat="-9.0542807" lon="148.4134712"/>
      <trkpt lat="-9.0541901" lon="148.4134911"/>
      <trkpt lat="-9.0540818" lon="148.4135509"/>
      <trkpt lat="-9.0539655" lon="148.4135625"/>
      <trkpt lat="-9.0539125" lon="148.4135630"/>
      <trkpt lat="-9.0539431" lon="148.4135853"/>
      <trkpt lat="-9.0539473" lon="148.4136405"/>
      <trkpt lat="-9.0538835" lon="148.4136890"/>
      <trkpt lat="-9.0538112" lon="148.4137352"/>
      <trkpt lat="-9.0537671" lon="148.4137728"/>
      <trkpt lat="-9.0537629" lon="148.4138313"/>
      <trkpt lat="-9.0537136" lon="148.4138923"/>
      <trkpt lat="-9.0536572" lon="148.4140156"/>
      <trkpt lat="-9.0535891" lon="148.4141509"/>
      <trkpt lat="-9.0535283" lon="148.4143129"/>
      <trkpt lat="-9.0534897" lon="148.4144483"/>
      <trkpt lat="-9.0534423" lon="148.4145596"/>
      <trkpt lat="-9.0533731" lon="148.4146451"/>
      <trkpt lat="-9.0532902" lon="148.4147351"/>
      <trkpt lat="-9.0532753" lon="148.4148379"/>
      <trkpt lat="-9.0533215" lon="148.4149566"/>
      <trkpt lat="-9.0534313" lon="148.4150933"/>
      <trkpt lat="-9.0535222" lon="148.4152417"/>
      <trkpt lat="-9.0536113" lon="148.4153912"/>
      <trkpt lat="-9.0536970" lon="148.4155460"/>
      <trkpt lat="-9.0537860" lon="148.4157016"/>
      <trkpt lat="-9.0538636" lon="148.4158619"/>
      <trkpt lat="-9.0539327" lon="148.4160248"/>
      <trkpt lat="-9.0539908" lon="148.4161895"/>
      <trkpt lat="-9.0540482" lon="148.4163518"/>
      <trkpt lat="-9.0540845" lon="148.4165196"/>
      <trkpt lat="-9.0540787" lon="148.4166841"/>
      <trkpt lat="-9.0540440" lon="148.4168543"/>
      <trkpt lat="-9.0540223" lon="148.4170242"/>
      <trkpt lat="-9.0540323" lon="148.4171996"/>
      <trkpt lat="-9.0540544" lon="148.4173751"/>
      <trkpt lat="-9.0540913" lon="148.4175396"/>
      <trkpt lat="-9.0541599" lon="148.4176651"/>
      <trkpt lat="-9.0542518" lon="148.4177758"/>
      <trkpt lat="-9.0543351" lon="148.4178912"/>
      <trkpt lat="-9.0543855" lon="148.4180359"/>
      <trkpt lat="-9.0544198" lon="148.4181934"/>
      <trkpt lat="-9.0544360" lon="148.4183566"/>
      <trkpt lat="-9.0544475" lon="148.4185190"/>
      <trkpt lat="-9.0544426" lon="148.4186782"/>
      <trkpt lat="-9.0544464" lon="148.4188374"/>
      <trkpt lat="-9.0544514" lon="148.4190090"/>
      <trkpt lat="-9.0544391" lon="148.4191806"/>
      <trkpt lat="-9.0544052" lon="148.4193522"/>
      <trkpt lat="-9.0543574" lon="148.4195211"/>
      <trkpt lat="-9.0543420" lon="148.4196929"/>
      <trkpt lat="-9.0543250" lon="148.4198651"/>
      <trkpt lat="-9.0543503" lon="148.4200305"/>
      <trkpt lat="-9.0544111" lon="148.4201798"/>
      <trkpt lat="-9.0544855" lon="148.4203226"/>
      <trkpt lat="-9.0545697" lon="148.4204634"/>
      <trkpt lat="-9.0546387" lon="148.4206156"/>
      <trkpt lat="-9.0547267" lon="148.4207680"/>
      <trkpt lat="-9.0547695" lon="148.4209318"/>
      <trkpt lat="-9.0547754" lon="148.4210995"/>
      <trkpt lat="-9.0547605" lon="148.4212697"/>
      <trkpt lat="-9.0547111" lon="148.4214052"/>
      <trkpt lat="-9.0546536" lon="148.4214871"/>
      <trkpt lat="-9.0545874" lon="148.4215634"/>
      <trkpt lat="-9.0545186" lon="148.4216474"/>
      <trkpt lat="-9.0544653" lon="148.4217892"/>
      <trkpt lat="-9.0544483" lon="148.4218978"/>
      <trkpt lat="-9.0544749" lon="148.4219907"/>
      <trkpt lat="-9.0545111" lon="148.4219942"/>
      <trkpt lat="-9.0545267" lon="148.4219535"/>
    </trkseg>
    <trkseg>
      <trkpt lat="-9.0535536" lon="148.4214435"/>
      <trkpt lat="-9.0534752" lon="148.4216071"/>
      <trkpt lat="-9.0534186" lon="148.4217332"/>
      <trkpt lat="-9.0533838" lon="148.4218220"/>
    </trkseg>
    <trkseg>
      <trkpt lat="-9.0534814" lon="148.4211632"/>
      <trkpt lat="-9.0533650" lon="148.4210240"/>
      <trkpt lat="-9.0532486" lon="148.4208848"/>
      <trkpt lat="-9.0531321" lon="148.4207455"/>
      <trkpt lat="-9.0530293" lon="148.4206096"/>
      <trkpt lat="-9.0529401" lon="148.4204770"/>
    </trkseg>
    <trkseg>
      <trkpt lat="-9.0476835" lon="148.4224085"/>
      <trkpt lat="-9.0475852" lon="148.4225612"/>
      <trkpt lat="-9.0474869" lon="148.4227139"/>
      <trkpt lat="-9.0473885" lon="148.4228666"/>
      <trkpt lat="-9.0472902" lon="148.4230193"/>
      <trkpt lat="-9.0471919" lon="148.4231720"/>
      <trkpt lat="-9.0470936" lon="148.4233247"/>
      <trkpt lat="-9.0469953" lon="148.4234774"/>
      <trkpt lat="-9.0468970" lon="148.4236301"/>
      <trkpt lat="-9.0467986" lon="148.4237828"/>
      <trkpt lat="-9.0467003" lon="148.4239355"/>
      <trkpt lat="-9.0466020" lon="148.4240881"/>
      <trkpt lat="-9.0465037" lon="148.4242408"/>
      <trkpt lat="-9.0464054" lon="148.4243935"/>
      <trkpt lat="-9.0463071" lon="148.4245462"/>
      <trkpt lat="-9.0462087" lon="148.4246989"/>
      <trkpt lat="-9.0461104" lon="148.4248516"/>
      <trkpt lat="-9.0460121" lon="148.4250043"/>
      <trkpt lat="-9.0459138" lon="148.4251570"/>
      <trkpt lat="-9.0458155" lon="148.4253097"/>
      <trkpt lat="-9.0457171" lon="148.4254624"/>
      <trkpt lat="-9.0456188" lon="148.4256151"/>
      <trkpt lat="-9.0455205" lon="148.4257678"/>
      <trkpt lat="-9.0454222" lon="148.4259205"/>
      <trkpt lat="-9.0453239" lon="148.4260732"/>
      <trkpt lat="-9.0452256" lon="148.4262259"/>
      <trkpt lat="-9.0451272" lon="148.4263786"/>
      <trkpt lat="-9.0450289" lon="148.4265312"/>
      <trkpt lat="-9.0449306" lon="148.4266839"/>
      <trkpt lat="-9.0448449" lon="148.4268170"/>
      <trkpt lat="-9.0447719" lon="148.4269304"/>
    </trkseg>
    <trkseg>
      <trkpt lat="-9.0482003" lon="148.4211316"/>
      <trkpt lat="-9.0480981" lon="148.4212817"/>
      <trkpt lat="-9.0479960" lon="148.4214318"/>
      <trkpt lat="-9.0478938" lon="148.4215819"/>
      <trkpt lat="-9.0477916" lon="148.4217321"/>
      <trkpt lat="-9.0476895" lon="148.4218822"/>
      <trkpt lat="-9.0475873" lon="148.4220323"/>
      <trkpt lat="-9.0474851" lon="148.4221824"/>
      <trkpt lat="-9.0473830" lon="148.4223325"/>
      <trkpt lat="-9.0472808" lon="148.4224826"/>
      <trkpt lat="-9.0471786" lon="148.4226328"/>
      <trkpt lat="-9.0470803" lon="148.4227765"/>
      <trkpt lat="-9.0470440" lon="148.4228164"/>
      <trkpt lat="-9.0470696" lon="148.4227525"/>
      <trkpt lat="-9.0471535" lon="148.4225913"/>
      <trkpt lat="-9.0472373" lon="148.4224301"/>
      <trkpt lat="-9.0473211" lon="148.4222689"/>
      <trkpt lat="-9.0474050" lon="148.4221077"/>
      <trkpt lat="-9.0474888" lon="148.4219465"/>
      <trkpt lat="-9.0475726" lon="148.4217853"/>
      <trkpt lat="-9.0476565" lon="148.4216241"/>
      <trkpt lat="-9.0477175" lon="148.4215050"/>
      <trkpt lat="-9.0477209" lon="148.4214924"/>
      <trkpt lat="-9.0476667" lon="148.4215863"/>
      <trkpt lat="-9.0475776" lon="148.4217446"/>
      <trkpt lat="-9.0474885" lon="148.4219029"/>
      <trkpt lat="-9.0473994" lon="148.4220612"/>
      <trkpt lat="-9.0473103" lon="148.4222195"/>
      <trkpt lat="-9.0472212" lon="148.4223779"/>
      <trkpt lat="-9.0471372" lon="148.4225269"/>
      <trkpt lat="-9.0471119" lon="148.4225700"/>
      <trkpt lat="-9.0471451" lon="148.4225072"/>
      <trkpt lat="-9.0472319" lon="148.4223475"/>
      <trkpt lat="-9.0473186" lon="148.4221879"/>
      <trkpt lat="-9.0474054" lon="148.4220283"/>
      <trkpt lat="-9.0474921" lon="148.4218686"/>
      <trkpt lat="-9.0475789" lon="148.4217090"/>
      <trkpt lat="-9.0476170" lon="148.4215813"/>
      <trkpt lat="-9.0476490" lon="148.4214506"/>
      <trkpt lat="-9.0476748" lon="148.4213169"/>
      <trkpt lat="-9.0477611" lon="148.4211693"/>
      <trkpt lat="-9.0478570" lon="148.4210761"/>
      <trkpt lat="-9.0479627" lon="148.4210372"/>
    </trkseg>
    <trkseg>
      <trkpt lat="-9.0474714" lon="148.4209569"/>
      <trkpt lat="-9.0473720" lon="148.4210779"/>
      <trkpt lat="-9.0472356" lon="148.4211566"/>
      <trkpt lat="-9.0470672" lon="148.4211854"/>
      <trkpt lat="-9.0469175" lon="148.4212229"/>
      <trkpt lat="-9.0467702" lon="148.4212641"/>
      <trkpt lat="-9.0466274" lon="148.4213287"/>
      <trkpt lat="-9.0464683" lon="148.4213893"/>
      <trkpt lat="-9.0463081" lon="148.4214363"/>
      <trkpt lat="-9.0461404" lon="148.4214744"/>
      <trkpt lat="-9.0459660" lon="148.4214929"/>
      <trkpt lat="-9.0458254" lon="148.4215383"/>
      <trkpt lat="-9.0457116" lon="148.4216159"/>
      <trkpt lat="-9.0456170" lon="148.4217391"/>
      <trkpt lat="-9.0455164" lon="148.4218863"/>
      <trkpt lat="-9.0453960" lon="148.4219989"/>
      <trkpt lat="-9.0452586" lon="148.4220825"/>
      <trkpt lat="-9.0450944" lon="148.4221325"/>
      <trkpt lat="-9.0449216" lon="148.4221787"/>
      <trkpt lat="-9.0448350" lon="148.4222637"/>
      <trkpt lat="-9.0447596" lon="148.4223201"/>
      <trkpt lat="-9.0447425" lon="148.4223615"/>
      <trkpt lat="-9.0446455" lon="148.4223779"/>
      <trkpt lat="-9.0445461" lon="148.4224396"/>
      <trkpt lat="-9.0443988" lon="148.4225400"/>
      <trkpt lat="-9.0442616" lon="148.4226485"/>
      <trkpt lat="-9.0441141" lon="148.4227276"/>
      <trkpt lat="-9.0439636" lon="148.4228029"/>
      <trkpt lat="-9.0438269" lon="148.4228919"/>
      <trkpt lat="-9.0437149" lon="148.4230241"/>
      <trkpt lat="-9.0436211" lon="148.4231752"/>
      <trkpt lat="-9.0435761" lon="148.4233135"/>
      <trkpt lat="-9.0435386" lon="148.4234487"/>
      <trkpt lat="-9.0434953" lon="148.4235797"/>
      <trkpt lat="-9.0434010" lon="148.4237254"/>
      <trkpt lat="-9.0432979" lon="148.4238740"/>
      <trkpt lat="-9.0432072" lon="148.4239946"/>
      <trkpt lat="-9.0431445" lon="148.4240034"/>
      <trkpt lat="-9.0430895" lon="148.4239094"/>
      <trkpt lat="-9.0430278" lon="148.4237459"/>
      <trkpt lat="-9.0429306" lon="148.4235954"/>
      <trkpt lat="-9.0428374" lon="148.4234477"/>
      <trkpt lat="-9.0427300" lon="148.4233154"/>
      <trkpt lat="-9.0426226" lon="148.4231836"/>
      <trkpt lat="-9.0424908" lon="148.4230653"/>
      <trkpt lat="-9.0423616" lon="148.4229414"/>
      <trkpt lat="-9.0422246" lon="148.4228234"/>
      <trkpt lat="-9.0420942" lon="148.4227018"/>
      <trkpt lat="-9.0419867" lon="148.4225661"/>
      <trkpt lat="-9.0419187" lon="148.4224109"/>
      <trkpt lat="-9.0418763" lon="148.4222382"/>
      <trkpt lat="-9.0418396" lon="148.4220631"/>
      <trkpt lat="-9.0418219" lon="148.4218890"/>
      <trkpt lat="-9.0418330" lon="148.4217142"/>
      <trkpt lat="-9.0418577" lon="148.4215366"/>
      <trkpt lat="-9.0418791" lon="148.4213586"/>
      <trkpt lat="-9.0419117" lon="148.4211858"/>
      <trkpt lat="-9.0419565" lon="148.4210132"/>
      <trkpt lat="-9.0420402" lon="148.4208740"/>
      <trkpt lat="-9.0421388" lon="148.4207457"/>
      <trkpt lat="-9.0422559" lon="148.4206249"/>
      <trkpt lat="-9.0423507" lon="148.4204772"/>
      <trkpt lat="-9.0423937" lon="148.4203170"/>
      <trkpt lat="-9.0423852" lon="148.4201536"/>
      <trkpt lat="-9.0423132" lon="148.4200012"/>
      <trkpt lat="-9.0422275" lon="148.4198499"/>
      <trkpt lat="-9.0421580" lon="148.4196937"/>
      <trkpt lat="-9.0421217" lon="148.4195211"/>
      <trkpt lat="-9.0421012" lon="148.4193434"/>
      <trkpt lat="-9.0420764" lon="148.4191678"/>
      <trkpt lat="-9.0420799" lon="148.4189969"/>
      <trkpt lat="-9.0421146" lon="148.4188303"/>
      <trkpt lat="-9.0421837" lon="148.4186690"/>
      <trkpt lat="-9.0422393" lon="148.4185019"/>
      <trkpt lat="-9.0422502" lon="148.4183376"/>
      <trkpt lat="-9.0422200" lon="148.4181681"/>
      <trkpt lat="-9.0421661" lon="148.4180006"/>
      <trkpt lat="-9.0421508" lon="148.4178270"/>
      <trkpt lat="-9.0421746" lon="148.4176550"/>
      <trkpt lat="-9.0422480" lon="148.4174937"/>
      <trkpt lat="-9.0423223" lon="148.4173328"/>
      <trkpt lat="-9.0423786" lon="148.4171677"/>
      <trkpt lat="-9.0424112" lon="148.4169938"/>
      <trkpt lat="-9.0424392" lon="148.4168192"/>
      <trkpt lat="-9.0424725" lon="148.4166481"/>
      <trkpt lat="-9.0424752" lon="148.4164743"/>
      <trkpt lat="-9.0424540" lon="148.4163002"/>
      <trkpt lat="-9.0424484" lon="148.4161288"/>
      <trkpt lat="-9.0424950" lon="148.4159668"/>
      <trkpt lat="-9.0426054" lon="148.4158323"/>
      <trkpt lat="-9.0427242" lon="148.4157069"/>
      <trkpt lat="-9.0428368" lon="148.4155772"/>
      <trkpt lat="-9.0429280" lon="148.4154273"/>
      <trkpt lat="-9.0430244" lon="148.4152776"/>
      <trkpt lat="-9.0431198" lon="148.4151273"/>
      <trkpt lat="-9.0431977" lon="148.4149718"/>
      <trkpt lat="-9.0432489" lon="148.4148617"/>
      <trkpt lat="-9.0432734" lon="148.4147647"/>
      <trkpt lat="-9.0432335" lon="148.4146953"/>
      <trkpt lat="-9.0431354" lon="148.4145873"/>
      <trkpt lat="-9.0429960" lon="148.4144820"/>
      <trkpt lat="-9.0428977" lon="148.4143494"/>
      <trkpt lat="-9.0428079" lon="148.4142089"/>
      <trkpt lat="-9.0427303" lon="148.4140525"/>
      <trkpt lat="-9.0426413" lon="148.4138970"/>
      <trkpt lat="-9.0425465" lon="148.4137469"/>
      <trkpt lat="-9.0424340" lon="148.4136237"/>
      <trkpt lat="-9.0422884" lon="148.4135414"/>
      <trkpt lat="-9.0421290" lon="148.4134946"/>
      <trkpt lat="-9.0419569" lon="148.4134735"/>
      <trkpt lat="-9.0417813" lon="148.4134764"/>
      <trkpt lat="-9.0416060" lon="148.4134692"/>
      <trkpt lat="-9.0414317" lon="148.4134546"/>
      <trkpt lat="-9.0412610" lon="148.4134373"/>
      <trkpt lat="-9.0410993" lon="148.4134570"/>
      <trkpt lat="-9.0409418" lon="148.4134577"/>
      <trkpt lat="-9.0407821" lon="148.4134459"/>
      <trkpt lat="-9.0406287" lon="148.4133699"/>
      <trkpt lat="-9.0404801" lon="148.4132861"/>
      <trkpt lat="-9.0403398" lon="148.4131774"/>
      <trkpt lat="-9.0402001" lon="148.4130805"/>
      <trkpt lat="-9.0401020" lon="148.4129588"/>
      <trkpt lat="-9.0400371" lon="148.4128110"/>
      <trkpt lat="-9.0400108" lon="148.4126344"/>
      <trkpt lat="-9.0399730" lon="148.4124642"/>
      <trkpt lat="-9.0399038" lon="148.4123175"/>
      <trkpt lat="-9.0397805" lon="148.4122223"/>
      <trkpt lat="-9.0396168" lon="148.4121908"/>
      <trkpt lat="-9.0394518" lon="148.4121580"/>
      <trkpt lat="-9.0393231" lon="148.4120762"/>
      <trkpt lat="-9.0392325" lon="148.4119279"/>
    </trkseg>
    <trkseg>
      <trkpt lat="-9.0393394" lon="148.4117322"/>
      <trkpt lat="-9.0391885" lon="148.4118325"/>
      <trkpt lat="-9.0390655" lon="148.4119142"/>
    </trkseg>
    <trkseg>
      <trkpt lat="-9.0391345" lon="148.4118351"/>
      <trkpt lat="-9.0391750" lon="148.4117907"/>
      <trkpt lat="-9.0392342" lon="148.4116864"/>
      <trkpt lat="-9.0392732" lon="148.4115616"/>
      <trkpt lat="-9.0392322" lon="148.4115181"/>
      <trkpt lat="-9.0391136" lon="148.4115597"/>
      <trkpt lat="-9.0390300" lon="148.4116520"/>
      <trkpt lat="-9.0389695" lon="148.4117029"/>
      <trkpt lat="-9.0389047" lon="148.4117018"/>
      <trkpt lat="-9.0387801" lon="148.4116200"/>
      <trkpt lat="-9.0386466" lon="148.4115077"/>
      <trkpt lat="-9.0385311" lon="148.4113702"/>
      <trkpt lat="-9.0384265" lon="148.4112236"/>
      <trkpt lat="-9.0383384" lon="148.4110664"/>
      <trkpt lat="-9.0382615" lon="148.4109023"/>
      <trkpt lat="-9.0381887" lon="148.4107371"/>
      <trkpt lat="-9.0381041" lon="148.4105786"/>
      <trkpt lat="-9.0380081" lon="148.4104291"/>
      <trkpt lat="-9.0378921" lon="148.4102926"/>
      <trkpt lat="-9.0377836" lon="148.4101515"/>
      <trkpt lat="-9.0376877" lon="148.4100006"/>
      <trkpt lat="-9.0376031" lon="148.4098402"/>
      <trkpt lat="-9.0375070" lon="148.4096878"/>
      <trkpt lat="-9.0373957" lon="148.4095455"/>
      <trkpt lat="-9.0372725" lon="148.4094137"/>
      <trkpt lat="-9.0371305" lon="148.4093187"/>
      <trkpt lat="-9.0369730" lon="148.4092865"/>
      <trkpt lat="-9.0368002" lon="148.4092996"/>
      <trkpt lat="-9.0366360" lon="148.4092875"/>
      <trkpt lat="-9.0364750" lon="148.4092283"/>
      <trkpt lat="-9.0363164" lon="148.4091462"/>
      <trkpt lat="-9.0361576" lon="148.4090697"/>
      <trkpt lat="-9.0360060" lon="148.4089833"/>
      <trkpt lat="-9.0358717" lon="148.4088699"/>
      <trkpt lat="-9.0357434" lon="148.4087444"/>
      <trkpt lat="-9.0356195" lon="148.4086165"/>
      <trkpt lat="-9.0354892" lon="148.4085013"/>
      <trkpt lat="-9.0353481" lon="148.4084019"/>
      <trkpt lat="-9.0351932" lon="148.4083294"/>
      <trkpt lat="-9.0350274" lon="148.4082891"/>
      <trkpt lat="-9.0348591" lon="148.4082696"/>
      <trkpt lat="-9.0346890" lon="148.4082468"/>
      <trkpt lat="-9.0345245" lon="148.4081954"/>
      <trkpt lat="-9.0343642" lon="148.4081203"/>
      <trkpt lat="-9.0342061" lon="148.4080423"/>
      <trkpt lat="-9.0340590" lon="148.4079582"/>
      <trkpt lat="-9.0339052" lon="148.4079042"/>
      <trkpt lat="-9.0337513" lon="148.4078476"/>
      <trkpt lat="-9.0336239" lon="148.4078218"/>
      <trkpt lat="-9.0335436" lon="148.4077890"/>
    </trkseg>
    <trkseg>
      <trkpt lat="-9.0333722" lon="148.4077340"/>
      <trkpt lat="-9.0332205" lon="148.4078218"/>
      <trkpt lat="-9.0330768" lon="148.4079237"/>
      <trkpt lat="-9.0329289" lon="148.4080177"/>
      <trkpt lat="-9.0327826" lon="148.4081166"/>
      <trkpt lat="-9.0326347" lon="148.4082138"/>
      <trkpt lat="-9.0325089" lon="148.4083391"/>
      <trkpt lat="-9.0324242" lon="148.4084893"/>
      <trkpt lat="-9.0323391" lon="148.4086326"/>
      <trkpt lat="-9.0322414" lon="148.4087648"/>
      <trkpt lat="-9.0320944" lon="148.4088536"/>
      <trkpt lat="-9.0319381" lon="148.4089297"/>
      <trkpt lat="-9.0317742" lon="148.4089962"/>
      <trkpt lat="-9.0316100" lon="148.4090638"/>
      <trkpt lat="-9.0314417" lon="148.4091231"/>
      <trkpt lat="-9.0312922" lon="148.4091873"/>
      <trkpt lat="-9.0311437" lon="148.4092143"/>
      <trkpt lat="-9.0310048" lon="148.4092516"/>
      <trkpt lat="-9.0308434" lon="148.4092690"/>
      <trkpt lat="-9.0307544" lon="148.4092740"/>
      <trkpt lat="-9.0306743" lon="148.4092106"/>
      <trkpt lat="-9.0305950" lon="148.4091287"/>
      <trkpt lat="-9.0304601" lon="148.4091154"/>
      <trkpt lat="-9.0303071" lon="148.4091580"/>
      <trkpt lat="-9.0301514" lon="148.4092053"/>
      <trkpt lat="-9.0299788" lon="148.4092053"/>
      <trkpt lat="-9.0298296" lon="148.4091670"/>
      <trkpt lat="-9.0297047" lon="148.4090797"/>
      <trkpt lat="-9.0296042" lon="148.4089520"/>
      <trkpt lat="-9.0294991" lon="148.4088064"/>
      <trkpt lat="-9.0293872" lon="148.4086731"/>
      <trkpt lat="-9.0292615" lon="148.4085592"/>
      <trkpt lat="-9.0291182" lon="148.4084786"/>
      <trkpt lat="-9.0289652" lon="148.4084068"/>
      <trkpt lat="-9.0288184" lon="148.4083229"/>
      <trkpt lat="-9.0287003" lon="148.4081970"/>
      <trkpt lat="-9.0286185" lon="148.4080428"/>
      <trkpt lat="-9.0285825" lon="148.4078751"/>
      <trkpt lat="-9.0285586" lon="148.4077049"/>
      <trkpt lat="-9.0285286" lon="148.4075350"/>
      <trkpt lat="-9.0284919" lon="148.4073624"/>
      <trkpt lat="-9.0284929" lon="148.4071907"/>
      <trkpt lat="-9.0284997" lon="148.4070173"/>
      <trkpt lat="-9.0285096" lon="148.4068440"/>
      <trkpt lat="-9.0284571" lon="148.4066838"/>
      <trkpt lat="-9.0283899" lon="148.4065302"/>
      <trkpt lat="-9.0282717" lon="148.4064028"/>
      <trkpt lat="-9.0281477" lon="148.4062813"/>
      <trkpt lat="-9.0279985" lon="148.4061958"/>
      <trkpt lat="-9.0278449" lon="148.4061160"/>
      <trkpt lat="-9.0276849" lon="148.4060418"/>
      <trkpt lat="-9.0275384" lon="148.4059398"/>
      <trkpt lat="-9.0274311" lon="148.4058091"/>
      <trkpt lat="-9.0273774" lon="148.4056485"/>
      <trkpt lat="-9.0273927" lon="148.4055185"/>
      <trkpt lat="-9.0274461" lon="148.4054178"/>
      <trkpt lat="-9.0275222" lon="148.4053495"/>
    </trkseg>
    <trkseg>
      <trkpt lat="-9.0274803" lon="148.4052648"/>
      <trkpt lat="-9.0276009" lon="148.4051402"/>
      <trkpt lat="-9.0277133" lon="148.4050106"/>
      <trkpt lat="-9.0278252" lon="148.4048825"/>
      <trkpt lat="-9.0279217" lon="148.4047375"/>
      <trkpt lat="-9.0280071" lon="148.4045876"/>
      <trkpt lat="-9.0280593" lon="148.4044228"/>
      <trkpt lat="-9.0281040" lon="148.4042563"/>
      <trkpt lat="-9.0281573" lon="148.4040928"/>
      <trkpt lat="-9.0282173" lon="148.4039269"/>
      <trkpt lat="-9.0282772" lon="148.4037597"/>
      <trkpt lat="-9.0283390" lon="148.4036398"/>
      <trkpt lat="-9.0284404" lon="148.4035539"/>
      <trkpt lat="-9.0285542" lon="148.4034977"/>
      <trkpt lat="-9.0286316" lon="148.4034625"/>
      <trkpt lat="-9.0286498" lon="148.4034540"/>
      <trkpt lat="-9.0286900" lon="148.4034727"/>
      <trkpt lat="-9.0287884" lon="148.4034508"/>
      <trkpt lat="-9.0289260" lon="148.4033946"/>
      <trkpt lat="-9.0290600" lon="148.4033353"/>
      <trkpt lat="-9.0291497" lon="148.4032481"/>
      <trkpt lat="-9.0292427" lon="148.4031525"/>
      <trkpt lat="-9.0292495" lon="148.4030202"/>
      <trkpt lat="-9.0292718" lon="148.4028840"/>
      <trkpt lat="-9.0292707" lon="148.4027296"/>
      <trkpt lat="-9.0292981" lon="148.4025604"/>
      <trkpt lat="-9.0293299" lon="148.4023978"/>
      <trkpt lat="-9.0293565" lon="148.4022339"/>
      <trkpt lat="-9.0294204" lon="148.4020711"/>
      <trkpt lat="-9.0294729" lon="148.4018992"/>
      <trkpt lat="-9.0295225" lon="148.4017296"/>
      <trkpt lat="-9.0295746" lon="148.4015624"/>
      <trkpt lat="-9.0296121" lon="148.4013947"/>
      <trkpt lat="-9.0296352" lon="148.4012450"/>
      <trkpt lat="-9.0296415" lon="148.4010934"/>
      <trkpt lat="-9.0296219" lon="148.4009430"/>
      <trkpt lat="-9.0296146" lon="148.4007763"/>
      <trkpt lat="-9.0295550" lon="148.4006255"/>
      <trkpt lat="-9.0294875" lon="148.4004832"/>
      <trkpt lat="-9.0293939" lon="148.4003424"/>
      <trkpt lat="-9.0293502" lon="148.4001809"/>
      <trkpt lat="-9.0293454" lon="148.4000074"/>
      <trkpt lat="-9.0293587" lon="148.3998302"/>
      <trkpt lat="-9.0293571" lon="148.3996574"/>
      <trkpt lat="-9.0293421" lon="148.3994843"/>
      <trkpt lat="-9.0293078" lon="148.3993130"/>
      <trkpt lat="-9.0292624" lon="148.3991398"/>
      <trkpt lat="-9.0292323" lon="148.3989730"/>
      <trkpt lat="-9.0292288" lon="148.3988025"/>
      <trkpt lat="-9.0292521" lon="148.3986289"/>
      <trkpt lat="-9.0292555" lon="148.3984534"/>
      <trkpt lat="-9.0292881" lon="148.3982890"/>
      <trkpt lat="-9.0293319" lon="148.3981274"/>
      <trkpt lat="-9.0293789" lon="148.3979618"/>
      <trkpt lat="-9.0294043" lon="148.3977861"/>
      <trkpt lat="-9.0294426" lon="148.3976159"/>
      <trkpt lat="-9.0295145" lon="148.3974524"/>
      <trkpt lat="-9.0296150" lon="148.3973033"/>
      <trkpt lat="-9.0297227" lon="148.3971732"/>
      <trkpt lat="-9.0298053" lon="148.3970827"/>
      <trkpt lat="-9.0299073" lon="148.3970400"/>
      <trkpt lat="-9.0300246" lon="148.3970104"/>
      <trkpt lat="-9.0301894" lon="148.3969686"/>
      <trkpt lat="-9.0303517" lon="148.3969061"/>
      <trkpt lat="-9.0305144" lon="148.3968365"/>
      <trkpt lat="-9.0306731" lon="148.3967548"/>
      <trkpt lat="-9.0308270" lon="148.3966618"/>
      <trkpt lat="-9.0309796" lon="148.3965679"/>
      <trkpt lat="-9.0311334" lon="148.3964753"/>
      <trkpt lat="-9.0312851" lon="148.3963789"/>
      <trkpt lat="-9.0314392" lon="148.3962866"/>
      <trkpt lat="-9.0316020" lon="148.3962245"/>
      <trkpt lat="-9.0317722" lon="148.3961944"/>
      <trkpt lat="-9.0319447" lon="148.3962043"/>
      <trkpt lat="-9.0321131" lon="148.3962490"/>
      <trkpt lat="-9.0322571" lon="148.3963368"/>
      <trkpt lat="-9.0323947" lon="148.3964403"/>
      <trkpt lat="-9.0325195" lon="148.3965568"/>
      <trkpt lat="-9.0326660" lon="148.3966546"/>
      <trkpt lat="-9.0328193" lon="148.3967377"/>
      <trkpt lat="-9.0329924" lon="148.3967785"/>
      <trkpt lat="-9.0331698" lon="148.3967915"/>
      <trkpt lat="-9.0333432" lon="148.3968117"/>
      <trkpt lat="-9.0335064" lon="148.3968263"/>
      <trkpt lat="-9.0336576" lon="148.3968818"/>
      <trkpt lat="-9.0338103" lon="148.3969343"/>
      <trkpt lat="-9.0339733" lon="148.3969949"/>
      <trkpt lat="-9.0341479" lon="148.3970174"/>
      <trkpt lat="-9.0343213" lon="148.3970011"/>
      <trkpt lat="-9.0344935" lon="148.3969838"/>
      <trkpt lat="-9.0346526" lon="148.3969327"/>
      <trkpt lat="-9.0348086" lon="148.3968941"/>
      <trkpt lat="-9.0349617" lon="148.3968421"/>
      <trkpt lat="-9.0351222" lon="148.3967988"/>
      <trkpt lat="-9.0352419" lon="148.3967659"/>
      <trkpt lat="-9.0353193" lon="148.3967013"/>
      <trkpt lat="-9.0353705" lon="148.3966100"/>
      <trkpt lat="-9.0354264" lon="148.3964558"/>
      <trkpt lat="-9.0355113" lon="148.3963039"/>
      <trkpt lat="-9.0355946" lon="148.3961519"/>
      <trkpt lat="-9.0356805" lon="148.3960006"/>
      <trkpt lat="-9.0357540" lon="148.3958389"/>
      <trkpt lat="-9.0358319" lon="148.3956780"/>
      <trkpt lat="-9.0359204" lon="148.3955201"/>
      <trkpt lat="-9.0359983" lon="148.3953568"/>
      <trkpt lat="-9.0360755" lon="148.3951934"/>
      <trkpt lat="-9.0361536" lon="148.3950323"/>
      <trkpt lat="-9.0362305" lon="148.3948715"/>
      <trkpt lat="-9.0363112" lon="148.3947134"/>
      <trkpt lat="-9.0364133" lon="148.3945737"/>
      <trkpt lat="-9.0365428" lon="148.3944519"/>
      <trkpt lat="-9.0366815" lon="148.3943375"/>
      <trkpt lat="-9.0368194" lon="148.3942281"/>
      <trkpt lat="-9.0369701" lon="148.3941675"/>
      <trkpt lat="-9.0371371" lon="148.3941410"/>
      <trkpt lat="-9.0373123" lon="148.3941585"/>
      <trkpt lat="-9.0374859" lon="148.3941473"/>
      <trkpt lat="-9.0376581" lon="148.3941610"/>
      <trkpt lat="-9.0378305" lon="148.3941509"/>
      <trkpt lat="-9.0379947" lon="148.3941260"/>
      <trkpt lat="-9.0381566" lon="148.3940616"/>
      <trkpt lat="-9.0383073" lon="148.3940138"/>
      <trkpt lat="-9.0384384" lon="148.3939534"/>
      <trkpt lat="-9.0385600" lon="148.3938985"/>
      <trkpt lat="-9.0386760" lon="148.3937918"/>
      <trkpt lat="-9.0388177" lon="148.3937238"/>
      <trkpt lat="-9.0389723" lon="148.3936666"/>
      <trkpt lat="-9.0391363" lon="148.3936219"/>
      <trkpt lat="-9.0392923" lon="148.3935514"/>
      <trkpt lat="-9.0394422" lon="148.3934798"/>
      <trkpt lat="-9.0396019" lon="148.3934405"/>
      <trkpt lat="-9.0397744" lon="148.3934428"/>
      <trkpt lat="-9.0399509" lon="148.3934700"/>
      <trkpt lat="-9.0401269" lon="148.3934931"/>
      <trkpt lat="-9.0402887" lon="148.3935107"/>
      <trkpt lat="-9.0403952" lon="148.3934987"/>
      <trkpt lat="-9.0404980" lon="148.3934679"/>
      <trkpt lat="-9.0406150" lon="148.3934305"/>
      <trkpt lat="-9.0407882" lon="148.3933916"/>
      <trkpt lat="-9.0409640" lon="148.3933755"/>
      <trkpt lat="-9.0411396" lon="148.3933556"/>
      <trkpt lat="-9.0413174" lon="148.3933431"/>
      <trkpt lat="-9.0414966" lon="148.3933341"/>
      <trkpt lat="-9.0416755" lon="148.3933437"/>
      <trkpt lat="-9.0418533" lon="148.3933703"/>
      <trkpt lat="-9.0420287" lon="148.3934049"/>
      <trkpt lat="-9.0422050" lon="148.3934291"/>
      <trkpt lat="-9.0423811" lon="148.3934547"/>
      <trkpt lat="-9.0425566" lon="148.3934787"/>
      <trkpt lat="-9.0427283" lon="148.3934838"/>
      <trkpt lat="-9.0429013" lon="148.3934838"/>
      <trkpt lat="-9.0430758" lon="148.3934870"/>
      <trkpt lat="-9.0432443" lon="148.3934882"/>
      <trkpt lat="-9.0434127" lon="148.3934906"/>
      <trkpt lat="-9.0435830" lon="148.3934760"/>
      <trkpt lat="-9.0437612" lon="148.3934854"/>
      <trkpt lat="-9.0439232" lon="148.3935156"/>
      <trkpt lat="-9.0440837" lon="148.3935366"/>
      <trkpt lat="-9.0442431" lon="148.3935490"/>
      <trkpt lat="-9.0444114" lon="148.3935136"/>
      <trkpt lat="-9.0445779" lon="148.3935070"/>
      <trkpt lat="-9.0447379" lon="148.3935327"/>
      <trkpt lat="-9.0449037" lon="148.3935623"/>
      <trkpt lat="-9.0450715" lon="148.3935720"/>
      <trkpt lat="-9.0452460" lon="148.3935354"/>
      <trkpt lat="-9.0454202" lon="148.3935060"/>
      <trkpt lat="-9.0455909" lon="148.3934888"/>
      <trkpt lat="-9.0457613" lon="148.3934713"/>
      <trkpt lat="-9.0459332" lon="148.3934549"/>
      <trkpt lat="-9.0461025" lon="148.3934036"/>
      <trkpt lat="-9.0462551" lon="148.3933266"/>
      <trkpt lat="-9.0463993" lon="148.3932250"/>
      <trkpt lat="-9.0465393" lon="148.3931126"/>
      <trkpt lat="-9.0466700" lon="148.3929968"/>
      <trkpt lat="-9.0467823" lon="148.3928628"/>
      <trkpt lat="-9.0468704" lon="148.3927093"/>
      <trkpt lat="-9.0469632" lon="148.3925561"/>
      <trkpt lat="-9.0470690" lon="148.3924135"/>
      <trkpt lat="-9.0472046" lon="148.3923072"/>
      <trkpt lat="-9.0473524" lon="148.3922221"/>
      <trkpt lat="-9.0475010" lon="148.3921381"/>
      <trkpt lat="-9.0476049" lon="148.3920623"/>
      <trkpt lat="-9.0476775" lon="148.3919723"/>
      <trkpt lat="-9.0477093" lon="148.3918603"/>
      <trkpt lat="-9.0477388" lon="148.3916987"/>
      <trkpt lat="-9.0477612" lon="148.3915182"/>
      <trkpt lat="-9.0477776" lon="148.3913375"/>
      <trkpt lat="-9.0477854" lon="148.3911564"/>
      <trkpt lat="-9.0478039" lon="148.3909806"/>
      <trkpt lat="-9.0478471" lon="148.3908099"/>
      <trkpt lat="-9.0479157" lon="148.3906444"/>
      <trkpt lat="-9.0479878" lon="148.3904776"/>
      <trkpt lat="-9.0480579" lon="148.3903099"/>
      <trkpt lat="-9.0481275" lon="148.3901421"/>
      <trkpt lat="-9.0481956" lon="148.3899735"/>
      <trkpt lat="-9.0482664" lon="148.3898064"/>
      <trkpt lat="-9.0483534" lon="148.3896497"/>
      <trkpt lat="-9.0484555" lon="148.3895016"/>
      <trkpt lat="-9.0485743" lon="148.3893660"/>
      <trkpt lat="-9.0487055" lon="148.3892465"/>
      <trkpt lat="-9.0488494" lon="148.3891406"/>
      <trkpt lat="-9.0490008" lon="148.3890420"/>
      <trkpt lat="-9.0491499" lon="148.3889395"/>
      <trkpt lat="-9.0493027" lon="148.3888430"/>
      <trkpt lat="-9.0494563" lon="148.3887478"/>
      <trkpt lat="-9.0496045" lon="148.3886453"/>
      <trkpt lat="-9.0497443" lon="148.3885307"/>
      <trkpt lat="-9.0498864" lon="148.3884211"/>
      <trkpt lat="-9.0500330" lon="148.3883172"/>
      <trkpt lat="-9.0501605" lon="148.3882452"/>
      <trkpt lat="-9.0502613" lon="148.3881930"/>
    </trkseg>
    <trkseg>
      <trkpt lat="-9.0504146" lon="148.3881896"/>
      <trkpt lat="-9.0505001" lon="148.3880317"/>
      <trkpt lat="-9.0506060" lon="148.3878881"/>
      <trkpt lat="-9.0506896" lon="148.3878488"/>
      <trkpt lat="-9.0507604" lon="148.3878326"/>
      <trkpt lat="-9.0508238" lon="148.3878094"/>
      <trkpt lat="-9.0509186" lon="148.3876944"/>
      <trkpt lat="-9.0510195" lon="148.3875587"/>
    </trkseg>
    <trkseg>
      <trkpt lat="-9.0505860" lon="148.3845997"/>
      <trkpt lat="-9.0507643" lon="148.3845960"/>
      <trkpt lat="-9.0508427" lon="148.3845771"/>
      <trkpt lat="-9.0508012" lon="148.3845630"/>
      <trkpt lat="-9.0506885" lon="148.3845417"/>
      <trkpt lat="-9.0506032" lon="148.3845432"/>
    </trkseg>
    <trkseg>
      <trkpt lat="-9.0515306" lon="148.3829851"/>
      <trkpt lat="-9.0514447" lon="148.3831451"/>
      <trkpt lat="-9.0513567" lon="148.3833041"/>
      <trkpt lat="-9.0512653" lon="148.3834610"/>
      <trkpt lat="-9.0511781" lon="148.3836196"/>
      <trkpt lat="-9.0511024" lon="148.3837834"/>
      <trkpt lat="-9.0510207" lon="148.3839421"/>
      <trkpt lat="-9.0509235" lon="148.3840911"/>
      <trkpt lat="-9.0508042" lon="148.3842270"/>
      <trkpt lat="-9.0507198" lon="148.3843684"/>
      <trkpt lat="-9.0507279" lon="148.3844940"/>
      <trkpt lat="-9.0508333" lon="148.3845676"/>
      <trkpt lat="-9.0509959" lon="148.3845702"/>
      <trkpt lat="-9.0511652" lon="148.3845357"/>
      <trkpt lat="-9.0513229" lon="148.3844725"/>
      <trkpt lat="-9.0514597" lon="148.3843800"/>
      <trkpt lat="-9.0515693" lon="148.3842520"/>
      <trkpt lat="-9.0516858" lon="148.3841299"/>
      <trkpt lat="-9.0518235" lon="148.3840319"/>
      <trkpt lat="-9.0519877" lon="148.3839754"/>
      <trkpt lat="-9.0521573" lon="148.3839650"/>
      <trkpt lat="-9.0523193" lon="148.3839470"/>
      <trkpt lat="-9.0524739" lon="148.3839017"/>
      <trkpt lat="-9.0526306" lon="148.3838361"/>
      <trkpt lat="-9.0527973" lon="148.3838185"/>
      <trkpt lat="-9.0529715" lon="148.3838177"/>
      <trkpt lat="-9.0531449" lon="148.3838067"/>
      <trkpt lat="-9.0533200" lon="148.3837699"/>
      <trkpt lat="-9.0534758" lon="148.3837031"/>
      <trkpt lat="-9.0536072" lon="148.3836020"/>
      <trkpt lat="-9.0536834" lon="148.3834503"/>
      <trkpt lat="-9.0537152" lon="148.3832808"/>
      <trkpt lat="-9.0536864" lon="148.3831057"/>
      <trkpt lat="-9.0536469" lon="148.3829368"/>
      <trkpt lat="-9.0536426" lon="148.3827755"/>
      <trkpt lat="-9.0537092" lon="148.3826320"/>
      <trkpt lat="-9.0538227" lon="148.3825791"/>
      <trkpt lat="-9.0539250" lon="148.3826362"/>
      <trkpt lat="-9.0540057" lon="148.3827739"/>
      <trkpt lat="-9.0540918" lon="148.3829098"/>
      <trkpt lat="-9.0542056" lon="148.3830139"/>
      <trkpt lat="-9.0543463" lon="148.3830634"/>
      <trkpt lat="-9.0544786" lon="148.3830763"/>
      <trkpt lat="-9.0545853" lon="148.3830587"/>
      <trkpt lat="-9.0547009" lon="148.3830497"/>
      <trkpt lat="-9.0547685" lon="148.3830958"/>
      <trkpt lat="-9.0548043" lon="148.3832041"/>
      <trkpt lat="-9.0547783" lon="148.3833674"/>
      <trkpt lat="-9.0547453" lon="148.3835349"/>
      <trkpt lat="-9.0547301" lon="148.3836984"/>
      <trkpt lat="-9.0547515" lon="148.3838492"/>
      <trkpt lat="-9.0548171" lon="148.3839963"/>
      <trkpt lat="-9.0549234" lon="148.3841268"/>
      <trkpt lat="-9.0550499" lon="148.3842449"/>
      <trkpt lat="-9.0551905" lon="148.3843516"/>
      <trkpt lat="-9.0553225" lon="148.3844663"/>
      <trkpt lat="-9.0554500" lon="148.3845886"/>
      <trkpt lat="-9.0555787" lon="148.3847126"/>
      <trkpt lat="-9.0557045" lon="148.3848405"/>
      <trkpt lat="-9.0558114" lon="148.3849856"/>
      <trkpt lat="-9.0559070" lon="148.3851397"/>
      <trkpt lat="-9.0559969" lon="148.3852975"/>
      <trkpt lat="-9.0560868" lon="148.3854554"/>
      <trkpt lat="-9.0561736" lon="148.3856149"/>
      <trkpt lat="-9.0562746" lon="148.3857628"/>
      <trkpt lat="-9.0563939" lon="148.3858944"/>
      <trkpt lat="-9.0565357" lon="148.3860052"/>
      <trkpt lat="-9.0566889" lon="148.3860985"/>
      <trkpt lat="-9.0568513" lon="148.3861721"/>
      <trkpt lat="-9.0570240" lon="148.3862204"/>
      <trkpt lat="-9.0572010" lon="148.3862382"/>
      <trkpt lat="-9.0573805" lon="148.3862325"/>
      <trkpt lat="-9.0575602" lon="148.3862118"/>
      <trkpt lat="-9.0577398" lon="148.3861910"/>
      <trkpt lat="-9.0579195" lon="148.3861702"/>
      <trkpt lat="-9.0580992" lon="148.3861495"/>
      <trkpt lat="-9.0582790" lon="148.3861361"/>
      <trkpt lat="-9.0584590" lon="148.3861350"/>
      <trkpt lat="-9.0586389" lon="148.3861483"/>
      <trkpt lat="-9.0588188" lon="148.3861664"/>
      <trkpt lat="-9.0589971" lon="148.3861652"/>
      <trkpt lat="-9.0591742" lon="148.3861424"/>
      <trkpt lat="-9.0593499" lon="148.3860999"/>
      <trkpt lat="-9.0595253" lon="148.3860559"/>
      <trkpt lat="-9.0597011" lon="148.3860171"/>
      <trkpt lat="-9.0598783" lon="148.3859925"/>
      <trkpt lat="-9.0600571" lon="148.3859790"/>
      <trkpt lat="-9.0602323" lon="148.3859749"/>
      <trkpt lat="-9.0604073" lon="148.3859685"/>
      <trkpt lat="-9.0605742" lon="148.3859423"/>
      <trkpt lat="-9.0607276" lon="148.3858720"/>
      <trkpt lat="-9.0608561" lon="148.3857626"/>
      <trkpt lat="-9.0609561" lon="148.3856251"/>
      <trkpt lat="-9.0610279" lon="148.3854757"/>
      <trkpt lat="-9.0611072" lon="148.3853397"/>
      <trkpt lat="-9.0612125" lon="148.3852320"/>
      <trkpt lat="-9.0613612" lon="148.3851723"/>
      <trkpt lat="-9.0615184" lon="148.3851177"/>
      <trkpt lat="-9.0616654" lon="148.3850684"/>
      <trkpt lat="-9.0617931" lon="148.3849865"/>
      <trkpt lat="-9.0618991" lon="148.3849358"/>
      <trkpt lat="-9.0619798" lon="148.3848449"/>
      <trkpt lat="-9.0620736" lon="148.3847880"/>
      <trkpt lat="-9.0621925" lon="148.3847491"/>
      <trkpt lat="-9.0623380" lon="148.3848080"/>
      <trkpt lat="-9.0624692" lon="148.3848895"/>
      <trkpt lat="-9.0625928" lon="148.3849729"/>
      <trkpt lat="-9.0627261" lon="148.3850481"/>
      <trkpt lat="-9.0628573" lon="148.3851562"/>
      <trkpt lat="-9.0629810" lon="148.3852808"/>
      <trkpt lat="-9.0630909" lon="148.3854191"/>
      <trkpt lat="-9.0632016" lon="148.3855469"/>
      <trkpt lat="-9.0633033" lon="148.3856822"/>
      <trkpt lat="-9.0634045" lon="148.3858197"/>
      <trkpt lat="-9.0634226" lon="148.3859425"/>
      <trkpt lat="-9.0633723" lon="148.3859667"/>
      <trkpt lat="-9.0632448" lon="148.3859016"/>
      <trkpt lat="-9.0631094" lon="148.3858193"/>
      <trkpt lat="-9.0629745" lon="148.3858270"/>
      <trkpt lat="-9.0628590" lon="148.3859335"/>
      <trkpt lat="-9.0627799" lon="148.3860872"/>
      <trkpt lat="-9.0627269" lon="148.3862431"/>
      <trkpt lat="-9.0626562" lon="148.3863823"/>
      <trkpt lat="-9.0625536" lon="148.3864720"/>
      <trkpt lat="-9.0624191" lon="148.3864764"/>
      <trkpt lat="-9.0623024" lon="148.3863848"/>
      <trkpt lat="-9.0621944" lon="148.3862460"/>
      <trkpt lat="-9.0620794" lon="148.3861646"/>
      <trkpt lat="-9.0619287" lon="148.3861518"/>
      <trkpt lat="-9.0617912" lon="148.3862307"/>
      <trkpt lat="-9.0617012" lon="148.3863514"/>
      <trkpt lat="-9.0616747" lon="148.3865189"/>
      <trkpt lat="-9.0616727" lon="148.3866972"/>
      <trkpt lat="-9.0616500" lon="148.3868706"/>
      <trkpt lat="-9.0615968" lon="148.3870398"/>
      <trkpt lat="-9.0615221" lon="148.3871982"/>
      <trkpt lat="-9.0614449" lon="148.3873504"/>
    </trkseg>
    <trkseg>
      <trkpt lat="-9.0617699" lon="148.3872039"/>
      <trkpt lat="-9.0616773" lon="148.3873429"/>
      <trkpt lat="-9.0615893" lon="148.3874910"/>
      <trkpt lat="-9.0614837" lon="148.3876225"/>
      <trkpt lat="-9.0613496" lon="148.3877342"/>
      <trkpt lat="-9.0612048" lon="148.3878380"/>
      <trkpt lat="-9.0610737" lon="148.3879617"/>
      <trkpt lat="-9.0609452" lon="148.3880896"/>
      <trkpt lat="-9.0608203" lon="148.3882211"/>
      <trkpt lat="-9.0606968" lon="148.3883538"/>
      <trkpt lat="-9.0605784" lon="148.3884907"/>
      <trkpt lat="-9.0604771" lon="148.3886382"/>
      <trkpt lat="-9.0604075" lon="148.3887999"/>
      <trkpt lat="-9.0603652" lon="148.3889747"/>
      <trkpt lat="-9.0603397" lon="148.3891538"/>
      <trkpt lat="-9.0603238" lon="148.3893344"/>
      <trkpt lat="-9.0603218" lon="148.3895158"/>
      <trkpt lat="-9.0603292" lon="148.3896976"/>
      <trkpt lat="-9.0603404" lon="148.3898789"/>
      <trkpt lat="-9.0603328" lon="148.3900403"/>
      <trkpt lat="-9.0602639" lon="148.3901520"/>
      <trkpt lat="-9.0601394" lon="148.3902350"/>
      <trkpt lat="-9.0599725" lon="148.3902871"/>
      <trkpt lat="-9.0598079" lon="148.3903475"/>
      <trkpt lat="-9.0596341" lon="148.3903819"/>
      <trkpt lat="-9.0594583" lon="148.3904105"/>
      <trkpt lat="-9.0592786" lon="148.3904256"/>
      <trkpt lat="-9.0590989" lon="148.3904413"/>
      <trkpt lat="-9.0589261" lon="148.3904794"/>
      <trkpt lat="-9.0587592" lon="148.3905326"/>
      <trkpt lat="-9.0585954" lon="148.3905954"/>
      <trkpt lat="-9.0584345" lon="148.3906653"/>
      <trkpt lat="-9.0582842" lon="148.3907550"/>
      <trkpt lat="-9.0581515" lon="148.3908745"/>
      <trkpt lat="-9.0580261" lon="148.3910018"/>
      <trkpt lat="-9.0578941" lon="148.3911201"/>
      <trkpt lat="-9.0577461" lon="148.3912168"/>
      <trkpt lat="-9.0575820" lon="148.3912738"/>
      <trkpt lat="-9.0574077" lon="148.3912953"/>
      <trkpt lat="-9.0572476" lon="148.3913229"/>
      <trkpt lat="-9.0570927" lon="148.3913751"/>
      <trkpt lat="-9.0569508" lon="148.3914683"/>
      <trkpt lat="-9.0568086" lon="148.3915751"/>
      <trkpt lat="-9.0566835" lon="148.3917035"/>
      <trkpt lat="-9.0565523" lon="148.3918224"/>
      <trkpt lat="-9.0564060" lon="148.3919139"/>
      <trkpt lat="-9.0562410" lon="148.3919799"/>
      <trkpt lat="-9.0560790" lon="148.3920483"/>
      <trkpt lat="-9.0559266" lon="148.3921357"/>
      <trkpt lat="-9.0557916" lon="148.3922435"/>
      <trkpt lat="-9.0556736" lon="148.3923708"/>
      <trkpt lat="-9.0555626" lon="148.3925069"/>
      <trkpt lat="-9.0554495" lon="148.3926460"/>
      <trkpt lat="-9.0553197" lon="148.3927692"/>
      <trkpt lat="-9.0552010" lon="148.3929001"/>
      <trkpt lat="-9.0550910" lon="148.3930363"/>
      <trkpt lat="-9.0549788" lon="148.3931410"/>
      <trkpt lat="-9.0548407" lon="148.3932171"/>
      <trkpt lat="-9.0546840" lon="148.3932769"/>
      <trkpt lat="-9.0545229" lon="148.3933545"/>
      <trkpt lat="-9.0543567" lon="148.3934123"/>
      <trkpt lat="-9.0542310" lon="148.3934688"/>
      <trkpt lat="-9.0541059" lon="148.3935280"/>
      <trkpt lat="-9.0539890" lon="148.3935768"/>
      <trkpt lat="-9.0538256" lon="148.3936157"/>
      <trkpt lat="-9.0536601" lon="148.3936476"/>
      <trkpt lat="-9.0534874" lon="148.3936963"/>
      <trkpt lat="-9.0533129" lon="148.3937398"/>
      <trkpt lat="-9.0531371" lon="148.3937779"/>
      <trkpt lat="-9.0529678" lon="148.3938342"/>
      <trkpt lat="-9.0527988" lon="148.3938914"/>
      <trkpt lat="-9.0526316" lon="148.3939561"/>
      <trkpt lat="-9.0524636" lon="148.3940120"/>
      <trkpt lat="-9.0523174" lon="148.3940615"/>
      <trkpt lat="-9.0522057" lon="148.3941487"/>
      <trkpt lat="-9.0521181" lon="148.3942694"/>
      <trkpt lat="-9.0520375" lon="148.3944306"/>
      <trkpt lat="-9.0519352" lon="148.3945764"/>
      <trkpt lat="-9.0518391" lon="148.3947235"/>
      <trkpt lat="-9.0517727" lon="148.3948770"/>
      <trkpt lat="-9.0517447" lon="148.3950476"/>
      <trkpt lat="-9.0517129" lon="148.3952174"/>
      <trkpt lat="-9.0516542" lon="148.3953825"/>
      <trkpt lat="-9.0515788" lon="148.3955452"/>
      <trkpt lat="-9.0515066" lon="148.3957076"/>
      <trkpt lat="-9.0514283" lon="148.3958611"/>
      <trkpt lat="-9.0513373" lon="148.3960018"/>
      <trkpt lat="-9.0512327" lon="148.3961268"/>
      <trkpt lat="-9.0511781" lon="148.3962620"/>
      <trkpt lat="-9.0511902" lon="148.3963523"/>
      <trkpt lat="-9.0511810" lon="148.3964042"/>
      <trkpt lat="-9.0510982" lon="148.3964236"/>
      <trkpt lat="-9.0510015" lon="148.3964853"/>
      <trkpt lat="-9.0510114" lon="148.3965627"/>
      <trkpt lat="-9.0511013" lon="148.3966690"/>
      <trkpt lat="-9.0512173" lon="148.3967564"/>
      <trkpt lat="-9.0513069" lon="148.3968850"/>
      <trkpt lat="-9.0513860" lon="148.3970136"/>
      <trkpt lat="-9.0514388" lon="148.3971528"/>
      <trkpt lat="-9.0515184" lon="148.3972260"/>
      <trkpt lat="-9.0515494" lon="148.3972601"/>
      <trkpt lat="-9.0515922" lon="148.3973120"/>
      <trkpt lat="-9.0515940" lon="148.3974303"/>
      <trkpt lat="-9.0516627" lon="148.3975670"/>
      <trkpt lat="-9.0517357" lon="148.3976921"/>
      <trkpt lat="-9.0518217" lon="148.3978158"/>
      <trkpt lat="-9.0518930" lon="148.3979630"/>
      <trkpt lat="-9.0519532" lon="148.3981239"/>
      <trkpt lat="-9.0520430" lon="148.3982627"/>
      <trkpt lat="-9.0521684" lon="148.3983703"/>
      <trkpt lat="-9.0523300" lon="148.3984365"/>
      <trkpt lat="-9.0525004" lon="148.3984799"/>
      <trkpt lat="-9.0526702" lon="148.3985277"/>
      <trkpt lat="-9.0528344" lon="148.3985957"/>
      <trkpt lat="-9.0529977" lon="148.3986701"/>
      <trkpt lat="-9.0531552" lon="148.3986916"/>
      <trkpt lat="-9.0532941" lon="148.3986607"/>
      <trkpt lat="-9.0533654" lon="148.3986264"/>
      <trkpt lat="-9.0534141" lon="148.3985851"/>
      <trkpt lat="-9.0534717" lon="148.3985276"/>
      <trkpt lat="-9.0535591" lon="148.3984024"/>
      <trkpt lat="-9.0536720" lon="148.3982779"/>
      <trkpt lat="-9.0537992" lon="148.3981762"/>
      <trkpt lat="-9.0539645" lon="148.3981245"/>
      <trkpt lat="-9.0541352" lon="148.3980842"/>
      <trkpt lat="-9.0543085" lon="148.3980643"/>
      <trkpt lat="-9.0544568" lon="148.3980073"/>
      <trkpt lat="-9.0545897" lon="148.3979260"/>
      <trkpt lat="-9.0546944" lon="148.3977928"/>
      <trkpt lat="-9.0548019" lon="148.3976554"/>
      <trkpt lat="-9.0549277" lon="148.3975545"/>
      <trkpt lat="-9.0550815" lon="148.3975042"/>
      <trkpt lat="-9.0552558" lon="148.3975196"/>
      <trkpt lat="-9.0554289" lon="148.3975347"/>
      <trkpt lat="-9.0555992" lon="148.3975265"/>
      <trkpt lat="-9.0557723" lon="148.3974924"/>
      <trkpt lat="-9.0559373" lon="148.3974340"/>
      <trkpt lat="-9.0560906" lon="148.3973582"/>
      <trkpt lat="-9.0562408" lon="148.3972715"/>
      <trkpt lat="-9.0563929" lon="148.3971926"/>
      <trkpt lat="-9.0565591" lon="148.3971434"/>
      <trkpt lat="-9.0567092" lon="148.3970671"/>
      <trkpt lat="-9.0568594" lon="148.3969849"/>
      <trkpt lat="-9.0569988" lon="148.3968754"/>
      <trkpt lat="-9.0571390" lon="148.3967688"/>
      <trkpt lat="-9.0572855" lon="148.3966755"/>
      <trkpt lat="-9.0574314" lon="148.3965813"/>
      <trkpt lat="-9.0575941" lon="148.3965204"/>
      <trkpt lat="-9.0577588" lon="148.3964831"/>
      <trkpt lat="-9.0579294" lon="148.3964968"/>
      <trkpt lat="-9.0580941" lon="148.3965480"/>
      <trkpt lat="-9.0582505" lon="148.3966173"/>
      <trkpt lat="-9.0584107" lon="148.3966883"/>
      <trkpt lat="-9.0585604" lon="148.3967727"/>
      <trkpt lat="-9.0587026" lon="148.3968677"/>
      <trkpt lat="-9.0588458" lon="148.3969380"/>
      <trkpt lat="-9.0589937" lon="148.3969333"/>
      <trkpt lat="-9.0590776" lon="148.3968654"/>
      <trkpt lat="-9.0591227" lon="148.3968139"/>
      <trkpt lat="-9.0591413" lon="148.3968025"/>
    </trkseg>
  </trk>
</gpx>
