<?xml version="1.0" encoding="UTF-8"?>
<gpx version="1.1" creator="MCA Maps — Managalas clan boundary survey"
     xmlns="http://www.topografix.com/GPX/1/1"
     xmlns:xsi="http://www.w3.org/2001/XMLSchema-instance"
     xsi:schemaLocation="http://www.topografix.com/GPX/1/1 http://www.topografix.com/GPX/1/1/gpx.xsd">
  <metadata>
    <name>Riribudeh — clan land boundary</name>
    <desc>Riribudeh, Zone 8. 20.4 km walked; 1.5 km still to walk in 2 gaps. 1 join(s) under the marking threshold are not shown.</desc>
    <time>2026-08-23T00:00:00Z</time>
  </metadata>
  <wpt lat="-9.1228417" lon="148.4609883">
    <name>GAP 1 OF 2 START</name>
    <desc>1.13 km not walked. This straight line is not a boundary — it joins the two ends so the shape can be closed on paper. Riribudeh, Zone 8.</desc>
    <sym>Flag</sym>
  </wpt>
  <wpt lat="-9.1290833" lon="148.4690850">
    <name>GAP 1 OF 2 END</name>
    <desc>1.13 km not walked. This straight line is not a boundary — it joins the two ends so the shape can be closed on paper. Riribudeh, Zone 8.</desc>
    <sym>Flag</sym>
  </wpt>
  <wpt lat="-9.1454450" lon="148.4671383">
    <name>GAP 2 OF 2 START</name>
    <desc>0.39 km not walked. This straight line is not a boundary — it joins the two ends so the shape can be closed on paper. Riribudeh, Zone 8.</desc>
    <sym>Flag</sym>
  </wpt>
  <wpt lat="-9.1485600" lon="148.4655333">
    <name>GAP 2 OF 2 END</name>
    <desc>0.39 km not walked. This straight line is not a boundary — it joins the two ends so the shape can be closed on paper. Riribudeh, Zone 8.</desc>
    <sym>Flag</sym>
  </wpt>
  <trk>
    <name>GAP 1 OF 2 - NOT WALKED - 1.13 km</name>
    <desc>1.13 km not walked. This straight line is not a boundary — it joins the two ends so the shape can be closed on paper. Riribudeh, Zone 8.</desc>
    <type>not-walked</type>
    <trkseg>
      <trkpt lat="-9.1228417" lon="148.4609883"/>
      <trkpt lat="-9.1290833" lon="148.4690850"/>
    </trkseg>
  </trk>
  <trk>
    <name>GAP 2 OF 2 - NOT WALKED - 0.39 km</name>
    <desc>0.39 km not walked. This straight line is not a boundary — it joins the two ends so the shape can be closed on paper. Riribudeh, Zone 8.</desc>
    <type>not-walked</type>
    <trkseg>
      <trkpt lat="-9.1454450" lon="148.4671383"/>
      <trkpt lat="-9.1485600" lon="148.4655333"/>
    </trkseg>
  </trk>
  <trk>
    <name>Riribudeh - Prut Buitari</name>
    <desc>Walked by Prut Buitari. 10.4 km, 7 track(s), recorded on the ground. Riribudeh, Zone 8.</desc>
    <type>walked-boundary</type>
    <trkseg>
      <trkpt lat="-9.1485600" lon="148.4655333"/>
      <trkpt lat="-9.1485250" lon="148.4656748"/>
      <trkpt lat="-9.1484322" lon="148.4657910"/>
      <trkpt lat="-9.1482859" lon="148.4658847"/>
      <trkpt lat="-9.1481380" lon="148.4659723"/>
      <trkpt lat="-9.1480107" lon="148.4660617"/>
      <trkpt lat="-9.1478834" lon="148.4661395"/>
      <trkpt lat="-9.1477525" lon="148.4662145"/>
      <trkpt lat="-9.1475930" lon="148.4662683"/>
      <trkpt lat="-9.1474514" lon="148.4662874"/>
      <trkpt lat="-9.1473650" lon="148.4663431"/>
      <trkpt lat="-9.1473289" lon="148.4664272"/>
      <trkpt lat="-9.1472733" lon="148.4665380"/>
      <trkpt lat="-9.1472166" lon="148.4665907"/>
      <trkpt lat="-9.1471800" lon="148.4666099"/>
      <trkpt lat="-9.1472033" lon="148.4666217"/>
    </trkseg>
    <trkseg>
      <trkpt lat="-9.1485600" lon="148.4655333"/>
      <trkpt lat="-9.1485250" lon="148.4656748"/>
      <trkpt lat="-9.1484322" lon="148.4657910"/>
      <trkpt lat="-9.1482859" lon="148.4658847"/>
      <trkpt lat="-9.1481380" lon="148.4659723"/>
      <trkpt lat="-9.1480107" lon="148.4660617"/>
      <trkpt lat="-9.1478834" lon="148.4661395"/>
      <trkpt lat="-9.1477525" lon="148.4662145"/>
      <trkpt lat="-9.1475930" lon="148.4662683"/>
      <trkpt lat="-9.1474514" lon="148.4662874"/>
      <trkpt lat="-9.1473650" lon="148.4663431"/>
      <trkpt lat="-9.1473289" lon="148.4664272"/>
      <trkpt lat="-9.1472733" lon="148.4665380"/>
      <trkpt lat="-9.1472166" lon="148.4665907"/>
      <trkpt lat="-9.1471800" lon="148.4666099"/>
      <trkpt lat="-9.1472033" lon="148.4666217"/>
    </trkseg>
    <trkseg>
      <trkpt lat="-9.1454450" lon="148.4671383"/>
      <trkpt lat="-9.1455080" lon="148.4669695"/>
      <trkpt lat="-9.1455540" lon="148.4668923"/>
      <trkpt lat="-9.1455606" lon="148.4669253"/>
      <trkpt lat="-9.1455054" lon="148.4670518"/>
      <trkpt lat="-9.1453989" lon="148.4671006"/>
      <trkpt lat="-9.1452670" lon="148.4670493"/>
      <trkpt lat="-9.1451284" lon="148.4669791"/>
      <trkpt lat="-9.1449822" lon="148.4669777"/>
      <trkpt lat="-9.1448313" lon="148.4670596"/>
      <trkpt lat="-9.1447422" lon="148.4671683"/>
      <trkpt lat="-9.1447004" lon="148.4672814"/>
      <trkpt lat="-9.1446874" lon="148.4673772"/>
      <trkpt lat="-9.1446509" lon="148.4674822"/>
      <trkpt lat="-9.1445876" lon="148.4675526"/>
      <trkpt lat="-9.1445033" lon="148.4676445"/>
      <trkpt lat="-9.1444435" lon="148.4677397"/>
      <trkpt lat="-9.1444484" lon="148.4678877"/>
      <trkpt lat="-9.1444906" lon="148.4680471"/>
      <trkpt lat="-9.1445167" lon="148.4682101"/>
      <trkpt lat="-9.1444603" lon="148.4683468"/>
      <trkpt lat="-9.1443552" lon="148.4684628"/>
      <trkpt lat="-9.1442460" lon="148.4685751"/>
      <trkpt lat="-9.1441713" lon="148.4687219"/>
      <trkpt lat="-9.1441199" lon="148.4688901"/>
      <trkpt lat="-9.1440618" lon="148.4690612"/>
      <trkpt lat="-9.1440169" lon="148.4692328"/>
      <trkpt lat="-9.1439847" lon="148.4694082"/>
      <trkpt lat="-9.1439456" lon="148.4695798"/>
      <trkpt lat="-9.1438805" lon="148.4697428"/>
      <trkpt lat="-9.1437937" lon="148.4698969"/>
      <trkpt lat="-9.1437227" lon="148.4700565"/>
      <trkpt lat="-9.1436507" lon="148.4702179"/>
      <trkpt lat="-9.1435638" lon="148.4703029"/>
      <trkpt lat="-9.1434318" lon="148.4703030"/>
      <trkpt lat="-9.1432702" lon="148.4702363"/>
      <trkpt lat="-9.1431124" lon="148.4701666"/>
      <trkpt lat="-9.1429613" lon="148.4700855"/>
      <trkpt lat="-9.1428224" lon="148.4699801"/>
      <trkpt lat="-9.1426833" lon="148.4698675"/>
      <trkpt lat="-9.1425329" lon="148.4697953"/>
      <trkpt lat="-9.1423750" lon="148.4697400"/>
      <trkpt lat="-9.1422140" lon="148.4697023"/>
      <trkpt lat="-9.1420686" lon="148.4696335"/>
      <trkpt lat="-9.1419316" lon="148.4695461"/>
      <trkpt lat="-9.1417985" lon="148.4694407"/>
      <trkpt lat="-9.1416728" lon="148.4693931"/>
      <trkpt lat="-9.1415548" lon="148.4694303"/>
      <trkpt lat="-9.1414667" lon="148.4695629"/>
      <trkpt lat="-9.1413772" lon="148.4696537"/>
      <trkpt lat="-9.1412904" lon="148.4697341"/>
      <trkpt lat="-9.1411628" lon="148.4697775"/>
      <trkpt lat="-9.1410131" lon="148.4698305"/>
      <trkpt lat="-9.1408398" lon="148.4698347"/>
      <trkpt lat="-9.1406788" lon="148.4698508"/>
      <trkpt lat="-9.1405221" lon="148.4698605"/>
      <trkpt lat="-9.1403700" lon="148.4698569"/>
      <trkpt lat="-9.1402116" lon="148.4697893"/>
      <trkpt lat="-9.1400586" lon="148.4696984"/>
    </trkseg>
    <trkseg>
      <trkpt lat="-9.1401050" lon="148.4696183"/>
      <trkpt lat="-9.1399763" lon="148.4694983"/>
      <trkpt lat="-9.1398311" lon="148.4693983"/>
      <trkpt lat="-9.1396697" lon="148.4693204"/>
      <trkpt lat="-9.1395015" lon="148.4692728"/>
      <trkpt lat="-9.1393283" lon="148.4692623"/>
      <trkpt lat="-9.1391586" lon="148.4693092"/>
      <trkpt lat="-9.1390019" lon="148.4693821"/>
      <trkpt lat="-9.1388646" lon="148.4694237"/>
      <trkpt lat="-9.1387293" lon="148.4694048"/>
      <trkpt lat="-9.1385925" lon="148.4693215"/>
      <trkpt lat="-9.1384393" lon="148.4692494"/>
      <trkpt lat="-9.1382756" lon="148.4691962"/>
      <trkpt lat="-9.1381016" lon="148.4691665"/>
      <trkpt lat="-9.1379389" lon="148.4691233"/>
      <trkpt lat="-9.1378040" lon="148.4690376"/>
      <trkpt lat="-9.1376723" lon="148.4689422"/>
      <trkpt lat="-9.1375270" lon="148.4688556"/>
      <trkpt lat="-9.1373527" lon="148.4688220"/>
      <trkpt lat="-9.1371743" lon="148.4688067"/>
      <trkpt lat="-9.1370125" lon="148.4688042"/>
      <trkpt lat="-9.1368683" lon="148.4687983"/>
    </trkseg>
    <trkseg>
      <trkpt lat="-9.1369167" lon="148.4688900"/>
      <trkpt lat="-9.1370882" lon="148.4689099"/>
      <trkpt lat="-9.1372281" lon="148.4689841"/>
      <trkpt lat="-9.1373077" lon="148.4691203"/>
      <trkpt lat="-9.1373344" lon="148.4692902"/>
      <trkpt lat="-9.1373393" lon="148.4694689"/>
      <trkpt lat="-9.1372986" lon="148.4696242"/>
      <trkpt lat="-9.1372014" lon="148.4697232"/>
      <trkpt lat="-9.1370734" lon="148.4698145"/>
      <trkpt lat="-9.1369717" lon="148.4699225"/>
      <trkpt lat="-9.1369236" lon="148.4700850"/>
      <trkpt lat="-9.1368564" lon="148.4702319"/>
      <trkpt lat="-9.1367601" lon="148.4703575"/>
      <trkpt lat="-9.1366477" lon="148.4704828"/>
      <trkpt lat="-9.1365826" lon="148.4706136"/>
      <trkpt lat="-9.1365092" lon="148.4707294"/>
      <trkpt lat="-9.1363948" lon="148.4707978"/>
      <trkpt lat="-9.1362393" lon="148.4708049"/>
      <trkpt lat="-9.1360981" lon="148.4707546"/>
      <trkpt lat="-9.1359874" lon="148.4706419"/>
      <trkpt lat="-9.1358676" lon="148.4705117"/>
      <trkpt lat="-9.1357419" lon="148.4703894"/>
      <trkpt lat="-9.1356101" lon="148.4702708"/>
      <trkpt lat="-9.1355147" lon="148.4701311"/>
      <trkpt lat="-9.1354586" lon="148.4699668"/>
      <trkpt lat="-9.1354477" lon="148.4697950"/>
      <trkpt lat="-9.1354384" lon="148.4696222"/>
      <trkpt lat="-9.1354177" lon="148.4694521"/>
      <trkpt lat="-9.1353331" lon="148.4693164"/>
      <trkpt lat="-9.1352108" lon="148.4692026"/>
      <trkpt lat="-9.1350583" lon="148.4691147"/>
      <trkpt lat="-9.1349831" lon="148.4689994"/>
      <trkpt lat="-9.1349560" lon="148.4689117"/>
      <trkpt lat="-9.1349817" lon="148.4688450"/>
    </trkseg>
    <trkseg>
      <trkpt lat="-9.1345867" lon="148.4690250"/>
      <trkpt lat="-9.1345301" lon="148.4688802"/>
      <trkpt lat="-9.1344687" lon="148.4688556"/>
      <trkpt lat="-9.1344007" lon="148.4689509"/>
      <trkpt lat="-9.1343743" lon="148.4690647"/>
      <trkpt lat="-9.1343669" lon="148.4691072"/>
      <trkpt lat="-9.1343283" lon="148.4691239"/>
      <trkpt lat="-9.1342818" lon="148.4690884"/>
      <trkpt lat="-9.1342182" lon="148.4690042"/>
      <trkpt lat="-9.1341951" lon="148.4688259"/>
      <trkpt lat="-9.1342235" lon="148.4686871"/>
      <trkpt lat="-9.1342623" lon="148.4686691"/>
      <trkpt lat="-9.1343057" lon="148.4687722"/>
      <trkpt lat="-9.1343131" lon="148.4689534"/>
      <trkpt lat="-9.1342812" lon="148.4691181"/>
      <trkpt lat="-9.1342176" lon="148.4692691"/>
      <trkpt lat="-9.1341054" lon="148.4693934"/>
      <trkpt lat="-9.1339820" lon="148.4695074"/>
      <trkpt lat="-9.1338371" lon="148.4695897"/>
      <trkpt lat="-9.1336912" lon="148.4696690"/>
      <trkpt lat="-9.1335482" lon="148.4697536"/>
      <trkpt lat="-9.1333996" lon="148.4698466"/>
      <trkpt lat="-9.1332544" lon="148.4699451"/>
      <trkpt lat="-9.1331257" lon="148.4700549"/>
      <trkpt lat="-9.1330358" lon="148.4701900"/>
      <trkpt lat="-9.1329987" lon="148.4703241"/>
      <trkpt lat="-9.1329780" lon="148.4704302"/>
      <trkpt lat="-9.1329339" lon="148.4705299"/>
      <trkpt lat="-9.1328282" lon="148.4705735"/>
      <trkpt lat="-9.1326831" lon="148.4705634"/>
      <trkpt lat="-9.1325248" lon="148.4704824"/>
      <trkpt lat="-9.1323664" lon="148.4704312"/>
      <trkpt lat="-9.1322056" lon="148.4704039"/>
      <trkpt lat="-9.1320595" lon="148.4703679"/>
      <trkpt lat="-9.1319114" lon="148.4703388"/>
      <trkpt lat="-9.1317687" lon="148.4703013"/>
      <trkpt lat="-9.1316264" lon="148.4702713"/>
      <trkpt lat="-9.1314876" lon="148.4702324"/>
      <trkpt lat="-9.1313389" lon="148.4701894"/>
      <trkpt lat="-9.1311866" lon="148.4701355"/>
      <trkpt lat="-9.1310479" lon="148.4700998"/>
      <trkpt lat="-9.1309225" lon="148.4701160"/>
      <trkpt lat="-9.1307803" lon="148.4701885"/>
      <trkpt lat="-9.1306272" lon="148.4702148"/>
      <trkpt lat="-9.1304848" lon="148.4701856"/>
      <trkpt lat="-9.1303630" lon="148.4701002"/>
      <trkpt lat="-9.1302617" lon="148.4699900"/>
      <trkpt lat="-9.1301933" lon="148.4698436"/>
      <trkpt lat="-9.1301436" lon="148.4696806"/>
      <trkpt lat="-9.1300767" lon="148.4695371"/>
      <trkpt lat="-9.1299502" lon="148.4694490"/>
      <trkpt lat="-9.1297965" lon="148.4693817"/>
      <trkpt lat="-9.1296402" lon="148.4693306"/>
      <trkpt lat="-9.1294865" lon="148.4692683"/>
      <trkpt lat="-9.1293225" lon="148.4692222"/>
      <trkpt lat="-9.1291558" lon="148.4691621"/>
      <trkpt lat="-9.1290764" lon="148.4691147"/>
      <trkpt lat="-9.1290833" lon="148.4690850"/>
    </trkseg>
    <trkseg>
      <trkpt lat="-9.1297550" lon="148.4694200"/>
      <trkpt lat="-9.1296648" lon="148.4695687"/>
      <trkpt lat="-9.1296484" lon="148.4697041"/>
      <trkpt lat="-9.1296846" lon="148.4698420"/>
      <trkpt lat="-9.1297242" lon="148.4699598"/>
      <trkpt lat="-9.1296899" lon="148.4700716"/>
      <trkpt lat="-9.1295887" lon="148.4701647"/>
      <trkpt lat="-9.1294816" lon="148.4702807"/>
      <trkpt lat="-9.1293617" lon="148.4704032"/>
      <trkpt lat="-9.1292679" lon="148.4705461"/>
      <trkpt lat="-9.1291601" lon="148.4706810"/>
      <trkpt lat="-9.1290463" lon="148.4707971"/>
      <trkpt lat="-9.1288962" lon="148.4708374"/>
      <trkpt lat="-9.1287377" lon="148.4708427"/>
      <trkpt lat="-9.1285912" lon="148.4708714"/>
      <trkpt lat="-9.1284412" lon="148.4709290"/>
      <trkpt lat="-9.1282893" lon="148.4709536"/>
      <trkpt lat="-9.1281442" lon="148.4708853"/>
      <trkpt lat="-9.1280317" lon="148.4707561"/>
      <trkpt lat="-9.1279359" lon="148.4706064"/>
      <trkpt lat="-9.1278130" lon="148.4705141"/>
      <trkpt lat="-9.1276588" lon="148.4704602"/>
      <trkpt lat="-9.1275095" lon="148.4704087"/>
      <trkpt lat="-9.1273761" lon="148.4703351"/>
      <trkpt lat="-9.1272441" lon="148.4702643"/>
      <trkpt lat="-9.1271109" lon="148.4702534"/>
      <trkpt lat="-9.1270177" lon="148.4702600"/>
      <trkpt lat="-9.1269439" lon="148.4702304"/>
      <trkpt lat="-9.1268549" lon="148.4701515"/>
      <trkpt lat="-9.1267669" lon="148.4700379"/>
      <trkpt lat="-9.1266710" lon="148.4699354"/>
      <trkpt lat="-9.1265827" lon="148.4698383"/>
      <trkpt lat="-9.1264510" lon="148.4697525"/>
      <trkpt lat="-9.1263495" lon="148.4696573"/>
      <trkpt lat="-9.1262910" lon="148.4695763"/>
      <trkpt lat="-9.1262538" lon="148.4694755"/>
      <trkpt lat="-9.1262210" lon="148.4693740"/>
      <trkpt lat="-9.1262284" lon="148.4693055"/>
      <trkpt lat="-9.1262087" lon="148.4692910"/>
      <trkpt lat="-9.1261953" lon="148.4692674"/>
      <trkpt lat="-9.1261521" lon="148.4692540"/>
      <trkpt lat="-9.1261519" lon="148.4692064"/>
      <trkpt lat="-9.1261226" lon="148.4691782"/>
      <trkpt lat="-9.1260847" lon="148.4691074"/>
      <trkpt lat="-9.1260047" lon="148.4690454"/>
      <trkpt lat="-9.1259116" lon="148.4690241"/>
      <trkpt lat="-9.1257869" lon="148.4690176"/>
      <trkpt lat="-9.1257056" lon="148.4689725"/>
      <trkpt lat="-9.1256140" lon="148.4689275"/>
      <trkpt lat="-9.1255199" lon="148.4689011"/>
      <trkpt lat="-9.1254348" lon="148.4688658"/>
      <trkpt lat="-9.1254010" lon="148.4688028"/>
      <trkpt lat="-9.1253686" lon="148.4687044"/>
      <trkpt lat="-9.1252993" lon="148.4686345"/>
      <trkpt lat="-9.1252511" lon="148.4686105"/>
      <trkpt lat="-9.1252421" lon="148.4685494"/>
      <trkpt lat="-9.1252160" lon="148.4685462"/>
      <trkpt lat="-9.1251210" lon="148.4684960"/>
      <trkpt lat="-9.1249553" lon="148.4685016"/>
      <trkpt lat="-9.1248285" lon="148.4685126"/>
      <trkpt lat="-9.1247433" lon="148.4685074"/>
      <trkpt lat="-9.1246921" lon="148.4684941"/>
      <trkpt lat="-9.1246461" lon="148.4684740"/>
      <trkpt lat="-9.1245989" lon="148.4684952"/>
      <trkpt lat="-9.1245543" lon="148.4685667"/>
      <trkpt lat="-9.1245092" lon="148.4686168"/>
      <trkpt lat="-9.1244396" lon="148.4687126"/>
      <trkpt lat="-9.1243556" lon="148.4688094"/>
      <trkpt lat="-9.1242526" lon="148.4689086"/>
      <trkpt lat="-9.1241322" lon="148.4689723"/>
      <trkpt lat="-9.1239896" lon="148.4689859"/>
      <trkpt lat="-9.1238159" lon="148.4689792"/>
      <trkpt lat="-9.1237038" lon="148.4689748"/>
      <trkpt lat="-9.1236783" lon="148.4689207"/>
      <trkpt lat="-9.1236762" lon="148.4688426"/>
      <trkpt lat="-9.1236106" lon="148.4687344"/>
      <trkpt lat="-9.1234699" lon="148.4686500"/>
      <trkpt lat="-9.1233223" lon="148.4685658"/>
      <trkpt lat="-9.1231965" lon="148.4684583"/>
      <trkpt lat="-9.1231395" lon="148.4683339"/>
      <trkpt lat="-9.1231139" lon="148.4681872"/>
      <trkpt lat="-9.1230798" lon="148.4680423"/>
      <trkpt lat="-9.1230155" lon="148.4678859"/>
      <trkpt lat="-9.1229473" lon="148.4677317"/>
      <trkpt lat="-9.1229343" lon="148.4675589"/>
      <trkpt lat="-9.1229527" lon="148.4673920"/>
      <trkpt lat="-9.1230316" lon="148.4672440"/>
      <trkpt lat="-9.1231361" lon="148.4671050"/>
      <trkpt lat="-9.1232745" lon="148.4670024"/>
      <trkpt lat="-9.1234130" lon="148.4669070"/>
      <trkpt lat="-9.1235301" lon="148.4668197"/>
      <trkpt lat="-9.1236415" lon="148.4667181"/>
      <trkpt lat="-9.1237095" lon="148.4666159"/>
      <trkpt lat="-9.1237713" lon="148.4665397"/>
      <trkpt lat="-9.1238142" lon="148.4664447"/>
      <trkpt lat="-9.1238697" lon="148.4663286"/>
      <trkpt lat="-9.1239369" lon="148.4661745"/>
      <trkpt lat="-9.1240029" lon="148.4660183"/>
      <trkpt lat="-9.1241011" lon="148.4658804"/>
      <trkpt lat="-9.1242303" lon="148.4657645"/>
      <trkpt lat="-9.1243875" lon="148.4656863"/>
      <trkpt lat="-9.1245428" lon="148.4656039"/>
      <trkpt lat="-9.1246794" lon="148.4655005"/>
      <trkpt lat="-9.1248108" lon="148.4653809"/>
      <trkpt lat="-9.1249474" lon="148.4653276"/>
      <trkpt lat="-9.1250841" lon="148.4652874"/>
      <trkpt lat="-9.1251889" lon="148.4652233"/>
      <trkpt lat="-9.1252546" lon="148.4650818"/>
      <trkpt lat="-9.1253085" lon="148.4649231"/>
      <trkpt lat="-9.1253263" lon="148.4647646"/>
      <trkpt lat="-9.1253044" lon="148.4646020"/>
      <trkpt lat="-9.1252443" lon="148.4644383"/>
      <trkpt lat="-9.1251884" lon="148.4642713"/>
      <trkpt lat="-9.1251798" lon="148.4641008"/>
      <trkpt lat="-9.1252299" lon="148.4640160"/>
      <trkpt lat="-9.1253479" lon="148.4639755"/>
      <trkpt lat="-9.1255030" lon="148.4640057"/>
      <trkpt lat="-9.1256763" lon="148.4640092"/>
      <trkpt lat="-9.1258515" lon="148.4640146"/>
      <trkpt lat="-9.1260082" lon="148.4640198"/>
      <trkpt lat="-9.1261433" lon="148.4640350"/>
    </trkseg>
    <trkseg>
      <trkpt lat="-9.1261667" lon="148.4640817"/>
      <trkpt lat="-9.1261719" lon="148.4639032"/>
      <trkpt lat="-9.1261365" lon="148.4637360"/>
      <trkpt lat="-9.1261138" lon="148.4635761"/>
      <trkpt lat="-9.1260806" lon="148.4634291"/>
      <trkpt lat="-9.1260307" lon="148.4633030"/>
      <trkpt lat="-9.1259108" lon="148.4631967"/>
      <trkpt lat="-9.1257777" lon="148.4630885"/>
      <trkpt lat="-9.1256820" lon="148.4629535"/>
      <trkpt lat="-9.1256835" lon="148.4628297"/>
      <trkpt lat="-9.1257016" lon="148.4627221"/>
      <trkpt lat="-9.1257021" lon="148.4626164"/>
      <trkpt lat="-9.1256521" lon="148.4624820"/>
      <trkpt lat="-9.1256496" lon="148.4623276"/>
      <trkpt lat="-9.1257085" lon="148.4621750"/>
      <trkpt lat="-9.1257592" lon="148.4620151"/>
      <trkpt lat="-9.1257479" lon="148.4618583"/>
      <trkpt lat="-9.1256574" lon="148.4617175"/>
      <trkpt lat="-9.1255237" lon="148.4616119"/>
      <trkpt lat="-9.1253825" lon="148.4615140"/>
      <trkpt lat="-9.1252400" lon="148.4614740"/>
      <trkpt lat="-9.1250932" lon="148.4614590"/>
      <trkpt lat="-9.1249457" lon="148.4615265"/>
      <trkpt lat="-9.1248002" lon="148.4616057"/>
      <trkpt lat="-9.1246662" lon="148.4616965"/>
      <trkpt lat="-9.1245297" lon="148.4617208"/>
      <trkpt lat="-9.1243987" lon="148.4617265"/>
      <trkpt lat="-9.1242572" lon="148.4617355"/>
      <trkpt lat="-9.1241027" lon="148.4617931"/>
      <trkpt lat="-9.1239504" lon="148.4618328"/>
      <trkpt lat="-9.1238454" lon="148.4617947"/>
      <trkpt lat="-9.1237565" lon="148.4617028"/>
      <trkpt lat="-9.1236599" lon="148.4615857"/>
      <trkpt lat="-9.1235293" lon="148.4614974"/>
      <trkpt lat="-9.1233858" lon="148.4614139"/>
      <trkpt lat="-9.1232310" lon="148.4613432"/>
      <trkpt lat="-9.1230837" lon="148.4612592"/>
      <trkpt lat="-9.1229534" lon="148.4611578"/>
      <trkpt lat="-9.1228648" lon="148.4610250"/>
      <trkpt lat="-9.1227875" lon="148.4608873"/>
      <trkpt lat="-9.1227478" lon="148.4607321"/>
      <trkpt lat="-9.1227271" lon="148.4605619"/>
      <trkpt lat="-9.1227340" lon="148.4603800"/>
      <trkpt lat="-9.1227409" lon="148.4601982"/>
      <trkpt lat="-9.1227478" lon="148.4600164"/>
      <trkpt lat="-9.1227547" lon="148.4598345"/>
      <trkpt lat="-9.1227757" lon="148.4597222"/>
      <trkpt lat="-9.1228303" lon="148.4596332"/>
      <trkpt lat="-9.1228806" lon="148.4595445"/>
      <trkpt lat="-9.1229626" lon="148.4594157"/>
      <trkpt lat="-9.1230125" lon="148.4592671"/>
      <trkpt lat="-9.1230798" lon="148.4591279"/>
      <trkpt lat="-9.1231055" lon="148.4589641"/>
      <trkpt lat="-9.1231311" lon="148.4587986"/>
      <trkpt lat="-9.1231377" lon="148.4586245"/>
      <trkpt lat="-9.1231513" lon="148.4584468"/>
      <trkpt lat="-9.1231637" lon="148.4582675"/>
      <trkpt lat="-9.1231951" lon="148.4580895"/>
      <trkpt lat="-9.1232006" lon="148.4579134"/>
      <trkpt lat="-9.1231989" lon="148.4577391"/>
      <trkpt lat="-9.1232059" lon="148.4575710"/>
      <trkpt lat="-9.1232483" lon="148.4574082"/>
      <trkpt lat="-9.1233323" lon="148.4572562"/>
      <trkpt lat="-9.1234348" lon="148.4571220"/>
      <trkpt lat="-9.1235669" lon="148.4570150"/>
      <trkpt lat="-9.1237147" lon="148.4569344"/>
      <trkpt lat="-9.1238694" lon="148.4568681"/>
      <trkpt lat="-9.1240303" lon="148.4568132"/>
      <trkpt lat="-9.1241899" lon="148.4567487"/>
      <trkpt lat="-9.1243465" lon="148.4566665"/>
      <trkpt lat="-9.1244910" lon="148.4565613"/>
      <trkpt lat="-9.1246218" lon="148.4564444"/>
      <trkpt lat="-9.1247623" lon="148.4563484"/>
      <trkpt lat="-9.1249047" lon="148.4562538"/>
      <trkpt lat="-9.1250579" lon="148.4561760"/>
      <trkpt lat="-9.1251947" lon="148.4561321"/>
      <trkpt lat="-9.1253417" lon="148.4561096"/>
      <trkpt lat="-9.1254747" lon="148.4560723"/>
      <trkpt lat="-9.1256013" lon="148.4559681"/>
      <trkpt lat="-9.1257093" lon="148.4558328"/>
      <trkpt lat="-9.1258342" lon="148.4557133"/>
      <trkpt lat="-9.1259454" lon="148.4555863"/>
      <trkpt lat="-9.1260048" lon="148.4554546"/>
      <trkpt lat="-9.1260619" lon="148.4553777"/>
      <trkpt lat="-9.1261355" lon="148.4553405"/>
      <trkpt lat="-9.1262124" lon="148.4552999"/>
      <trkpt lat="-9.1262541" lon="148.4551880"/>
      <trkpt lat="-9.1262734" lon="148.4550476"/>
      <trkpt lat="-9.1263404" lon="148.4549162"/>
      <trkpt lat="-9.1263876" lon="148.4547735"/>
      <trkpt lat="-9.1264309" lon="148.4546800"/>
      <trkpt lat="-9.1264213" lon="148.4545755"/>
      <trkpt lat="-9.1264113" lon="148.4544842"/>
      <trkpt lat="-9.1264474" lon="148.4543724"/>
      <trkpt lat="-9.1265489" lon="148.4542916"/>
      <trkpt lat="-9.1267155" lon="148.4542461"/>
      <trkpt lat="-9.1268832" lon="148.4542025"/>
      <trkpt lat="-9.1270463" lon="148.4541538"/>
      <trkpt lat="-9.1271890" lon="148.4540630"/>
      <trkpt lat="-9.1273229" lon="148.4539533"/>
      <trkpt lat="-9.1274632" lon="148.4538492"/>
      <trkpt lat="-9.1276228" lon="148.4538063"/>
      <trkpt lat="-9.1277875" lon="148.4538257"/>
      <trkpt lat="-9.1279420" lon="148.4539100"/>
      <trkpt lat="-9.1280722" lon="148.4540290"/>
      <trkpt lat="-9.1281528" lon="148.4541792"/>
      <trkpt lat="-9.1281693" lon="148.4543443"/>
      <trkpt lat="-9.1281340" lon="148.4545177"/>
      <trkpt lat="-9.1280973" lon="148.4546916"/>
      <trkpt lat="-9.1280815" lon="148.4548698"/>
      <trkpt lat="-9.1281181" lon="148.4550339"/>
      <trkpt lat="-9.1282096" lon="148.4551574"/>
      <trkpt lat="-9.1283541" lon="148.4552037"/>
      <trkpt lat="-9.1285136" lon="148.4552071"/>
      <trkpt lat="-9.1286046" lon="148.4552116"/>
      <trkpt lat="-9.1286160" lon="148.4552875"/>
      <trkpt lat="-9.1286183" lon="148.4554041"/>
      <trkpt lat="-9.1286856" lon="148.4555275"/>
      <trkpt lat="-9.1288362" lon="148.4556152"/>
      <trkpt lat="-9.1290039" lon="148.4556815"/>
      <trkpt lat="-9.1291408" lon="148.4557291"/>
      <trkpt lat="-9.1292433" lon="148.4557667"/>
    </trkseg>
    <trkseg>
      <trkpt lat="-9.1292033" lon="148.4558817"/>
      <trkpt lat="-9.1293531" lon="148.4558005"/>
      <trkpt lat="-9.1294920" lon="148.4557275"/>
      <trkpt lat="-9.1296249" lon="148.4556677"/>
      <trkpt lat="-9.1297656" lon="148.4556421"/>
      <trkpt lat="-9.1299078" lon="148.4556013"/>
      <trkpt lat="-9.1300435" lon="148.4555713"/>
      <trkpt lat="-9.1301705" lon="148.4555657"/>
      <trkpt lat="-9.1302743" lon="148.4556486"/>
      <trkpt lat="-9.1303564" lon="148.4557732"/>
      <trkpt lat="-9.1304401" lon="148.4558919"/>
      <trkpt lat="-9.1305396" lon="148.4559266"/>
      <trkpt lat="-9.1306687" lon="148.4558837"/>
      <trkpt lat="-9.1307728" lon="148.4558642"/>
      <trkpt lat="-9.1308988" lon="148.4558529"/>
      <trkpt lat="-9.1310402" lon="148.4558753"/>
      <trkpt lat="-9.1312100" lon="148.4558305"/>
      <trkpt lat="-9.1313847" lon="148.4558113"/>
      <trkpt lat="-9.1315525" lon="148.4558238"/>
      <trkpt lat="-9.1317234" lon="148.4558644"/>
      <trkpt lat="-9.1318917" lon="148.4559223"/>
      <trkpt lat="-9.1319927" lon="148.4559623"/>
      <trkpt lat="-9.1320200" lon="148.4560000"/>
    </trkseg>
    <trkseg>
      <trkpt lat="-9.1321150" lon="148.4560000"/>
      <trkpt lat="-9.1322864" lon="148.4560473"/>
      <trkpt lat="-9.1324608" lon="148.4560832"/>
      <trkpt lat="-9.1326384" lon="148.4561080"/>
      <trkpt lat="-9.1328140" lon="148.4561392"/>
      <trkpt lat="-9.1329866" lon="148.4561851"/>
      <trkpt lat="-9.1331588" lon="148.4562362"/>
      <trkpt lat="-9.1333340" lon="148.4562757"/>
      <trkpt lat="-9.1335085" lon="148.4563175"/>
      <trkpt lat="-9.1336823" lon="148.4563604"/>
      <trkpt lat="-9.1338560" lon="148.4564061"/>
      <trkpt lat="-9.1340313" lon="148.4564471"/>
      <trkpt lat="-9.1342057" lon="148.4564943"/>
      <trkpt lat="-9.1343811" lon="148.4565349"/>
      <trkpt lat="-9.1345557" lon="148.4565749"/>
      <trkpt lat="-9.1347142" lon="148.4565715"/>
      <trkpt lat="-9.1348545" lon="148.4565218"/>
      <trkpt lat="-9.1349855" lon="148.4564221"/>
      <trkpt lat="-9.1351237" lon="148.4563143"/>
      <trkpt lat="-9.1352589" lon="148.4561994"/>
      <trkpt lat="-9.1353995" lon="148.4561021"/>
      <trkpt lat="-9.1355236" lon="148.4559928"/>
      <trkpt lat="-9.1356279" lon="148.4558719"/>
      <trkpt lat="-9.1357178" lon="148.4557277"/>
      <trkpt lat="-9.1358343" lon="148.4556191"/>
      <trkpt lat="-9.1359827" lon="148.4555364"/>
      <trkpt lat="-9.1361474" lon="148.4554791"/>
      <trkpt lat="-9.1362758" lon="148.4554319"/>
      <trkpt lat="-9.1363767" lon="148.4554150"/>
    </trkseg>
    <trkseg>
      <trkpt lat="-9.1364450" lon="148.4554750"/>
      <trkpt lat="-9.1366178" lon="148.4555060"/>
      <trkpt lat="-9.1367934" lon="148.4555094"/>
      <trkpt lat="-9.1369713" lon="148.4554815"/>
      <trkpt lat="-9.1371442" lon="148.4554381"/>
      <trkpt lat="-9.1373046" lon="148.4553645"/>
      <trkpt lat="-9.1374507" lon="148.4552617"/>
      <trkpt lat="-9.1375815" lon="148.4551372"/>
      <trkpt lat="-9.1377051" lon="148.4550050"/>
      <trkpt lat="-9.1378302" lon="148.4548747"/>
      <trkpt lat="-9.1379566" lon="148.4547456"/>
      <trkpt lat="-9.1380895" lon="148.4546352"/>
      <trkpt lat="-9.1381899" lon="148.4545046"/>
      <trkpt lat="-9.1382932" lon="148.4543835"/>
      <trkpt lat="-9.1384062" lon="148.4542700"/>
      <trkpt lat="-9.1385608" lon="148.4541932"/>
      <trkpt lat="-9.1387166" lon="148.4541321"/>
      <trkpt lat="-9.1388007" lon="148.4541483"/>
      <trkpt lat="-9.1388202" lon="148.4542453"/>
      <trkpt lat="-9.1388312" lon="148.4544085"/>
      <trkpt lat="-9.1388902" lon="148.4545629"/>
      <trkpt lat="-9.1389932" lon="148.4547053"/>
      <trkpt lat="-9.1390747" lon="148.4548360"/>
      <trkpt lat="-9.1391754" lon="148.4548939"/>
      <trkpt lat="-9.1392944" lon="148.4548829"/>
      <trkpt lat="-9.1394559" lon="148.4548185"/>
      <trkpt lat="-9.1396057" lon="148.4547522"/>
      <trkpt lat="-9.1397296" lon="148.4546566"/>
      <trkpt lat="-9.1398443" lon="148.4545503"/>
      <trkpt lat="-9.1399596" lon="148.4544315"/>
      <trkpt lat="-9.1400642" lon="148.4543062"/>
      <trkpt lat="-9.1401695" lon="148.4542005"/>
      <trkpt lat="-9.1402830" lon="148.4541688"/>
      <trkpt lat="-9.1404287" lon="148.4542232"/>
      <trkpt lat="-9.1404738" lon="148.4543160"/>
      <trkpt lat="-9.1404777" lon="148.4544205"/>
      <trkpt lat="-9.1404861" lon="148.4545235"/>
      <trkpt lat="-9.1405978" lon="148.4546270"/>
      <trkpt lat="-9.1407619" lon="148.4546768"/>
      <trkpt lat="-9.1409315" lon="148.4546946"/>
      <trkpt lat="-9.1411062" lon="148.4546612"/>
      <trkpt lat="-9.1412806" lon="148.4546279"/>
      <trkpt lat="-9.1414558" lon="148.4546039"/>
      <trkpt lat="-9.1416348" lon="148.4546093"/>
      <trkpt lat="-9.1418027" lon="148.4546557"/>
      <trkpt lat="-9.1419680" lon="148.4547142"/>
      <trkpt lat="-9.1421269" lon="148.4547928"/>
      <trkpt lat="-9.1422914" lon="148.4548606"/>
      <trkpt lat="-9.1424542" lon="148.4549320"/>
      <trkpt lat="-9.1426231" lon="148.4549686"/>
      <trkpt lat="-9.1427661" lon="148.4550177"/>
      <trkpt lat="-9.1428775" lon="148.4550855"/>
      <trkpt lat="-9.1429839" lon="148.4551875"/>
      <trkpt lat="-9.1431197" lon="148.4552687"/>
      <trkpt lat="-9.1432888" lon="148.4553249"/>
      <trkpt lat="-9.1434599" lon="148.4553714"/>
      <trkpt lat="-9.1436335" lon="148.4554036"/>
      <trkpt lat="-9.1438050" lon="148.4554402"/>
      <trkpt lat="-9.1439802" lon="148.4554617"/>
      <trkpt lat="-9.1441551" lon="148.4554905"/>
      <trkpt lat="-9.1443348" lon="148.4555063"/>
      <trkpt lat="-9.1445119" lon="148.4555035"/>
      <trkpt lat="-9.1446894" lon="148.4554895"/>
      <trkpt lat="-9.1448659" lon="148.4554786"/>
      <trkpt lat="-9.1450434" lon="148.4554967"/>
      <trkpt lat="-9.1452119" lon="148.4555495"/>
      <trkpt lat="-9.1453743" lon="148.4556226"/>
      <trkpt lat="-9.1455375" lon="148.4556926"/>
      <trkpt lat="-9.1456953" lon="148.4557688"/>
      <trkpt lat="-9.1458485" lon="148.4558510"/>
      <trkpt lat="-9.1459815" lon="148.4559285"/>
      <trkpt lat="-9.1461083" lon="148.4559717"/>
    </trkseg>
    <trkseg>
      <trkpt lat="-9.1462250" lon="148.4560750"/>
      <trkpt lat="-9.1463001" lon="148.4562386"/>
      <trkpt lat="-9.1463737" lon="148.4564031"/>
      <trkpt lat="-9.1464265" lon="148.4565722"/>
      <trkpt lat="-9.1464986" lon="148.4567228"/>
      <trkpt lat="-9.1465923" lon="148.4568542"/>
      <trkpt lat="-9.1467119" lon="148.4569773"/>
      <trkpt lat="-9.1468171" lon="148.4571149"/>
      <trkpt lat="-9.1468942" lon="148.4572745"/>
      <trkpt lat="-9.1469664" lon="148.4574363"/>
      <trkpt lat="-9.1470415" lon="148.4575976"/>
      <trkpt lat="-9.1471392" lon="148.4577462"/>
      <trkpt lat="-9.1472552" lon="148.4578842"/>
      <trkpt lat="-9.1473679" lon="148.4580243"/>
      <trkpt lat="-9.1474607" lon="148.4581750"/>
      <trkpt lat="-9.1475416" lon="148.4583349"/>
      <trkpt lat="-9.1476236" lon="148.4584934"/>
      <trkpt lat="-9.1477082" lon="148.4586522"/>
      <trkpt lat="-9.1477711" lon="148.4588186"/>
      <trkpt lat="-9.1478019" lon="148.4589940"/>
      <trkpt lat="-9.1477727" lon="148.4591566"/>
      <trkpt lat="-9.1477010" lon="148.4593097"/>
      <trkpt lat="-9.1476103" lon="148.4594609"/>
      <trkpt lat="-9.1475101" lon="148.4596045"/>
      <trkpt lat="-9.1474085" lon="148.4597450"/>
      <trkpt lat="-9.1472891" lon="148.4598747"/>
      <trkpt lat="-9.1471780" lon="148.4600123"/>
      <trkpt lat="-9.1470571" lon="148.4601435"/>
      <trkpt lat="-9.1469453" lon="148.4602798"/>
      <trkpt lat="-9.1468317" lon="148.4604119"/>
      <trkpt lat="-9.1467451" lon="148.4605463"/>
      <trkpt lat="-9.1466683" lon="148.4606717"/>
    </trkseg>
    <trkseg>
      <trkpt lat="-9.1467200" lon="148.4605967"/>
      <trkpt lat="-9.1466840" lon="148.4607731"/>
      <trkpt lat="-9.1466596" lon="148.4609503"/>
      <trkpt lat="-9.1466550" lon="148.4611277"/>
      <trkpt lat="-9.1466791" lon="148.4613070"/>
      <trkpt lat="-9.1467027" lon="148.4614861"/>
      <trkpt lat="-9.1467389" lon="148.4616613"/>
      <trkpt lat="-9.1467934" lon="148.4618297"/>
      <trkpt lat="-9.1468785" lon="148.4619892"/>
      <trkpt lat="-9.1469722" lon="148.4621446"/>
      <trkpt lat="-9.1470554" lon="148.4623048"/>
      <trkpt lat="-9.1471205" lon="148.4624713"/>
      <trkpt lat="-9.1472037" lon="148.4626190"/>
      <trkpt lat="-9.1473070" lon="148.4627543"/>
      <trkpt lat="-9.1474512" lon="148.4628459"/>
      <trkpt lat="-9.1475924" lon="148.4629327"/>
      <trkpt lat="-9.1477322" lon="148.4630210"/>
      <trkpt lat="-9.1478660" lon="148.4631306"/>
      <trkpt lat="-9.1479853" lon="148.4632563"/>
      <trkpt lat="-9.1480900" lon="148.4633889"/>
      <trkpt lat="-9.1481615" lon="148.4635449"/>
      <trkpt lat="-9.1482154" lon="148.4637154"/>
      <trkpt lat="-9.1482691" lon="148.4638883"/>
      <trkpt lat="-9.1483360" lon="148.4640558"/>
      <trkpt lat="-9.1483849" lon="148.4642177"/>
      <trkpt lat="-9.1483745" lon="148.4643639"/>
      <trkpt lat="-9.1483339" lon="148.4645153"/>
      <trkpt lat="-9.1483188" lon="148.4646683"/>
      <trkpt lat="-9.1483625" lon="148.4648307"/>
      <trkpt lat="-9.1484397" lon="148.4649195"/>
      <trkpt lat="-9.1485384" lon="148.4649831"/>
      <trkpt lat="-9.1486005" lon="148.4650484"/>
      <trkpt lat="-9.1486370" lon="148.4651866"/>
      <trkpt lat="-9.1486545" lon="148.4653509"/>
      <trkpt lat="-9.1486853" lon="148.4654648"/>
      <trkpt lat="-9.1487100" lon="148.4655217"/>
    </trkseg>
  </trk>
  <trk>
    <name>Riribudeh - Unido Ose</name>
    <desc>Walked by Unido Ose. 10.0 km, 28 track(s), recorded on the ground. Riribudeh, Zone 8.</desc>
    <type>walked-boundary</type>
    <trkseg>
      <trkpt lat="-9.1462000" lon="148.4560350"/>
      <trkpt lat="-9.1462741" lon="148.4561973"/>
      <trkpt lat="-9.1463506" lon="148.4563594"/>
      <trkpt lat="-9.1464074" lon="148.4565281"/>
      <trkpt lat="-9.1464782" lon="148.4566853"/>
      <trkpt lat="-9.1465667" lon="148.4568271"/>
      <trkpt lat="-9.1466785" lon="148.4569608"/>
      <trkpt lat="-9.1467940" lon="148.4570957"/>
      <trkpt lat="-9.1468825" lon="148.4572499"/>
      <trkpt lat="-9.1469627" lon="148.4574077"/>
      <trkpt lat="-9.1470391" lon="148.4575690"/>
      <trkpt lat="-9.1471357" lon="148.4577189"/>
      <trkpt lat="-9.1472494" lon="148.4578600"/>
      <trkpt lat="-9.1473584" lon="148.4580032"/>
      <trkpt lat="-9.1474507" lon="148.4581565"/>
      <trkpt lat="-9.1475349" lon="148.4583150"/>
      <trkpt lat="-9.1476205" lon="148.4584718"/>
      <trkpt lat="-9.1477051" lon="148.4586276"/>
      <trkpt lat="-9.1477707" lon="148.4587908"/>
      <trkpt lat="-9.1478089" lon="148.4589630"/>
      <trkpt lat="-9.1477882" lon="148.4591259"/>
      <trkpt lat="-9.1477242" lon="148.4592810"/>
      <trkpt lat="-9.1476303" lon="148.4594324"/>
      <trkpt lat="-9.1475299" lon="148.4595792"/>
      <trkpt lat="-9.1474230" lon="148.4597208"/>
      <trkpt lat="-9.1473070" lon="148.4598572"/>
      <trkpt lat="-9.1471911" lon="148.4599922"/>
      <trkpt lat="-9.1470725" lon="148.4601251"/>
      <trkpt lat="-9.1469558" lon="148.4602600"/>
      <trkpt lat="-9.1468525" lon="148.4603874"/>
      <trkpt lat="-9.1467600" lon="148.4605033"/>
    </trkseg>
    <trkseg>
      <trkpt lat="-9.1285617" lon="148.4553850"/>
      <trkpt lat="-9.1286699" lon="148.4555136"/>
      <trkpt lat="-9.1288067" lon="148.4556139"/>
      <trkpt lat="-9.1289747" lon="148.4556767"/>
      <trkpt lat="-9.1291021" lon="148.4557135"/>
      <trkpt lat="-9.1291867" lon="148.4557283"/>
    </trkseg>
    <trkseg>
      <trkpt lat="-9.1441733" lon="148.4687867"/>
      <trkpt lat="-9.1441391" lon="148.4689470"/>
      <trkpt lat="-9.1440957" lon="148.4691121"/>
      <trkpt lat="-9.1440344" lon="148.4692735"/>
      <trkpt lat="-9.1439901" lon="148.4694417"/>
      <trkpt lat="-9.1439323" lon="148.4696058"/>
      <trkpt lat="-9.1438662" lon="148.4697717"/>
      <trkpt lat="-9.1437766" lon="148.4699283"/>
      <trkpt lat="-9.1436852" lon="148.4700835"/>
      <trkpt lat="-9.1436091" lon="148.4702283"/>
      <trkpt lat="-9.1435533" lon="148.4703650"/>
    </trkseg>
    <trkseg>
      <trkpt lat="-9.1228417" lon="148.4609883"/>
      <trkpt lat="-9.1228036" lon="148.4608247"/>
      <trkpt lat="-9.1227396" lon="148.4606780"/>
      <trkpt lat="-9.1226752" lon="148.4605329"/>
      <trkpt lat="-9.1226669" lon="148.4603830"/>
      <trkpt lat="-9.1227109" lon="148.4602189"/>
      <trkpt lat="-9.1227934" lon="148.4600626"/>
      <trkpt lat="-9.1228403" lon="148.4599001"/>
      <trkpt lat="-9.1228945" lon="148.4597447"/>
      <trkpt lat="-9.1229151" lon="148.4595806"/>
      <trkpt lat="-9.1229904" lon="148.4594408"/>
      <trkpt lat="-9.1230412" lon="148.4592934"/>
      <trkpt lat="-9.1231222" lon="148.4591511"/>
      <trkpt lat="-9.1231724" lon="148.4590080"/>
      <trkpt lat="-9.1232029" lon="148.4588658"/>
      <trkpt lat="-9.1231872" lon="148.4587350"/>
      <trkpt lat="-9.1231509" lon="148.4585908"/>
      <trkpt lat="-9.1231236" lon="148.4584600"/>
      <trkpt lat="-9.1231310" lon="148.4583755"/>
      <trkpt lat="-9.1231523" lon="148.4582790"/>
      <trkpt lat="-9.1231818" lon="148.4581681"/>
      <trkpt lat="-9.1232165" lon="148.4580003"/>
      <trkpt lat="-9.1232336" lon="148.4578386"/>
      <trkpt lat="-9.1232283" lon="148.4576961"/>
      <trkpt lat="-9.1232362" lon="148.4575577"/>
      <trkpt lat="-9.1232561" lon="148.4574146"/>
      <trkpt lat="-9.1233314" lon="148.4572608"/>
      <trkpt lat="-9.1234232" lon="148.4571263"/>
      <trkpt lat="-9.1235639" lon="148.4570285"/>
      <trkpt lat="-9.1237306" lon="148.4569682"/>
      <trkpt lat="-9.1238679" lon="148.4569040"/>
      <trkpt lat="-9.1239262" lon="148.4568985"/>
      <trkpt lat="-9.1239561" lon="148.4568924"/>
      <trkpt lat="-9.1240052" lon="148.4568791"/>
      <trkpt lat="-9.1241355" lon="148.4568324"/>
      <trkpt lat="-9.1242338" lon="148.4568134"/>
      <trkpt lat="-9.1243181" lon="148.4567963"/>
      <trkpt lat="-9.1243895" lon="148.4567345"/>
      <trkpt lat="-9.1244955" lon="148.4566102"/>
      <trkpt lat="-9.1245864" lon="148.4565346"/>
      <trkpt lat="-9.1246769" lon="148.4564586"/>
      <trkpt lat="-9.1247905" lon="148.4564125"/>
      <trkpt lat="-9.1248979" lon="148.4564063"/>
      <trkpt lat="-9.1249785" lon="148.4563967"/>
      <trkpt lat="-9.1250365" lon="148.4563590"/>
      <trkpt lat="-9.1251411" lon="148.4562983"/>
      <trkpt lat="-9.1252396" lon="148.4562239"/>
      <trkpt lat="-9.1253520" lon="148.4561723"/>
      <trkpt lat="-9.1254694" lon="148.4560758"/>
      <trkpt lat="-9.1255619" lon="148.4560904"/>
      <trkpt lat="-9.1255522" lon="148.4561381"/>
      <trkpt lat="-9.1254764" lon="148.4561614"/>
      <trkpt lat="-9.1253906" lon="148.4561811"/>
      <trkpt lat="-9.1253744" lon="148.4561903"/>
      <trkpt lat="-9.1254179" lon="148.4562202"/>
      <trkpt lat="-9.1254967" lon="148.4561433"/>
      <trkpt lat="-9.1255936" lon="148.4560170"/>
      <trkpt lat="-9.1256960" lon="148.4558959"/>
      <trkpt lat="-9.1258377" lon="148.4558017"/>
      <trkpt lat="-9.1259754" lon="148.4557033"/>
      <trkpt lat="-9.1260498" lon="148.4555657"/>
      <trkpt lat="-9.1260723" lon="148.4554022"/>
      <trkpt lat="-9.1260814" lon="148.4553014"/>
      <trkpt lat="-9.1260866" lon="148.4553028"/>
      <trkpt lat="-9.1261498" lon="148.4553736"/>
      <trkpt lat="-9.1261847" lon="148.4554650"/>
      <trkpt lat="-9.1262679" lon="148.4555224"/>
      <trkpt lat="-9.1262877" lon="148.4555064"/>
      <trkpt lat="-9.1263141" lon="148.4554017"/>
      <trkpt lat="-9.1263158" lon="148.4552542"/>
      <trkpt lat="-9.1263292" lon="148.4551688"/>
      <trkpt lat="-9.1263017" lon="148.4551034"/>
      <trkpt lat="-9.1262990" lon="148.4550841"/>
      <trkpt lat="-9.1262920" lon="148.4550669"/>
      <trkpt lat="-9.1263333" lon="148.4550917"/>
    </trkseg>
    <trkseg>
      <trkpt lat="-9.1353500" lon="148.4560967"/>
      <trkpt lat="-9.1354893" lon="148.4560062"/>
      <trkpt lat="-9.1355981" lon="148.4558832"/>
      <trkpt lat="-9.1356914" lon="148.4557357"/>
      <trkpt lat="-9.1357991" lon="148.4556012"/>
      <trkpt lat="-9.1359415" lon="148.4555040"/>
      <trkpt lat="-9.1361005" lon="148.4554391"/>
      <trkpt lat="-9.1362600" lon="148.4553867"/>
    </trkseg>
    <trkseg>
      <trkpt lat="-9.1364650" lon="148.4553733"/>
      <trkpt lat="-9.1366196" lon="148.4554191"/>
      <trkpt lat="-9.1367831" lon="148.4554455"/>
      <trkpt lat="-9.1369553" lon="148.4554516"/>
      <trkpt lat="-9.1371278" lon="148.4554079"/>
      <trkpt lat="-9.1372877" lon="148.4553350"/>
      <trkpt lat="-9.1374329" lon="148.4552321"/>
      <trkpt lat="-9.1375644" lon="148.4551096"/>
      <trkpt lat="-9.1376916" lon="148.4549824"/>
      <trkpt lat="-9.1378184" lon="148.4548557"/>
      <trkpt lat="-9.1379442" lon="148.4547274"/>
      <trkpt lat="-9.1380409" lon="148.4546279"/>
      <trkpt lat="-9.1381067" lon="148.4545533"/>
    </trkseg>
    <trkseg>
      <trkpt lat="-9.1474033" lon="148.4628767"/>
      <trkpt lat="-9.1475618" lon="148.4629384"/>
      <trkpt lat="-9.1477070" lon="148.4630232"/>
      <trkpt lat="-9.1478429" lon="148.4631269"/>
      <trkpt lat="-9.1479716" lon="148.4632495"/>
      <trkpt lat="-9.1480853" lon="148.4633818"/>
      <trkpt lat="-9.1481720" lon="148.4635316"/>
      <trkpt lat="-9.1482252" lon="148.4637030"/>
      <trkpt lat="-9.1482787" lon="148.4638748"/>
      <trkpt lat="-9.1483409" lon="148.4640424"/>
      <trkpt lat="-9.1483876" lon="148.4642095"/>
      <trkpt lat="-9.1483707" lon="148.4643694"/>
      <trkpt lat="-9.1483158" lon="148.4645304"/>
      <trkpt lat="-9.1483095" lon="148.4646721"/>
      <trkpt lat="-9.1483488" lon="148.4648260"/>
      <trkpt lat="-9.1484422" lon="148.4649506"/>
      <trkpt lat="-9.1485267" lon="148.4650558"/>
      <trkpt lat="-9.1485812" lon="148.4651531"/>
      <trkpt lat="-9.1486194" lon="148.4652761"/>
      <trkpt lat="-9.1486452" lon="148.4654237"/>
      <trkpt lat="-9.1487133" lon="148.4655650"/>
    </trkseg>
    <trkseg>
      <trkpt lat="-9.1485767" lon="148.4653783"/>
      <trkpt lat="-9.1485019" lon="148.4655149"/>
      <trkpt lat="-9.1484417" lon="148.4656390"/>
      <trkpt lat="-9.1483709" lon="148.4657479"/>
      <trkpt lat="-9.1482814" lon="148.4658632"/>
      <trkpt lat="-9.1481574" lon="148.4659734"/>
      <trkpt lat="-9.1480305" lon="148.4660885"/>
      <trkpt lat="-9.1479058" lon="148.4661853"/>
      <trkpt lat="-9.1477663" lon="148.4662592"/>
      <trkpt lat="-9.1476074" lon="148.4663123"/>
      <trkpt lat="-9.1474747" lon="148.4664051"/>
      <trkpt lat="-9.1473494" lon="148.4665120"/>
      <trkpt lat="-9.1472768" lon="148.4665935"/>
      <trkpt lat="-9.1472283" lon="148.4666250"/>
    </trkseg>
    <trkseg>
      <trkpt lat="-9.1411450" lon="148.4546600"/>
      <trkpt lat="-9.1413157" lon="148.4546141"/>
      <trkpt lat="-9.1414912" lon="148.4545868"/>
      <trkpt lat="-9.1416677" lon="148.4545990"/>
      <trkpt lat="-9.1418338" lon="148.4546480"/>
      <trkpt lat="-9.1419961" lon="148.4547213"/>
      <trkpt lat="-9.1421518" lon="148.4548095"/>
      <trkpt lat="-9.1423141" lon="148.4548708"/>
      <trkpt lat="-9.1424720" lon="148.4549365"/>
      <trkpt lat="-9.1426398" lon="148.4549680"/>
      <trkpt lat="-9.1427737" lon="148.4550419"/>
      <trkpt lat="-9.1429060" lon="148.4551140"/>
      <trkpt lat="-9.1430319" lon="148.4552141"/>
      <trkpt lat="-9.1431912" lon="148.4552854"/>
      <trkpt lat="-9.1433593" lon="148.4553440"/>
      <trkpt lat="-9.1435338" lon="148.4553826"/>
      <trkpt lat="-9.1437093" lon="148.4553905"/>
      <trkpt lat="-9.1438807" lon="148.4553961"/>
      <trkpt lat="-9.1440475" lon="148.4554179"/>
      <trkpt lat="-9.1442146" lon="148.4554529"/>
      <trkpt lat="-9.1443835" lon="148.4554907"/>
      <trkpt lat="-9.1445533" lon="148.4554856"/>
      <trkpt lat="-9.1447262" lon="148.4554735"/>
      <trkpt lat="-9.1449010" lon="148.4554622"/>
      <trkpt lat="-9.1450758" lon="148.4554935"/>
      <trkpt lat="-9.1452426" lon="148.4555585"/>
      <trkpt lat="-9.1454035" lon="148.4556362"/>
      <trkpt lat="-9.1455666" lon="148.4557053"/>
      <trkpt lat="-9.1457267" lon="148.4557788"/>
      <trkpt lat="-9.1458836" lon="148.4558568"/>
      <trkpt lat="-9.1460316" lon="148.4559375"/>
      <trkpt lat="-9.1461800" lon="148.4560000"/>
    </trkseg>
    <trkseg>
      <trkpt lat="-9.1248550" lon="148.4615250"/>
      <trkpt lat="-9.1247216" lon="148.4616423"/>
      <trkpt lat="-9.1245863" lon="148.4616906"/>
      <trkpt lat="-9.1244338" lon="148.4616939"/>
      <trkpt lat="-9.1242869" lon="148.4617050"/>
      <trkpt lat="-9.1241250" lon="148.4617478"/>
      <trkpt lat="-9.1239947" lon="148.4618026"/>
      <trkpt lat="-9.1238835" lon="148.4617660"/>
      <trkpt lat="-9.1238105" lon="148.4616824"/>
      <trkpt lat="-9.1237499" lon="148.4615946"/>
      <trkpt lat="-9.1236717" lon="148.4615229"/>
      <trkpt lat="-9.1235826" lon="148.4614781"/>
      <trkpt lat="-9.1234776" lon="148.4614097"/>
      <trkpt lat="-9.1233598" lon="148.4613587"/>
      <trkpt lat="-9.1232202" lon="148.4613029"/>
      <trkpt lat="-9.1230798" lon="148.4612358"/>
      <trkpt lat="-9.1229612" lon="148.4611472"/>
      <trkpt lat="-9.1228746" lon="148.4610455"/>
      <trkpt lat="-9.1227983" lon="148.4609400"/>
    </trkseg>
    <trkseg>
      <trkpt lat="-9.1466733" lon="148.4606317"/>
      <trkpt lat="-9.1466728" lon="148.4608035"/>
      <trkpt lat="-9.1466602" lon="148.4609785"/>
      <trkpt lat="-9.1466585" lon="148.4611543"/>
      <trkpt lat="-9.1466766" lon="148.4613315"/>
      <trkpt lat="-9.1467034" lon="148.4615091"/>
      <trkpt lat="-9.1467351" lon="148.4616847"/>
      <trkpt lat="-9.1467958" lon="148.4618483"/>
      <trkpt lat="-9.1468862" lon="148.4620028"/>
      <trkpt lat="-9.1469851" lon="148.4621537"/>
      <trkpt lat="-9.1470638" lon="148.4623153"/>
      <trkpt lat="-9.1471326" lon="148.4624819"/>
      <trkpt lat="-9.1472152" lon="148.4626362"/>
      <trkpt lat="-9.1473109" lon="148.4627561"/>
      <trkpt lat="-9.1474150" lon="148.4628433"/>
    </trkseg>
    <trkseg>
      <trkpt lat="-9.1435600" lon="148.4703750"/>
      <trkpt lat="-9.1434017" lon="148.4702877"/>
      <trkpt lat="-9.1432397" lon="148.4702089"/>
      <trkpt lat="-9.1430759" lon="148.4701359"/>
      <trkpt lat="-9.1429184" lon="148.4700536"/>
      <trkpt lat="-9.1427692" lon="148.4699574"/>
      <trkpt lat="-9.1426340" lon="148.4698444"/>
      <trkpt lat="-9.1424907" lon="148.4697642"/>
      <trkpt lat="-9.1423451" lon="148.4697020"/>
      <trkpt lat="-9.1421876" lon="148.4696633"/>
      <trkpt lat="-9.1420456" lon="148.4695906"/>
      <trkpt lat="-9.1419005" lon="148.4695078"/>
      <trkpt lat="-9.1417557" lon="148.4694306"/>
      <trkpt lat="-9.1416188" lon="148.4694447"/>
      <trkpt lat="-9.1415004" lon="148.4695315"/>
      <trkpt lat="-9.1414186" lon="148.4696617"/>
      <trkpt lat="-9.1413517" lon="148.4697733"/>
    </trkseg>
    <trkseg>
      <trkpt lat="-9.1365717" lon="148.4706867"/>
      <trkpt lat="-9.1365073" lon="148.4707416"/>
      <trkpt lat="-9.1363907" lon="148.4707699"/>
      <trkpt lat="-9.1362217" lon="148.4707717"/>
    </trkseg>
    <trkseg>
      <trkpt lat="-9.1309617" lon="148.4699950"/>
      <trkpt lat="-9.1308596" lon="148.4701280"/>
      <trkpt lat="-9.1307242" lon="148.4702165"/>
      <trkpt lat="-9.1305966" lon="148.4702449"/>
      <trkpt lat="-9.1305067" lon="148.4702467"/>
    </trkseg>
    <trkseg>
      <trkpt lat="-9.1303883" lon="148.4701500"/>
      <trkpt lat="-9.1302708" lon="148.4700196"/>
      <trkpt lat="-9.1301953" lon="148.4698728"/>
      <trkpt lat="-9.1301319" lon="148.4697160"/>
      <trkpt lat="-9.1300606" lon="148.4695739"/>
      <trkpt lat="-9.1299305" lon="148.4694733"/>
      <trkpt lat="-9.1297746" lon="148.4693978"/>
      <trkpt lat="-9.1296131" lon="148.4693201"/>
      <trkpt lat="-9.1294486" lon="148.4692637"/>
      <trkpt lat="-9.1292823" lon="148.4692146"/>
      <trkpt lat="-9.1291340" lon="148.4691754"/>
      <trkpt lat="-9.1290117" lon="148.4691117"/>
    </trkseg>
    <trkseg>
      <trkpt lat="-9.1297450" lon="148.4694983"/>
      <trkpt lat="-9.1296535" lon="148.4696009"/>
      <trkpt lat="-9.1296234" lon="148.4697038"/>
      <trkpt lat="-9.1296671" lon="148.4697969"/>
      <trkpt lat="-9.1297485" lon="148.4699402"/>
      <trkpt lat="-9.1297424" lon="148.4700499"/>
      <trkpt lat="-9.1296391" lon="148.4701442"/>
      <trkpt lat="-9.1295240" lon="148.4702453"/>
      <trkpt lat="-9.1294225" lon="148.4703711"/>
      <trkpt lat="-9.1293434" lon="148.4705244"/>
      <trkpt lat="-9.1292269" lon="148.4706570"/>
      <trkpt lat="-9.1291049" lon="148.4707864"/>
      <trkpt lat="-9.1289587" lon="148.4708617"/>
      <trkpt lat="-9.1288048" lon="148.4708807"/>
      <trkpt lat="-9.1286514" lon="148.4708997"/>
      <trkpt lat="-9.1284956" lon="148.4709355"/>
      <trkpt lat="-9.1283367" lon="148.4709682"/>
      <trkpt lat="-9.1281915" lon="148.4709141"/>
      <trkpt lat="-9.1280706" lon="148.4707956"/>
      <trkpt lat="-9.1279732" lon="148.4706490"/>
      <trkpt lat="-9.1278647" lon="148.4705259"/>
      <trkpt lat="-9.1277382" lon="148.4704646"/>
      <trkpt lat="-9.1276013" lon="148.4704087"/>
      <trkpt lat="-9.1274600" lon="148.4703423"/>
      <trkpt lat="-9.1273334" lon="148.4702662"/>
      <trkpt lat="-9.1272133" lon="148.4702350"/>
    </trkseg>
    <trkseg>
      <trkpt lat="-9.1262133" lon="148.4550633"/>
      <trkpt lat="-9.1262903" lon="148.4549639"/>
      <trkpt lat="-9.1263714" lon="148.4548473"/>
      <trkpt lat="-9.1264250" lon="148.4546994"/>
      <trkpt lat="-9.1264593" lon="148.4545969"/>
      <trkpt lat="-9.1264265" lon="148.4544950"/>
      <trkpt lat="-9.1263887" lon="148.4544269"/>
      <trkpt lat="-9.1264145" lon="148.4543484"/>
      <trkpt lat="-9.1265287" lon="148.4543003"/>
      <trkpt lat="-9.1266977" lon="148.4542638"/>
      <trkpt lat="-9.1268671" lon="148.4542266"/>
      <trkpt lat="-9.1270334" lon="148.4541827"/>
      <trkpt lat="-9.1271908" lon="148.4541145"/>
      <trkpt lat="-9.1273431" lon="148.4540269"/>
      <trkpt lat="-9.1274793" lon="148.4539148"/>
      <trkpt lat="-9.1276299" lon="148.4538480"/>
      <trkpt lat="-9.1277830" lon="148.4538258"/>
      <trkpt lat="-9.1279389" lon="148.4538918"/>
      <trkpt lat="-9.1280739" lon="148.4539961"/>
      <trkpt lat="-9.1281531" lon="148.4541407"/>
      <trkpt lat="-9.1281795" lon="148.4543023"/>
      <trkpt lat="-9.1281510" lon="148.4544771"/>
      <trkpt lat="-9.1281144" lon="148.4546538"/>
      <trkpt lat="-9.1280912" lon="148.4548299"/>
      <trkpt lat="-9.1281052" lon="148.4550038"/>
      <trkpt lat="-9.1281452" lon="148.4551601"/>
      <trkpt lat="-9.1282269" lon="148.4552288"/>
      <trkpt lat="-9.1283417" lon="148.4552263"/>
      <trkpt lat="-9.1284767" lon="148.4551921"/>
      <trkpt lat="-9.1286067" lon="148.4551967"/>
    </trkseg>
    <trkseg>
      <trkpt lat="-9.1296333" lon="148.4556250"/>
      <trkpt lat="-9.1297653" lon="148.4556203"/>
      <trkpt lat="-9.1298792" lon="148.4555562"/>
      <trkpt lat="-9.1299769" lon="148.4555063"/>
      <trkpt lat="-9.1300522" lon="148.4554767"/>
      <trkpt lat="-9.1301250" lon="148.4554900"/>
    </trkseg>
    <trkseg>
      <trkpt lat="-9.1382150" lon="148.4546167"/>
      <trkpt lat="-9.1382608" lon="148.4544508"/>
      <trkpt lat="-9.1383455" lon="148.4543134"/>
      <trkpt lat="-9.1384741" lon="148.4542160"/>
      <trkpt lat="-9.1386316" lon="148.4541544"/>
      <trkpt lat="-9.1387454" lon="148.4541776"/>
      <trkpt lat="-9.1387923" lon="148.4542409"/>
      <trkpt lat="-9.1387817" lon="148.4543467"/>
    </trkseg>
    <trkseg>
      <trkpt lat="-9.1387933" lon="148.4543617"/>
      <trkpt lat="-9.1388329" lon="148.4545047"/>
      <trkpt lat="-9.1389085" lon="148.4546397"/>
      <trkpt lat="-9.1390253" lon="148.4547635"/>
      <trkpt lat="-9.1390897" lon="148.4548677"/>
      <trkpt lat="-9.1391267" lon="148.4549233"/>
    </trkseg>
    <trkseg>
      <trkpt lat="-9.1320467" lon="148.4560267"/>
      <trkpt lat="-9.1322228" lon="148.4560535"/>
      <trkpt lat="-9.1323975" lon="148.4560876"/>
      <trkpt lat="-9.1325703" lon="148.4561305"/>
      <trkpt lat="-9.1327436" lon="148.4561722"/>
      <trkpt lat="-9.1329156" lon="148.4562158"/>
      <trkpt lat="-9.1330910" lon="148.4562446"/>
      <trkpt lat="-9.1332641" lon="148.4562875"/>
      <trkpt lat="-9.1334406" lon="148.4563208"/>
      <trkpt lat="-9.1336142" lon="148.4563677"/>
      <trkpt lat="-9.1337847" lon="148.4564226"/>
      <trkpt lat="-9.1339553" lon="148.4564739"/>
      <trkpt lat="-9.1341282" lon="148.4565121"/>
      <trkpt lat="-9.1343037" lon="148.4565437"/>
      <trkpt lat="-9.1344795" lon="148.4565763"/>
      <trkpt lat="-9.1346457" lon="148.4565998"/>
      <trkpt lat="-9.1348010" lon="148.4565666"/>
      <trkpt lat="-9.1349386" lon="148.4564823"/>
      <trkpt lat="-9.1350746" lon="148.4563646"/>
      <trkpt lat="-9.1352076" lon="148.4562436"/>
      <trkpt lat="-9.1353136" lon="148.4561485"/>
      <trkpt lat="-9.1353867" lon="148.4560733"/>
    </trkseg>
    <trkseg>
      <trkpt lat="-9.1391233" lon="148.4549333"/>
      <trkpt lat="-9.1392895" lon="148.4548723"/>
      <trkpt lat="-9.1394558" lon="148.4548113"/>
      <trkpt lat="-9.1396114" lon="148.4547542"/>
      <trkpt lat="-9.1397248" lon="148.4546650"/>
      <trkpt lat="-9.1398354" lon="148.4545677"/>
      <trkpt lat="-9.1399388" lon="148.4544504"/>
      <trkpt lat="-9.1400412" lon="148.4543301"/>
      <trkpt lat="-9.1401323" lon="148.4542092"/>
      <trkpt lat="-9.1402338" lon="148.4541577"/>
      <trkpt lat="-9.1403776" lon="148.4541912"/>
      <trkpt lat="-9.1405037" lon="148.4542744"/>
      <trkpt lat="-9.1405264" lon="148.4543333"/>
      <trkpt lat="-9.1404754" lon="148.4544148"/>
      <trkpt lat="-9.1404566" lon="148.4544911"/>
      <trkpt lat="-9.1405442" lon="148.4545893"/>
      <trkpt lat="-9.1407100" lon="148.4546449"/>
      <trkpt lat="-9.1408775" lon="148.4546842"/>
      <trkpt lat="-9.1410214" lon="148.4546824"/>
      <trkpt lat="-9.1411350" lon="148.4546633"/>
    </trkseg>
    <trkseg>
      <trkpt lat="-9.1262000" lon="148.4640233"/>
      <trkpt lat="-9.1261704" lon="148.4638552"/>
      <trkpt lat="-9.1261253" lon="148.4636905"/>
      <trkpt lat="-9.1260746" lon="148.4635297"/>
      <trkpt lat="-9.1259990" lon="148.4633786"/>
      <trkpt lat="-9.1259025" lon="148.4632412"/>
      <trkpt lat="-9.1257947" lon="148.4631027"/>
      <trkpt lat="-9.1257016" lon="148.4629523"/>
      <trkpt lat="-9.1256998" lon="148.4628312"/>
      <trkpt lat="-9.1257386" lon="148.4627153"/>
      <trkpt lat="-9.1257524" lon="148.4626313"/>
      <trkpt lat="-9.1257013" lon="148.4625173"/>
      <trkpt lat="-9.1256735" lon="148.4624080"/>
      <trkpt lat="-9.1257164" lon="148.4622688"/>
      <trkpt lat="-9.1257987" lon="148.4621188"/>
      <trkpt lat="-9.1258123" lon="148.4619610"/>
      <trkpt lat="-9.1257826" lon="148.4618005"/>
      <trkpt lat="-9.1257129" lon="148.4616404"/>
      <trkpt lat="-9.1256160" lon="148.4615399"/>
      <trkpt lat="-9.1254973" lon="148.4614714"/>
      <trkpt lat="-9.1253388" lon="148.4614451"/>
      <trkpt lat="-9.1251834" lon="148.4614301"/>
      <trkpt lat="-9.1250259" lon="148.4614594"/>
      <trkpt lat="-9.1248850" lon="148.4615167"/>
    </trkseg>
    <trkseg>
      <trkpt lat="-9.1454983" lon="148.4672750"/>
      <trkpt lat="-9.1454317" lon="148.4671382"/>
      <trkpt lat="-9.1453355" lon="148.4670420"/>
      <trkpt lat="-9.1452095" lon="148.4669681"/>
      <trkpt lat="-9.1450783" lon="148.4669403"/>
      <trkpt lat="-9.1449387" lon="148.4669658"/>
      <trkpt lat="-9.1448034" lon="148.4670686"/>
      <trkpt lat="-9.1446959" lon="148.4671927"/>
      <trkpt lat="-9.1446150" lon="148.4673317"/>
    </trkseg>
    <trkseg>
      <trkpt lat="-9.1446000" lon="148.4674233"/>
      <trkpt lat="-9.1445452" lon="148.4675436"/>
      <trkpt lat="-9.1444925" lon="148.4676862"/>
      <trkpt lat="-9.1444652" lon="148.4678537"/>
      <trkpt lat="-9.1444713" lon="148.4680268"/>
      <trkpt lat="-9.1444752" lon="148.4681995"/>
      <trkpt lat="-9.1444281" lon="148.4683559"/>
      <trkpt lat="-9.1443335" lon="148.4685003"/>
      <trkpt lat="-9.1442350" lon="148.4686447"/>
      <trkpt lat="-9.1441760" lon="148.4687577"/>
      <trkpt lat="-9.1441567" lon="148.4688383"/>
    </trkseg>
    <trkseg>
      <trkpt lat="-9.1271850" lon="148.4702883"/>
      <trkpt lat="-9.1270314" lon="148.4702745"/>
      <trkpt lat="-9.1268841" lon="148.4702297"/>
      <trkpt lat="-9.1267373" lon="148.4701637"/>
      <trkpt lat="-9.1266279" lon="148.4700356"/>
      <trkpt lat="-9.1265254" lon="148.4699042"/>
      <trkpt lat="-9.1264241" lon="148.4697744"/>
      <trkpt lat="-9.1263000" lon="148.4696603"/>
      <trkpt lat="-9.1261814" lon="148.4695415"/>
      <trkpt lat="-9.1260911" lon="148.4694161"/>
      <trkpt lat="-9.1260085" lon="148.4692900"/>
      <trkpt lat="-9.1258990" lon="148.4692030"/>
      <trkpt lat="-9.1257508" lon="148.4691350"/>
      <trkpt lat="-9.1255953" lon="148.4690680"/>
      <trkpt lat="-9.1254475" lon="148.4689794"/>
      <trkpt lat="-9.1253372" lon="148.4688536"/>
      <trkpt lat="-9.1252179" lon="148.4687631"/>
      <trkpt lat="-9.1250922" lon="148.4687225"/>
      <trkpt lat="-9.1249472" lon="148.4686930"/>
      <trkpt lat="-9.1248317" lon="148.4686390"/>
      <trkpt lat="-9.1247159" lon="148.4685630"/>
      <trkpt lat="-9.1246321" lon="148.4685765"/>
      <trkpt lat="-9.1245223" lon="148.4686558"/>
      <trkpt lat="-9.1244373" lon="148.4687905"/>
      <trkpt lat="-9.1243113" lon="148.4688951"/>
      <trkpt lat="-9.1241766" lon="148.4689750"/>
      <trkpt lat="-9.1240153" lon="148.4689879"/>
      <trkpt lat="-9.1238443" lon="148.4689761"/>
      <trkpt lat="-9.1237237" lon="148.4689236"/>
      <trkpt lat="-9.1236567" lon="148.4688567"/>
    </trkseg>
    <trkseg>
      <trkpt lat="-9.1236350" lon="148.4689483"/>
      <trkpt lat="-9.1236146" lon="148.4687986"/>
      <trkpt lat="-9.1235314" lon="148.4686789"/>
      <trkpt lat="-9.1233928" lon="148.4685943"/>
      <trkpt lat="-9.1232741" lon="148.4684954"/>
      <trkpt lat="-9.1231820" lon="148.4683691"/>
      <trkpt lat="-9.1231124" lon="148.4682093"/>
      <trkpt lat="-9.1230304" lon="148.4680529"/>
      <trkpt lat="-9.1229732" lon="148.4678921"/>
      <trkpt lat="-9.1229230" lon="148.4677286"/>
      <trkpt lat="-9.1229125" lon="148.4675615"/>
      <trkpt lat="-9.1229054" lon="148.4674025"/>
      <trkpt lat="-9.1229599" lon="148.4672643"/>
      <trkpt lat="-9.1230596" lon="148.4671406"/>
      <trkpt lat="-9.1231979" lon="148.4670299"/>
      <trkpt lat="-9.1233279" lon="148.4669126"/>
      <trkpt lat="-9.1234404" lon="148.4667879"/>
      <trkpt lat="-9.1235385" lon="148.4666476"/>
      <trkpt lat="-9.1236223" lon="148.4665377"/>
      <trkpt lat="-9.1237077" lon="148.4664392"/>
      <trkpt lat="-9.1237966" lon="148.4663424"/>
      <trkpt lat="-9.1238875" lon="148.4662053"/>
      <trkpt lat="-9.1239732" lon="148.4660474"/>
      <trkpt lat="-9.1240618" lon="148.4658989"/>
      <trkpt lat="-9.1241798" lon="148.4657818"/>
      <trkpt lat="-9.1243269" lon="148.4656999"/>
      <trkpt lat="-9.1244849" lon="148.4656323"/>
      <trkpt lat="-9.1246229" lon="148.4655401"/>
      <trkpt lat="-9.1247490" lon="148.4654397"/>
      <trkpt lat="-9.1248883" lon="148.4653637"/>
      <trkpt lat="-9.1250260" lon="148.4653330"/>
      <trkpt lat="-9.1251439" lon="148.4652730"/>
      <trkpt lat="-9.1252189" lon="148.4651581"/>
      <trkpt lat="-9.1252736" lon="148.4649877"/>
      <trkpt lat="-9.1253057" lon="148.4648158"/>
      <trkpt lat="-9.1252938" lon="148.4646494"/>
      <trkpt lat="-9.1252441" lon="148.4644851"/>
      <trkpt lat="-9.1251762" lon="148.4643177"/>
      <trkpt lat="-9.1251542" lon="148.4641484"/>
      <trkpt lat="-9.1251813" lon="148.4640299"/>
      <trkpt lat="-9.1252794" lon="148.4639627"/>
      <trkpt lat="-9.1254170" lon="148.4639593"/>
      <trkpt lat="-9.1255861" lon="148.4639577"/>
      <trkpt lat="-9.1257591" lon="148.4639660"/>
      <trkpt lat="-9.1259310" lon="148.4639561"/>
      <trkpt lat="-9.1261017" lon="148.4639400"/>
    </trkseg>
    <trkseg>
      <trkpt lat="-9.1361067" lon="148.4708717"/>
      <trkpt lat="-9.1360354" lon="148.4707101"/>
      <trkpt lat="-9.1359560" lon="148.4705547"/>
      <trkpt lat="-9.1358464" lon="148.4704352"/>
      <trkpt lat="-9.1357111" lon="148.4703357"/>
      <trkpt lat="-9.1355858" lon="148.4702286"/>
      <trkpt lat="-9.1354993" lon="148.4700838"/>
      <trkpt lat="-9.1354670" lon="148.4699118"/>
      <trkpt lat="-9.1354552" lon="148.4697383"/>
      <trkpt lat="-9.1354499" lon="148.4695619"/>
      <trkpt lat="-9.1354000" lon="148.4694037"/>
      <trkpt lat="-9.1353078" lon="148.4692643"/>
      <trkpt lat="-9.1351775" lon="148.4691493"/>
      <trkpt lat="-9.1350393" lon="148.4690467"/>
      <trkpt lat="-9.1349423" lon="148.4689677"/>
      <trkpt lat="-9.1348900" lon="148.4689083"/>
    </trkseg>
    <trkseg>
      <trkpt lat="-9.1300967" lon="148.4554883"/>
      <trkpt lat="-9.1302231" lon="148.4556165"/>
      <trkpt lat="-9.1303276" lon="148.4557581"/>
      <trkpt lat="-9.1303962" lon="148.4558532"/>
      <trkpt lat="-9.1304452" lon="148.4559421"/>
      <trkpt lat="-9.1305132" lon="148.4559747"/>
      <trkpt lat="-9.1306179" lon="148.4559710"/>
      <trkpt lat="-9.1307394" lon="148.4559431"/>
      <trkpt lat="-9.1308702" lon="148.4558926"/>
      <trkpt lat="-9.1310158" lon="148.4558820"/>
      <trkpt lat="-9.1311656" lon="148.4558319"/>
      <trkpt lat="-9.1313096" lon="148.4558358"/>
      <trkpt lat="-9.1314460" lon="148.4558151"/>
      <trkpt lat="-9.1315935" lon="148.4558340"/>
      <trkpt lat="-9.1317533" lon="148.4558460"/>
      <trkpt lat="-9.1318820" lon="148.4558918"/>
      <trkpt lat="-9.1319750" lon="148.4559367"/>
    </trkseg>
    <trkseg>
      <trkpt lat="-9.1401550" lon="148.4696900"/>
      <trkpt lat="-9.1400741" lon="148.4695400"/>
      <trkpt lat="-9.1399519" lon="148.4694333"/>
      <trkpt lat="-9.1397944" lon="148.4693568"/>
      <trkpt lat="-9.1396270" lon="148.4692952"/>
      <trkpt lat="-9.1394592" lon="148.4692585"/>
      <trkpt lat="-9.1392854" lon="148.4692533"/>
      <trkpt lat="-9.1391227" lon="148.4692942"/>
      <trkpt lat="-9.1389701" lon="148.4693313"/>
      <trkpt lat="-9.1388163" lon="148.4693586"/>
      <trkpt lat="-9.1386568" lon="148.4693280"/>
      <trkpt lat="-9.1384961" lon="148.4692622"/>
      <trkpt lat="-9.1383350" lon="148.4692026"/>
      <trkpt lat="-9.1381665" lon="148.4691596"/>
      <trkpt lat="-9.1379919" lon="148.4691305"/>
      <trkpt lat="-9.1378380" lon="148.4690551"/>
      <trkpt lat="-9.1376907" lon="148.4689644"/>
      <trkpt lat="-9.1375413" lon="148.4688739"/>
      <trkpt lat="-9.1373709" lon="148.4688283"/>
      <trkpt lat="-9.1371921" lon="148.4688125"/>
      <trkpt lat="-9.1370251" lon="148.4688086"/>
      <trkpt lat="-9.1368717" lon="148.4688033"/>
    </trkseg>
    <trkseg>
      <trkpt lat="-9.1369450" lon="148.4688633"/>
      <trkpt lat="-9.1371102" lon="148.4689092"/>
      <trkpt lat="-9.1372477" lon="148.4689886"/>
      <trkpt lat="-9.1373166" lon="148.4691144"/>
      <trkpt lat="-9.1373383" lon="148.4692791"/>
      <trkpt lat="-9.1373367" lon="148.4694515"/>
      <trkpt lat="-9.1373054" lon="148.4696074"/>
      <trkpt lat="-9.1372166" lon="148.4696976"/>
      <trkpt lat="-9.1370958" lon="148.4697796"/>
      <trkpt lat="-9.1369925" lon="148.4698724"/>
      <trkpt lat="-9.1369451" lon="148.4700312"/>
      <trkpt lat="-9.1368927" lon="148.4701881"/>
      <trkpt lat="-9.1368099" lon="148.4703128"/>
      <trkpt lat="-9.1366925" lon="148.4704289"/>
      <trkpt lat="-9.1365949" lon="148.4705416"/>
      <trkpt lat="-9.1365400" lon="148.4706733"/>
    </trkseg>
    <trkseg>
      <trkpt lat="-9.1345467" lon="148.4690600"/>
      <trkpt lat="-9.1344816" lon="148.4691171"/>
      <trkpt lat="-9.1343756" lon="148.4691922"/>
      <trkpt lat="-9.1342431" lon="148.4692930"/>
      <trkpt lat="-9.1341248" lon="148.4694109"/>
      <trkpt lat="-9.1340018" lon="148.4695198"/>
      <trkpt lat="-9.1338849" lon="148.4696326"/>
      <trkpt lat="-9.1337723" lon="148.4697102"/>
      <trkpt lat="-9.1336551" lon="148.4697710"/>
      <trkpt lat="-9.1335215" lon="148.4698260"/>
      <trkpt lat="-9.1333735" lon="148.4698974"/>
      <trkpt lat="-9.1332387" lon="148.4699962"/>
      <trkpt lat="-9.1331186" lon="148.4701017"/>
      <trkpt lat="-9.1330617" lon="148.4702232"/>
      <trkpt lat="-9.1330202" lon="148.4703540"/>
      <trkpt lat="-9.1329690" lon="148.4704820"/>
      <trkpt lat="-9.1329048" lon="148.4705812"/>
      <trkpt lat="-9.1328650" lon="148.4706350"/>
    </trkseg>
    <trkseg>
      <trkpt lat="-9.1328250" lon="148.4705800"/>
      <trkpt lat="-9.1326890" lon="148.4705758"/>
      <trkpt lat="-9.1325540" lon="148.4705207"/>
      <trkpt lat="-9.1324110" lon="148.4704418"/>
      <trkpt lat="-9.1322455" lon="148.4704130"/>
      <trkpt lat="-9.1321034" lon="148.4703724"/>
      <trkpt lat="-9.1319680" lon="148.4703296"/>
      <trkpt lat="-9.1318323" lon="148.4702927"/>
      <trkpt lat="-9.1316786" lon="148.4702595"/>
      <trkpt lat="-9.1315905" lon="148.4702848"/>
      <trkpt lat="-9.1315452" lon="148.4702479"/>
      <trkpt lat="-9.1315099" lon="148.4702559"/>
      <trkpt lat="-9.1314504" lon="148.4701970"/>
      <trkpt lat="-9.1313740" lon="148.4701930"/>
      <trkpt lat="-9.1312754" lon="148.4701615"/>
      <trkpt lat="-9.1311352" lon="148.4701127"/>
      <trkpt lat="-9.1310275" lon="148.4700579"/>
      <trkpt lat="-9.1309750" lon="148.4700250"/>
    </trkseg>
    <trkseg>
      <trkpt lat="-9.1413350" lon="148.4697783"/>
      <trkpt lat="-9.1411776" lon="148.4698236"/>
      <trkpt lat="-9.1410144" lon="148.4698503"/>
      <trkpt lat="-9.1408451" lon="148.4698574"/>
      <trkpt lat="-9.1406729" lon="148.4698730"/>
      <trkpt lat="-9.1405126" lon="148.4698719"/>
      <trkpt lat="-9.1403617" lon="148.4698446"/>
      <trkpt lat="-9.1402423" lon="148.4697726"/>
      <trkpt lat="-9.1401500" lon="148.4697000"/>
    </trkseg>
  </trk>
</gpx>
