<?xml version="1.0" encoding="UTF-8"?>
<gpx version="1.1" creator="MCA Maps — Managalas clan boundary survey"
     xmlns="http://www.topografix.com/GPX/1/1"
     xmlns:xsi="http://www.w3.org/2001/XMLSchema-instance"
     xsi:schemaLocation="http://www.topografix.com/GPX/1/1 http://www.topografix.com/GPX/1/1/gpx.xsd">
  <metadata>
    <name>Rumbi — clan land boundary</name>
    <desc>Rumbi, Zone 2. 15.1 km walked; 9.9 km still to walk in 3 gaps</desc>
    <time>2026-08-16T00:00:00Z</time>
  </metadata>
  <wpt lat="-9.1786600" lon="148.3121333">
    <name>GAP 1 OF 3 START</name>
    <desc>2.63 km not walked. This straight line is not a boundary — it joins the two ends so the shape can be closed on paper. Rumbi, Zone 2.</desc>
    <sym>Flag</sym>
  </wpt>
  <wpt lat="-9.1565583" lon="148.3033183">
    <name>GAP 1 OF 3 END</name>
    <desc>2.63 km not walked. This straight line is not a boundary — it joins the two ends so the shape can be closed on paper. Rumbi, Zone 2.</desc>
    <sym>Flag</sym>
  </wpt>
  <wpt lat="-9.1750017" lon="148.3052617">
    <name>GAP 2 OF 3 START</name>
    <desc>1.61 km not walked. This straight line is not a boundary — it joins the two ends so the shape can be closed on paper. Rumbi, Zone 2.</desc>
    <sym>Flag</sym>
  </wpt>
  <wpt lat="-9.1811000" lon="148.3186033">
    <name>GAP 2 OF 3 END</name>
    <desc>1.61 km not walked. This straight line is not a boundary — it joins the two ends so the shape can be closed on paper. Rumbi, Zone 2.</desc>
    <sym>Flag</sym>
  </wpt>
  <wpt lat="-9.2103917" lon="148.3604633">
    <name>GAP 3 OF 3 START</name>
    <desc>5.70 km not walked. This straight line is not a boundary — it joins the two ends so the shape can be closed on paper. Rumbi, Zone 2.</desc>
    <sym>Flag</sym>
  </wpt>
  <wpt lat="-9.1792333" lon="148.3191583">
    <name>GAP 3 OF 3 END</name>
    <desc>5.70 km not walked. This straight line is not a boundary — it joins the two ends so the shape can be closed on paper. Rumbi, Zone 2.</desc>
    <sym>Flag</sym>
  </wpt>
  <trk>
    <name>GAP 1 OF 3 - NOT WALKED - 2.63 km</name>
    <desc>2.63 km not walked. This straight line is not a boundary — it joins the two ends so the shape can be closed on paper. Rumbi, Zone 2.</desc>
    <type>not-walked</type>
    <trkseg>
      <trkpt lat="-9.1786600" lon="148.3121333"/>
      <trkpt lat="-9.1565583" lon="148.3033183"/>
    </trkseg>
  </trk>
  <trk>
    <name>GAP 2 OF 3 - NOT WALKED - 1.61 km</name>
    <desc>1.61 km not walked. This straight line is not a boundary — it joins the two ends so the shape can be closed on paper. Rumbi, Zone 2.</desc>
    <type>not-walked</type>
    <trkseg>
      <trkpt lat="-9.1750017" lon="148.3052617"/>
      <trkpt lat="-9.1811000" lon="148.3186033"/>
    </trkseg>
  </trk>
  <trk>
    <name>GAP 3 OF 3 - NOT WALKED - 5.70 km</name>
    <desc>5.70 km not walked. This straight line is not a boundary — it joins the two ends so the shape can be closed on paper. Rumbi, Zone 2.</desc>
    <type>not-walked</type>
    <trkseg>
      <trkpt lat="-9.2103917" lon="148.3604633"/>
      <trkpt lat="-9.1792333" lon="148.3191583"/>
    </trkseg>
  </trk>
  <trk>
    <name>Rumbi - Joel Mamata</name>
    <desc>Walked by Joel Mamata. 15.1 km, 9 track(s), recorded on the ground. Rumbi, Zone 2.</desc>
    <type>walked-boundary</type>
    <trkseg>
      <trkpt lat="-9.1691450" lon="148.2941417"/>
      <trkpt lat="-9.1692709" lon="148.2942485"/>
      <trkpt lat="-9.1693266" lon="148.2943708"/>
      <trkpt lat="-9.1693180" lon="148.2945129"/>
      <trkpt lat="-9.1692625" lon="148.2946826"/>
      <trkpt lat="-9.1692063" lon="148.2948531"/>
      <trkpt lat="-9.1691796" lon="148.2950081"/>
      <trkpt lat="-9.1691992" lon="148.2951511"/>
      <trkpt lat="-9.1692739" lon="148.2952876"/>
      <trkpt lat="-9.1693661" lon="148.2954362"/>
      <trkpt lat="-9.1694442" lon="148.2955927"/>
      <trkpt lat="-9.1694900" lon="148.2957622"/>
      <trkpt lat="-9.1695142" lon="148.2959358"/>
      <trkpt lat="-9.1695596" lon="148.2960908"/>
      <trkpt lat="-9.1696119" lon="148.2962446"/>
      <trkpt lat="-9.1696736" lon="148.2963938"/>
      <trkpt lat="-9.1697172" lon="148.2965608"/>
      <trkpt lat="-9.1697990" lon="148.2967115"/>
      <trkpt lat="-9.1698841" lon="148.2968670"/>
      <trkpt lat="-9.1699744" lon="148.2970183"/>
      <trkpt lat="-9.1700567" lon="148.2971748"/>
      <trkpt lat="-9.1701458" lon="148.2973278"/>
      <trkpt lat="-9.1702292" lon="148.2974849"/>
      <trkpt lat="-9.1703107" lon="148.2976441"/>
      <trkpt lat="-9.1704165" lon="148.2977840"/>
      <trkpt lat="-9.1705235" lon="148.2979200"/>
      <trkpt lat="-9.1705679" lon="148.2980542"/>
      <trkpt lat="-9.1705429" lon="148.2982102"/>
      <trkpt lat="-9.1704589" lon="148.2983664"/>
      <trkpt lat="-9.1703673" lon="148.2985204"/>
      <trkpt lat="-9.1702654" lon="148.2986695"/>
      <trkpt lat="-9.1701954" lon="148.2988222"/>
      <trkpt lat="-9.1702091" lon="148.2989686"/>
      <trkpt lat="-9.1703015" lon="148.2990987"/>
      <trkpt lat="-9.1704485" lon="148.2992011"/>
      <trkpt lat="-9.1705736" lon="148.2993074"/>
      <trkpt lat="-9.1706756" lon="148.2994298"/>
      <trkpt lat="-9.1707338" lon="148.2995809"/>
      <trkpt lat="-9.1707510" lon="148.2997450"/>
      <trkpt lat="-9.1707422" lon="148.2999178"/>
      <trkpt lat="-9.1707323" lon="148.3000948"/>
      <trkpt lat="-9.1707641" lon="148.3002642"/>
      <trkpt lat="-9.1708328" lon="148.3004184"/>
      <trkpt lat="-9.1709029" lon="148.3005722"/>
      <trkpt lat="-9.1709198" lon="148.3007274"/>
      <trkpt lat="-9.1709381" lon="148.3008811"/>
      <trkpt lat="-9.1709451" lon="148.3010345"/>
      <trkpt lat="-9.1709888" lon="148.3011966"/>
      <trkpt lat="-9.1709744" lon="148.3013557"/>
      <trkpt lat="-9.1709400" lon="148.3014967"/>
    </trkseg>
    <trkseg>
      <trkpt lat="-9.1709567" lon="148.3015883"/>
      <trkpt lat="-9.1709782" lon="148.3017646"/>
      <trkpt lat="-9.1710088" lon="148.3019333"/>
      <trkpt lat="-9.1710859" lon="148.3020538"/>
      <trkpt lat="-9.1712249" lon="148.3021212"/>
      <trkpt lat="-9.1714025" lon="148.3021482"/>
      <trkpt lat="-9.1715760" lon="148.3021904"/>
      <trkpt lat="-9.1717471" lon="148.3022438"/>
      <trkpt lat="-9.1719126" lon="148.3023143"/>
      <trkpt lat="-9.1720789" lon="148.3023822"/>
      <trkpt lat="-9.1722460" lon="148.3024470"/>
      <trkpt lat="-9.1724187" lon="148.3024924"/>
      <trkpt lat="-9.1725953" lon="148.3025268"/>
      <trkpt lat="-9.1727717" lon="148.3025624"/>
      <trkpt lat="-9.1729443" lon="148.3026125"/>
      <trkpt lat="-9.1731176" lon="148.3026578"/>
      <trkpt lat="-9.1732925" lon="148.3026960"/>
      <trkpt lat="-9.1734713" lon="148.3027176"/>
      <trkpt lat="-9.1736494" lon="148.3027453"/>
      <trkpt lat="-9.1738181" lon="148.3027951"/>
      <trkpt lat="-9.1739861" lon="148.3028510"/>
      <trkpt lat="-9.1741550" lon="148.3029001"/>
      <trkpt lat="-9.1743335" lon="148.3029208"/>
      <trkpt lat="-9.1744978" lon="148.3029682"/>
      <trkpt lat="-9.1746517" lon="148.3030444"/>
      <trkpt lat="-9.1747602" lon="148.3031743"/>
      <trkpt lat="-9.1748233" lon="148.3033266"/>
      <trkpt lat="-9.1748276" lon="148.3035041"/>
      <trkpt lat="-9.1748184" lon="148.3036845"/>
      <trkpt lat="-9.1748062" lon="148.3038628"/>
      <trkpt lat="-9.1748062" lon="148.3040415"/>
      <trkpt lat="-9.1747883" lon="148.3042174"/>
      <trkpt lat="-9.1747975" lon="148.3043895"/>
      <trkpt lat="-9.1748263" lon="148.3045507"/>
      <trkpt lat="-9.1748842" lon="148.3047140"/>
      <trkpt lat="-9.1749285" lon="148.3048820"/>
      <trkpt lat="-9.1749620" lon="148.3050602"/>
      <trkpt lat="-9.1749856" lon="148.3051867"/>
      <trkpt lat="-9.1750017" lon="148.3052617"/>
    </trkseg>
    <trkseg>
      <trkpt lat="-9.1786600" lon="148.3121333"/>
      <trkpt lat="-9.1788264" lon="148.3121943"/>
      <trkpt lat="-9.1789696" lon="148.3122869"/>
      <trkpt lat="-9.1790964" lon="148.3124029"/>
      <trkpt lat="-9.1791923" lon="148.3125506"/>
      <trkpt lat="-9.1792814" lon="148.3127023"/>
      <trkpt lat="-9.1793606" lon="148.3128609"/>
      <trkpt lat="-9.1794499" lon="148.3130111"/>
      <trkpt lat="-9.1795206" lon="148.3131677"/>
      <trkpt lat="-9.1795678" lon="148.3133361"/>
      <trkpt lat="-9.1795763" lon="148.3135158"/>
      <trkpt lat="-9.1796048" lon="148.3136868"/>
      <trkpt lat="-9.1796609" lon="148.3138467"/>
      <trkpt lat="-9.1797593" lon="148.3139968"/>
      <trkpt lat="-9.1798665" lon="148.3141425"/>
      <trkpt lat="-9.1799700" lon="148.3142900"/>
      <trkpt lat="-9.1800475" lon="148.3144477"/>
      <trkpt lat="-9.1800924" lon="148.3146163"/>
      <trkpt lat="-9.1801117" lon="148.3147908"/>
      <trkpt lat="-9.1801614" lon="148.3149507"/>
      <trkpt lat="-9.1802393" lon="148.3151009"/>
      <trkpt lat="-9.1803178" lon="148.3152544"/>
      <trkpt lat="-9.1803594" lon="148.3154139"/>
      <trkpt lat="-9.1803549" lon="148.3155813"/>
      <trkpt lat="-9.1803088" lon="148.3157362"/>
      <trkpt lat="-9.1802265" lon="148.3158886"/>
      <trkpt lat="-9.1801072" lon="148.3160194"/>
      <trkpt lat="-9.1799776" lon="148.3161425"/>
      <trkpt lat="-9.1798499" lon="148.3162662"/>
      <trkpt lat="-9.1797610" lon="148.3164152"/>
      <trkpt lat="-9.1796958" lon="148.3165797"/>
      <trkpt lat="-9.1796238" lon="148.3167405"/>
      <trkpt lat="-9.1795266" lon="148.3168896"/>
      <trkpt lat="-9.1793936" lon="148.3169961"/>
      <trkpt lat="-9.1792417" lon="148.3170720"/>
      <trkpt lat="-9.1790760" lon="148.3171305"/>
      <trkpt lat="-9.1789540" lon="148.3172295"/>
      <trkpt lat="-9.1788715" lon="148.3173695"/>
      <trkpt lat="-9.1787963" lon="148.3175212"/>
      <trkpt lat="-9.1787032" lon="148.3176668"/>
      <trkpt lat="-9.1786486" lon="148.3178118"/>
      <trkpt lat="-9.1786683" lon="148.3179660"/>
      <trkpt lat="-9.1787409" lon="148.3181294"/>
      <trkpt lat="-9.1788277" lon="148.3182845"/>
      <trkpt lat="-9.1789183" lon="148.3184349"/>
      <trkpt lat="-9.1790172" lon="148.3185784"/>
      <trkpt lat="-9.1790979" lon="148.3187325"/>
      <trkpt lat="-9.1791553" lon="148.3188977"/>
      <trkpt lat="-9.1791957" lon="148.3190424"/>
      <trkpt lat="-9.1792333" lon="148.3191583"/>
    </trkseg>
    <trkseg>
      <trkpt lat="-9.1811000" lon="148.3186033"/>
      <trkpt lat="-9.1811805" lon="148.3187264"/>
      <trkpt lat="-9.1811998" lon="148.3188332"/>
      <trkpt lat="-9.1811682" lon="148.3189536"/>
      <trkpt lat="-9.1811288" lon="148.3190654"/>
      <trkpt lat="-9.1811425" lon="148.3191586"/>
      <trkpt lat="-9.1811564" lon="148.3192636"/>
      <trkpt lat="-9.1811765" lon="148.3193781"/>
      <trkpt lat="-9.1811326" lon="148.3195503"/>
      <trkpt lat="-9.1810675" lon="148.3197200"/>
      <trkpt lat="-9.1810523" lon="148.3198273"/>
      <trkpt lat="-9.1810239" lon="148.3199260"/>
      <trkpt lat="-9.1809741" lon="148.3200105"/>
      <trkpt lat="-9.1808524" lon="148.3201431"/>
      <trkpt lat="-9.1807204" lon="148.3202674"/>
      <trkpt lat="-9.1805852" lon="148.3203880"/>
      <trkpt lat="-9.1804415" lon="148.3204972"/>
      <trkpt lat="-9.1802904" lon="148.3205957"/>
      <trkpt lat="-9.1801761" lon="148.3206704"/>
      <trkpt lat="-9.1801733" lon="148.3207192"/>
      <trkpt lat="-9.1802764" lon="148.3207675"/>
      <trkpt lat="-9.1804309" lon="148.3208413"/>
      <trkpt lat="-9.1805719" lon="148.3209442"/>
      <trkpt lat="-9.1807077" lon="148.3210544"/>
      <trkpt lat="-9.1808461" lon="148.3211567"/>
      <trkpt lat="-9.1809612" lon="148.3212801"/>
      <trkpt lat="-9.1810624" lon="148.3213982"/>
      <trkpt lat="-9.1811778" lon="148.3214917"/>
      <trkpt lat="-9.1813252" lon="148.3215501"/>
      <trkpt lat="-9.1814891" lon="148.3216082"/>
      <trkpt lat="-9.1816349" lon="148.3217031"/>
      <trkpt lat="-9.1817812" lon="148.3218002"/>
      <trkpt lat="-9.1819246" lon="148.3219012"/>
      <trkpt lat="-9.1820781" lon="148.3219850"/>
      <trkpt lat="-9.1822316" lon="148.3220663"/>
      <trkpt lat="-9.1823920" lon="148.3221345"/>
      <trkpt lat="-9.1825549" lon="148.3222001"/>
      <trkpt lat="-9.1827208" lon="148.3222435"/>
      <trkpt lat="-9.1828881" lon="148.3222542"/>
      <trkpt lat="-9.1830624" lon="148.3222457"/>
      <trkpt lat="-9.1832383" lon="148.3222370"/>
      <trkpt lat="-9.1834173" lon="148.3222434"/>
      <trkpt lat="-9.1835806" lon="148.3222840"/>
      <trkpt lat="-9.1837374" lon="148.3223476"/>
      <trkpt lat="-9.1838896" lon="148.3224293"/>
      <trkpt lat="-9.1840513" lon="148.3224904"/>
      <trkpt lat="-9.1842155" lon="148.3225491"/>
      <trkpt lat="-9.1843795" lon="148.3226097"/>
      <trkpt lat="-9.1845402" lon="148.3226844"/>
      <trkpt lat="-9.1847036" lon="148.3227499"/>
      <trkpt lat="-9.1848710" lon="148.3228060"/>
      <trkpt lat="-9.1850408" lon="148.3228546"/>
      <trkpt lat="-9.1851737" lon="148.3229505"/>
      <trkpt lat="-9.1852914" lon="148.3230645"/>
      <trkpt lat="-9.1854055" lon="148.3231877"/>
      <trkpt lat="-9.1855494" lon="148.3232856"/>
      <trkpt lat="-9.1857077" lon="148.3233653"/>
      <trkpt lat="-9.1858541" lon="148.3234525"/>
      <trkpt lat="-9.1859978" lon="148.3235428"/>
      <trkpt lat="-9.1861366" lon="148.3236466"/>
      <trkpt lat="-9.1862805" lon="148.3237451"/>
      <trkpt lat="-9.1864306" lon="148.3238313"/>
      <trkpt lat="-9.1865599" lon="148.3239412"/>
      <trkpt lat="-9.1866885" lon="148.3240566"/>
      <trkpt lat="-9.1868041" lon="148.3241892"/>
      <trkpt lat="-9.1869437" lon="148.3242936"/>
      <trkpt lat="-9.1870910" lon="148.3243849"/>
      <trkpt lat="-9.1872415" lon="148.3244763"/>
      <trkpt lat="-9.1873625" lon="148.3245975"/>
      <trkpt lat="-9.1874767" lon="148.3247316"/>
      <trkpt lat="-9.1875727" lon="148.3248807"/>
      <trkpt lat="-9.1876883" lon="148.3250159"/>
      <trkpt lat="-9.1878168" lon="148.3251214"/>
      <trkpt lat="-9.1879738" lon="148.3251914"/>
      <trkpt lat="-9.1881430" lon="148.3252360"/>
      <trkpt lat="-9.1883161" lon="148.3252788"/>
      <trkpt lat="-9.1884899" lon="148.3253248"/>
      <trkpt lat="-9.1886651" lon="148.3253614"/>
      <trkpt lat="-9.1888413" lon="148.3253859"/>
      <trkpt lat="-9.1890138" lon="148.3254008"/>
      <trkpt lat="-9.1891683" lon="148.3254355"/>
      <trkpt lat="-9.1893007" lon="148.3255105"/>
      <trkpt lat="-9.1894373" lon="148.3255935"/>
      <trkpt lat="-9.1895920" lon="148.3256466"/>
      <trkpt lat="-9.1897688" lon="148.3256640"/>
      <trkpt lat="-9.1899462" lon="148.3256736"/>
      <trkpt lat="-9.1901051" lon="148.3256757"/>
      <trkpt lat="-9.1901925" lon="148.3256975"/>
      <trkpt lat="-9.1902783" lon="148.3256845"/>
      <trkpt lat="-9.1903825" lon="148.3256757"/>
      <trkpt lat="-9.1905463" lon="148.3256767"/>
      <trkpt lat="-9.1907109" lon="148.3257190"/>
      <trkpt lat="-9.1908687" lon="148.3257880"/>
      <trkpt lat="-9.1910375" lon="148.3258328"/>
      <trkpt lat="-9.1912086" lon="148.3258461"/>
      <trkpt lat="-9.1913826" lon="148.3258493"/>
      <trkpt lat="-9.1915275" lon="148.3258934"/>
      <trkpt lat="-9.1916528" lon="148.3259776"/>
      <trkpt lat="-9.1917793" lon="148.3260729"/>
      <trkpt lat="-9.1919266" lon="148.3261498"/>
      <trkpt lat="-9.1920798" lon="148.3262381"/>
      <trkpt lat="-9.1922230" lon="148.3263453"/>
      <trkpt lat="-9.1923593" lon="148.3264603"/>
      <trkpt lat="-9.1925082" lon="148.3265513"/>
      <trkpt lat="-9.1926474" lon="148.3266479"/>
      <trkpt lat="-9.1927715" lon="148.3267580"/>
      <trkpt lat="-9.1928674" lon="148.3269061"/>
      <trkpt lat="-9.1929627" lon="148.3270592"/>
      <trkpt lat="-9.1930709" lon="148.3271989"/>
      <trkpt lat="-9.1931776" lon="148.3273389"/>
      <trkpt lat="-9.1932896" lon="148.3274743"/>
      <trkpt lat="-9.1933933" lon="148.3276201"/>
      <trkpt lat="-9.1934873" lon="148.3277668"/>
      <trkpt lat="-9.1935129" lon="148.3279236"/>
      <trkpt lat="-9.1935308" lon="148.3280763"/>
      <trkpt lat="-9.1935262" lon="148.3282355"/>
      <trkpt lat="-9.1935875" lon="148.3283788"/>
      <trkpt lat="-9.1936471" lon="148.3285319"/>
      <trkpt lat="-9.1937191" lon="148.3286811"/>
      <trkpt lat="-9.1937713" lon="148.3288472"/>
      <trkpt lat="-9.1938354" lon="148.3290023"/>
      <trkpt lat="-9.1939381" lon="148.3291360"/>
      <trkpt lat="-9.1940564" lon="148.3292412"/>
      <trkpt lat="-9.1941289" lon="148.3293396"/>
      <trkpt lat="-9.1941987" lon="148.3294326"/>
      <trkpt lat="-9.1942201" lon="148.3295449"/>
      <trkpt lat="-9.1942705" lon="148.3296643"/>
      <trkpt lat="-9.1943196" lon="148.3297949"/>
      <trkpt lat="-9.1943833" lon="148.3299382"/>
      <trkpt lat="-9.1944501" lon="148.3300904"/>
      <trkpt lat="-9.1945275" lon="148.3302298"/>
      <trkpt lat="-9.1946568" lon="148.3303387"/>
      <trkpt lat="-9.1948075" lon="148.3304351"/>
      <trkpt lat="-9.1949606" lon="148.3305225"/>
      <trkpt lat="-9.1951198" lon="148.3305932"/>
      <trkpt lat="-9.1952910" lon="148.3306427"/>
      <trkpt lat="-9.1954663" lon="148.3306808"/>
      <trkpt lat="-9.1956420" lon="148.3306986"/>
      <trkpt lat="-9.1958174" lon="148.3306823"/>
      <trkpt lat="-9.1959919" lon="148.3306669"/>
      <trkpt lat="-9.1961667" lon="148.3306533"/>
      <trkpt lat="-9.1963444" lon="148.3306449"/>
      <trkpt lat="-9.1965225" lon="148.3306228"/>
      <trkpt lat="-9.1967007" lon="148.3306145"/>
      <trkpt lat="-9.1968794" lon="148.3306185"/>
      <trkpt lat="-9.1970571" lon="148.3306225"/>
      <trkpt lat="-9.1972334" lon="148.3306350"/>
      <trkpt lat="-9.1974099" lon="148.3306527"/>
      <trkpt lat="-9.1975881" lon="148.3306782"/>
      <trkpt lat="-9.1977678" lon="148.3306820"/>
      <trkpt lat="-9.1979463" lon="148.3306656"/>
      <trkpt lat="-9.1981232" lon="148.3306370"/>
      <trkpt lat="-9.1982999" lon="148.3306207"/>
      <trkpt lat="-9.1984781" lon="148.3306201"/>
      <trkpt lat="-9.1986541" lon="148.3306486"/>
      <trkpt lat="-9.1988239" lon="148.3306959"/>
      <trkpt lat="-9.1989830" lon="148.3307691"/>
      <trkpt lat="-9.1991264" lon="148.3308670"/>
      <trkpt lat="-9.1992319" lon="148.3309987"/>
      <trkpt lat="-9.1993410" lon="148.3311101"/>
      <trkpt lat="-9.1994420" lon="148.3312003"/>
      <trkpt lat="-9.1995090" lon="148.3312899"/>
      <trkpt lat="-9.1995047" lon="148.3314275"/>
      <trkpt lat="-9.1994968" lon="148.3315808"/>
      <trkpt lat="-9.1994762" lon="148.3317271"/>
      <trkpt lat="-9.1994340" lon="148.3318612"/>
      <trkpt lat="-9.1993222" lon="148.3320011"/>
      <trkpt lat="-9.1992214" lon="148.3321467"/>
      <trkpt lat="-9.1991506" lon="148.3323057"/>
      <trkpt lat="-9.1991240" lon="148.3324807"/>
      <trkpt lat="-9.1991188" lon="148.3326555"/>
      <trkpt lat="-9.1991799" lon="148.3327679"/>
      <trkpt lat="-9.1992843" lon="148.3328453"/>
      <trkpt lat="-9.1994088" lon="148.3329217"/>
      <trkpt lat="-9.1995145" lon="148.3330448"/>
      <trkpt lat="-9.1995823" lon="148.3331976"/>
      <trkpt lat="-9.1996738" lon="148.3333346"/>
      <trkpt lat="-9.1997812" lon="148.3334507"/>
      <trkpt lat="-9.1999235" lon="148.3335504"/>
      <trkpt lat="-9.2000702" lon="148.3336290"/>
      <trkpt lat="-9.2001840" lon="148.3337389"/>
      <trkpt lat="-9.2003136" lon="148.3338183"/>
      <trkpt lat="-9.2004458" lon="148.3339037"/>
      <trkpt lat="-9.2006089" lon="148.3339672"/>
      <trkpt lat="-9.2007644" lon="148.3340506"/>
      <trkpt lat="-9.2009260" lon="148.3341244"/>
      <trkpt lat="-9.2010742" lon="148.3342020"/>
      <trkpt lat="-9.2012157" lon="148.3342724"/>
      <trkpt lat="-9.2013403" lon="148.3343638"/>
      <trkpt lat="-9.2013921" lon="148.3344695"/>
      <trkpt lat="-9.2013737" lon="148.3346085"/>
      <trkpt lat="-9.2013030" lon="148.3347696"/>
      <trkpt lat="-9.2012176" lon="148.3349144"/>
      <trkpt lat="-9.2011008" lon="148.3350237"/>
      <trkpt lat="-9.2010185" lon="148.3350675"/>
      <trkpt lat="-9.2009326" lon="148.3351068"/>
      <trkpt lat="-9.2008512" lon="148.3351582"/>
      <trkpt lat="-9.2006958" lon="148.3352509"/>
      <trkpt lat="-9.2005557" lon="148.3353602"/>
      <trkpt lat="-9.2004427" lon="148.3354933"/>
      <trkpt lat="-9.2003966" lon="148.3356507"/>
      <trkpt lat="-9.2004116" lon="148.3358161"/>
      <trkpt lat="-9.2004910" lon="148.3359186"/>
      <trkpt lat="-9.2005158" lon="148.3360103"/>
      <trkpt lat="-9.2005730" lon="148.3360659"/>
      <trkpt lat="-9.2006373" lon="148.3361678"/>
      <trkpt lat="-9.2007488" lon="148.3362786"/>
      <trkpt lat="-9.2008624" lon="148.3363863"/>
      <trkpt lat="-9.2009437" lon="148.3365099"/>
      <trkpt lat="-9.2010605" lon="148.3366171"/>
      <trkpt lat="-9.2011314" lon="148.3367615"/>
      <trkpt lat="-9.2012007" lon="148.3369064"/>
      <trkpt lat="-9.2012223" lon="148.3370716"/>
      <trkpt lat="-9.2012246" lon="148.3372442"/>
      <trkpt lat="-9.2011961" lon="148.3373857"/>
      <trkpt lat="-9.2011517" lon="148.3374900"/>
    </trkseg>
    <trkseg>
      <trkpt lat="-9.2011583" lon="148.3375217"/>
      <trkpt lat="-9.2012894" lon="148.3376416"/>
      <trkpt lat="-9.2014369" lon="148.3377284"/>
      <trkpt lat="-9.2016008" lon="148.3377733"/>
      <trkpt lat="-9.2017759" lon="148.3377706"/>
      <trkpt lat="-9.2019518" lon="148.3377511"/>
      <trkpt lat="-9.2021281" lon="148.3377410"/>
      <trkpt lat="-9.2022995" lon="148.3377712"/>
      <trkpt lat="-9.2024454" lon="148.3378582"/>
      <trkpt lat="-9.2025598" lon="148.3379897"/>
      <trkpt lat="-9.2026668" lon="148.3381286"/>
      <trkpt lat="-9.2027835" lon="148.3382516"/>
      <trkpt lat="-9.2029114" lon="148.3383669"/>
      <trkpt lat="-9.2030025" lon="148.3385054"/>
      <trkpt lat="-9.2030573" lon="148.3386711"/>
      <trkpt lat="-9.2030840" lon="148.3388503"/>
      <trkpt lat="-9.2031290" lon="148.3390217"/>
      <trkpt lat="-9.2032102" lon="148.3391746"/>
      <trkpt lat="-9.2033165" lon="148.3393154"/>
      <trkpt lat="-9.2034092" lon="148.3394636"/>
      <trkpt lat="-9.2034970" lon="148.3396088"/>
      <trkpt lat="-9.2036030" lon="148.3397191"/>
      <trkpt lat="-9.2037264" lon="148.3398160"/>
      <trkpt lat="-9.2038453" lon="148.3399215"/>
      <trkpt lat="-9.2039334" lon="148.3400681"/>
      <trkpt lat="-9.2039982" lon="148.3402291"/>
      <trkpt lat="-9.2040624" lon="148.3403901"/>
      <trkpt lat="-9.2041254" lon="148.3404944"/>
      <trkpt lat="-9.2041787" lon="148.3405764"/>
      <trkpt lat="-9.2042264" lon="148.3406185"/>
      <trkpt lat="-9.2043108" lon="148.3406749"/>
      <trkpt lat="-9.2044557" lon="148.3406754"/>
      <trkpt lat="-9.2046145" lon="148.3407021"/>
      <trkpt lat="-9.2047467" lon="148.3407670"/>
      <trkpt lat="-9.2048656" lon="148.3408601"/>
      <trkpt lat="-9.2049795" lon="148.3409475"/>
      <trkpt lat="-9.2051181" lon="148.3409870"/>
      <trkpt lat="-9.2052428" lon="148.3410615"/>
      <trkpt lat="-9.2053801" lon="148.3411201"/>
      <trkpt lat="-9.2054828" lon="148.3412209"/>
      <trkpt lat="-9.2055997" lon="148.3413125"/>
      <trkpt lat="-9.2057235" lon="148.3414121"/>
      <trkpt lat="-9.2058838" lon="148.3414684"/>
      <trkpt lat="-9.2060473" lon="148.3415185"/>
      <trkpt lat="-9.2062011" lon="148.3415502"/>
      <trkpt lat="-9.2063365" lon="148.3416205"/>
      <trkpt lat="-9.2064784" lon="148.3416766"/>
      <trkpt lat="-9.2066315" lon="148.3417439"/>
      <trkpt lat="-9.2067946" lon="148.3418008"/>
      <trkpt lat="-9.2069416" lon="148.3418887"/>
      <trkpt lat="-9.2070540" lon="148.3420190"/>
      <trkpt lat="-9.2071629" lon="148.3421584"/>
      <trkpt lat="-9.2072678" lon="148.3422974"/>
      <trkpt lat="-9.2073663" lon="148.3424390"/>
      <trkpt lat="-9.2074429" lon="148.3425976"/>
      <trkpt lat="-9.2075157" lon="148.3427622"/>
      <trkpt lat="-9.2076162" lon="148.3428837"/>
      <trkpt lat="-9.2077359" lon="148.3429876"/>
      <trkpt lat="-9.2078659" lon="148.3430180"/>
      <trkpt lat="-9.2079982" lon="148.3430657"/>
      <trkpt lat="-9.2081158" lon="148.3431165"/>
      <trkpt lat="-9.2082503" lon="148.3431945"/>
      <trkpt lat="-9.2083681" lon="148.3432857"/>
      <trkpt lat="-9.2084890" lon="148.3433826"/>
      <trkpt lat="-9.2086091" lon="148.3434741"/>
      <trkpt lat="-9.2086955" lon="148.3435317"/>
      <trkpt lat="-9.2087450" lon="148.3435550"/>
    </trkseg>
    <trkseg>
      <trkpt lat="-9.2086833" lon="148.3434850"/>
      <trkpt lat="-9.2087610" lon="148.3435954"/>
      <trkpt lat="-9.2088522" lon="148.3437186"/>
      <trkpt lat="-9.2089374" lon="148.3438609"/>
      <trkpt lat="-9.2089842" lon="148.3440255"/>
      <trkpt lat="-9.2090249" lon="148.3441940"/>
      <trkpt lat="-9.2090502" lon="148.3443665"/>
      <trkpt lat="-9.2091095" lon="148.3444968"/>
      <trkpt lat="-9.2091709" lon="148.3446032"/>
      <trkpt lat="-9.2092395" lon="148.3447096"/>
      <trkpt lat="-9.2093230" lon="148.3448176"/>
      <trkpt lat="-9.2093936" lon="148.3449529"/>
      <trkpt lat="-9.2095016" lon="148.3450682"/>
      <trkpt lat="-9.2095930" lon="148.3452070"/>
      <trkpt lat="-9.2097050" lon="148.3453379"/>
      <trkpt lat="-9.2097886" lon="148.3454887"/>
      <trkpt lat="-9.2098480" lon="148.3456521"/>
      <trkpt lat="-9.2098590" lon="148.3458254"/>
      <trkpt lat="-9.2098477" lon="148.3459947"/>
      <trkpt lat="-9.2098322" lon="148.3461649"/>
      <trkpt lat="-9.2098401" lon="148.3463349"/>
      <trkpt lat="-9.2099139" lon="148.3464736"/>
      <trkpt lat="-9.2099994" lon="148.3466094"/>
      <trkpt lat="-9.2101047" lon="148.3467374"/>
      <trkpt lat="-9.2101834" lon="148.3468936"/>
      <trkpt lat="-9.2102865" lon="148.3470354"/>
      <trkpt lat="-9.2104118" lon="148.3471585"/>
      <trkpt lat="-9.2105547" lon="148.3472599"/>
      <trkpt lat="-9.2106754" lon="148.3473756"/>
      <trkpt lat="-9.2107551" lon="148.3475193"/>
      <trkpt lat="-9.2108409" lon="148.3476577"/>
      <trkpt lat="-9.2109495" lon="148.3477589"/>
      <trkpt lat="-9.2110900" lon="148.3478162"/>
      <trkpt lat="-9.2111854" lon="148.3479071"/>
      <trkpt lat="-9.2112039" lon="148.3480300"/>
      <trkpt lat="-9.2111954" lon="148.3481648"/>
      <trkpt lat="-9.2112005" lon="148.3482594"/>
      <trkpt lat="-9.2112317" lon="148.3483608"/>
      <trkpt lat="-9.2112713" lon="148.3484904"/>
      <trkpt lat="-9.2112961" lon="148.3486605"/>
      <trkpt lat="-9.2113280" lon="148.3488351"/>
      <trkpt lat="-9.2113594" lon="148.3490093"/>
      <trkpt lat="-9.2113956" lon="148.3491833"/>
      <trkpt lat="-9.2114257" lon="148.3493495"/>
      <trkpt lat="-9.2113936" lon="148.3495066"/>
      <trkpt lat="-9.2113084" lon="148.3496458"/>
      <trkpt lat="-9.2112045" lon="148.3497822"/>
      <trkpt lat="-9.2111475" lon="148.3499324"/>
      <trkpt lat="-9.2111762" lon="148.3500550"/>
      <trkpt lat="-9.2112472" lon="148.3501744"/>
      <trkpt lat="-9.2112964" lon="148.3502914"/>
      <trkpt lat="-9.2113215" lon="148.3504489"/>
      <trkpt lat="-9.2113054" lon="148.3506080"/>
      <trkpt lat="-9.2113094" lon="148.3507656"/>
      <trkpt lat="-9.2113210" lon="148.3509131"/>
      <trkpt lat="-9.2113963" lon="148.3510483"/>
      <trkpt lat="-9.2115122" lon="148.3511596"/>
      <trkpt lat="-9.2116239" lon="148.3512689"/>
      <trkpt lat="-9.2116569" lon="148.3513847"/>
      <trkpt lat="-9.2116222" lon="148.3515247"/>
      <trkpt lat="-9.2115264" lon="148.3516558"/>
      <trkpt lat="-9.2114355" lon="148.3517949"/>
      <trkpt lat="-9.2113427" lon="148.3519317"/>
      <trkpt lat="-9.2112770" lon="148.3520947"/>
      <trkpt lat="-9.2112363" lon="148.3522670"/>
      <trkpt lat="-9.2111938" lon="148.3524409"/>
      <trkpt lat="-9.2111374" lon="148.3526104"/>
      <trkpt lat="-9.2110682" lon="148.3527772"/>
      <trkpt lat="-9.2110051" lon="148.3529458"/>
      <trkpt lat="-9.2109436" lon="148.3531142"/>
      <trkpt lat="-9.2109066" lon="148.3532865"/>
      <trkpt lat="-9.2108861" lon="148.3534613"/>
      <trkpt lat="-9.2108510" lon="148.3536274"/>
      <trkpt lat="-9.2107833" lon="148.3537835"/>
      <trkpt lat="-9.2107362" lon="148.3539326"/>
      <trkpt lat="-9.2107548" lon="148.3540859"/>
      <trkpt lat="-9.2108123" lon="148.3542451"/>
      <trkpt lat="-9.2108254" lon="148.3544049"/>
      <trkpt lat="-9.2108263" lon="148.3545705"/>
      <trkpt lat="-9.2108540" lon="148.3547247"/>
      <trkpt lat="-9.2109595" lon="148.3548315"/>
      <trkpt lat="-9.2111033" lon="148.3548755"/>
      <trkpt lat="-9.2112681" lon="148.3548819"/>
      <trkpt lat="-9.2114262" lon="148.3549202"/>
      <trkpt lat="-9.2115565" lon="148.3550194"/>
      <trkpt lat="-9.2116566" lon="148.3551640"/>
      <trkpt lat="-9.2117179" lon="148.3553261"/>
      <trkpt lat="-9.2117882" lon="148.3554832"/>
      <trkpt lat="-9.2118834" lon="148.3556095"/>
      <trkpt lat="-9.2119882" lon="148.3556562"/>
      <trkpt lat="-9.2120656" lon="148.3556551"/>
      <trkpt lat="-9.2120967" lon="148.3556333"/>
    </trkseg>
    <trkseg>
      <trkpt lat="-9.2120067" lon="148.3556433"/>
      <trkpt lat="-9.2120471" lon="148.3558166"/>
      <trkpt lat="-9.2121196" lon="148.3559742"/>
      <trkpt lat="-9.2122013" lon="148.3561270"/>
      <trkpt lat="-9.2122685" lon="148.3562837"/>
      <trkpt lat="-9.2122977" lon="148.3564564"/>
      <trkpt lat="-9.2123522" lon="148.3566010"/>
      <trkpt lat="-9.2124472" lon="148.3567215"/>
      <trkpt lat="-9.2125883" lon="148.3568085"/>
      <trkpt lat="-9.2127123" lon="148.3569195"/>
      <trkpt lat="-9.2128336" lon="148.3570210"/>
      <trkpt lat="-9.2129642" lon="148.3570805"/>
      <trkpt lat="-9.2131021" lon="148.3571190"/>
      <trkpt lat="-9.2131654" lon="148.3571832"/>
      <trkpt lat="-9.2131534" lon="148.3573186"/>
      <trkpt lat="-9.2130764" lon="148.3574698"/>
      <trkpt lat="-9.2130146" lon="148.3576295"/>
      <trkpt lat="-9.2129566" lon="148.3577899"/>
      <trkpt lat="-9.2128941" lon="148.3579515"/>
      <trkpt lat="-9.2127951" lon="148.3580839"/>
      <trkpt lat="-9.2126786" lon="148.3582059"/>
      <trkpt lat="-9.2125760" lon="148.3583362"/>
      <trkpt lat="-9.2125140" lon="148.3584957"/>
      <trkpt lat="-9.2124568" lon="148.3586620"/>
      <trkpt lat="-9.2124093" lon="148.3588323"/>
      <trkpt lat="-9.2123634" lon="148.3590034"/>
      <trkpt lat="-9.2123459" lon="148.3591813"/>
      <trkpt lat="-9.2123268" lon="148.3593585"/>
      <trkpt lat="-9.2123303" lon="148.3595341"/>
      <trkpt lat="-9.2123292" lon="148.3597103"/>
      <trkpt lat="-9.2123597" lon="148.3598834"/>
      <trkpt lat="-9.2123480" lon="148.3600344"/>
      <trkpt lat="-9.2122847" lon="148.3601013"/>
      <trkpt lat="-9.2121561" lon="148.3600814"/>
      <trkpt lat="-9.2120054" lon="148.3600078"/>
      <trkpt lat="-9.2118974" lon="148.3599018"/>
      <trkpt lat="-9.2117932" lon="148.3597965"/>
      <trkpt lat="-9.2117293" lon="148.3596600"/>
      <trkpt lat="-9.2116861" lon="148.3595223"/>
      <trkpt lat="-9.2116501" lon="148.3593711"/>
      <trkpt lat="-9.2115845" lon="148.3592256"/>
      <trkpt lat="-9.2114801" lon="148.3590878"/>
      <trkpt lat="-9.2113621" lon="148.3589654"/>
      <trkpt lat="-9.2112285" lon="148.3588580"/>
      <trkpt lat="-9.2110854" lon="148.3587568"/>
      <trkpt lat="-9.2109340" lon="148.3586727"/>
      <trkpt lat="-9.2107765" lon="148.3586142"/>
      <trkpt lat="-9.2106056" lon="148.3586249"/>
      <trkpt lat="-9.2104506" lon="148.3586870"/>
      <trkpt lat="-9.2102974" lon="148.3587650"/>
      <trkpt lat="-9.2101645" lon="148.3588629"/>
      <trkpt lat="-9.2100474" lon="148.3589741"/>
      <trkpt lat="-9.2100081" lon="148.3591261"/>
      <trkpt lat="-9.2100319" lon="148.3592822"/>
      <trkpt lat="-9.2101138" lon="148.3594361"/>
      <trkpt lat="-9.2102212" lon="148.3595633"/>
      <trkpt lat="-9.2103193" lon="148.3596809"/>
      <trkpt lat="-9.2103710" lon="148.3598061"/>
      <trkpt lat="-9.2103806" lon="148.3599641"/>
      <trkpt lat="-9.2103584" lon="148.3601423"/>
      <trkpt lat="-9.2103684" lon="148.3603093"/>
      <trkpt lat="-9.2103917" lon="148.3604633"/>
    </trkseg>
    <trkseg>
      <trkpt lat="-9.2104183" lon="148.3605850"/>
      <trkpt lat="-9.2105323" lon="148.3607260"/>
      <trkpt lat="-9.2106508" lon="148.3608619"/>
      <trkpt lat="-9.2107740" lon="148.3609774"/>
      <trkpt lat="-9.2109157" lon="148.3610378"/>
      <trkpt lat="-9.2110615" lon="148.3610293"/>
      <trkpt lat="-9.2111847" lon="148.3609409"/>
      <trkpt lat="-9.2112754" lon="148.3608957"/>
      <trkpt lat="-9.2113637" lon="148.3609190"/>
      <trkpt lat="-9.2114871" lon="148.3610191"/>
      <trkpt lat="-9.2116291" lon="148.3611209"/>
      <trkpt lat="-9.2117566" lon="148.3612324"/>
      <trkpt lat="-9.2118274" lon="148.3613229"/>
      <trkpt lat="-9.2118515" lon="148.3613778"/>
      <trkpt lat="-9.2118450" lon="148.3613800"/>
    </trkseg>
    <trkseg>
      <trkpt lat="-9.2119050" lon="148.3614483"/>
      <trkpt lat="-9.2119010" lon="148.3614153"/>
      <trkpt lat="-9.2118608" lon="148.3614074"/>
      <trkpt lat="-9.2118433" lon="148.3614695"/>
      <trkpt lat="-9.2118401" lon="148.3615731"/>
      <trkpt lat="-9.2118913" lon="148.3617260"/>
      <trkpt lat="-9.2118834" lon="148.3618698"/>
      <trkpt lat="-9.2119014" lon="148.3620028"/>
      <trkpt lat="-9.2119348" lon="148.3621242"/>
      <trkpt lat="-9.2120276" lon="148.3622521"/>
      <trkpt lat="-9.2121036" lon="148.3623796"/>
      <trkpt lat="-9.2121442" lon="148.3625103"/>
      <trkpt lat="-9.2121863" lon="148.3626240"/>
      <trkpt lat="-9.2122555" lon="148.3627323"/>
      <trkpt lat="-9.2123727" lon="148.3628229"/>
      <trkpt lat="-9.2125149" lon="148.3629005"/>
      <trkpt lat="-9.2126779" lon="148.3629636"/>
      <trkpt lat="-9.2128112" lon="148.3630476"/>
      <trkpt lat="-9.2128860" lon="148.3631017"/>
      <trkpt lat="-9.2129607" lon="148.3631481"/>
      <trkpt lat="-9.2130716" lon="148.3631574"/>
      <trkpt lat="-9.2132412" lon="148.3631926"/>
      <trkpt lat="-9.2133981" lon="148.3632477"/>
      <trkpt lat="-9.2135491" lon="148.3633137"/>
      <trkpt lat="-9.2136609" lon="148.3633394"/>
      <trkpt lat="-9.2137428" lon="148.3633661"/>
      <trkpt lat="-9.2138097" lon="148.3633912"/>
      <trkpt lat="-9.2138930" lon="148.3634488"/>
      <trkpt lat="-9.2140079" lon="148.3634435"/>
      <trkpt lat="-9.2141297" lon="148.3633767"/>
      <trkpt lat="-9.2142689" lon="148.3632760"/>
      <trkpt lat="-9.2143736" lon="148.3631740"/>
      <trkpt lat="-9.2144507" lon="148.3631390"/>
      <trkpt lat="-9.2144811" lon="148.3631483"/>
      <trkpt lat="-9.2145033" lon="148.3632100"/>
    </trkseg>
    <trkseg>
      <trkpt lat="-9.1565583" lon="148.3033183"/>
      <trkpt lat="-9.1565701" lon="148.3031421"/>
      <trkpt lat="-9.1565910" lon="148.3029684"/>
      <trkpt lat="-9.1566023" lon="148.3027968"/>
      <trkpt lat="-9.1565922" lon="148.3026204"/>
      <trkpt lat="-9.1565800" lon="148.3024425"/>
      <trkpt lat="-9.1565708" lon="148.3022657"/>
      <trkpt lat="-9.1565423" lon="148.3020963"/>
      <trkpt lat="-9.1564864" lon="148.3019309"/>
      <trkpt lat="-9.1564185" lon="148.3017666"/>
      <trkpt lat="-9.1563156" lon="148.3016367"/>
      <trkpt lat="-9.1561785" lon="148.3015717"/>
      <trkpt lat="-9.1560038" lon="148.3015612"/>
      <trkpt lat="-9.1558254" lon="148.3015644"/>
      <trkpt lat="-9.1556459" lon="148.3015663"/>
      <trkpt lat="-9.1554681" lon="148.3015577"/>
      <trkpt lat="-9.1553008" lon="148.3015198"/>
      <trkpt lat="-9.1551822" lon="148.3014160"/>
      <trkpt lat="-9.1551225" lon="148.3012809"/>
      <trkpt lat="-9.1550815" lon="148.3011322"/>
      <trkpt lat="-9.1550335" lon="148.3009879"/>
      <trkpt lat="-9.1549603" lon="148.3008336"/>
      <trkpt lat="-9.1549080" lon="148.3006706"/>
      <trkpt lat="-9.1548649" lon="148.3005019"/>
      <trkpt lat="-9.1548384" lon="148.3003267"/>
      <trkpt lat="-9.1548491" lon="148.3001576"/>
      <trkpt lat="-9.1548842" lon="148.2999908"/>
      <trkpt lat="-9.1549561" lon="148.2998341"/>
      <trkpt lat="-9.1550061" lon="148.2996699"/>
      <trkpt lat="-9.1550158" lon="148.2995080"/>
      <trkpt lat="-9.1550293" lon="148.2993458"/>
      <trkpt lat="-9.1550635" lon="148.2991960"/>
      <trkpt lat="-9.1551431" lon="148.2990658"/>
      <trkpt lat="-9.1552185" lon="148.2989369"/>
      <trkpt lat="-9.1553122" lon="148.2988147"/>
      <trkpt lat="-9.1554068" lon="148.2986757"/>
      <trkpt lat="-9.1554462" lon="148.2985342"/>
      <trkpt lat="-9.1554159" lon="148.2983793"/>
      <trkpt lat="-9.1553298" lon="148.2982347"/>
      <trkpt lat="-9.1553197" lon="148.2981121"/>
      <trkpt lat="-9.1553906" lon="148.2980183"/>
      <trkpt lat="-9.1555528" lon="148.2979519"/>
      <trkpt lat="-9.1557242" lon="148.2979005"/>
      <trkpt lat="-9.1558646" lon="148.2978249"/>
      <trkpt lat="-9.1559536" lon="148.2977032"/>
      <trkpt lat="-9.1560327" lon="148.2975659"/>
      <trkpt lat="-9.1561021" lon="148.2974193"/>
      <trkpt lat="-9.1561660" lon="148.2972769"/>
      <trkpt lat="-9.1562084" lon="148.2971147"/>
      <trkpt lat="-9.1562816" lon="148.2969775"/>
      <trkpt lat="-9.1563815" lon="148.2968439"/>
      <trkpt lat="-9.1564555" lon="148.2967005"/>
      <trkpt lat="-9.1564633" lon="148.2965322"/>
      <trkpt lat="-9.1564087" lon="148.2963713"/>
      <trkpt lat="-9.1563048" lon="148.2962361"/>
      <trkpt lat="-9.1561754" lon="148.2961200"/>
      <trkpt lat="-9.1560315" lon="148.2960167"/>
      <trkpt lat="-9.1558822" lon="148.2959192"/>
      <trkpt lat="-9.1557225" lon="148.2958387"/>
      <trkpt lat="-9.1555562" lon="148.2957695"/>
      <trkpt lat="-9.1554200" lon="148.2956786"/>
      <trkpt lat="-9.1553585" lon="148.2955527"/>
      <trkpt lat="-9.1553340" lon="148.2953929"/>
      <trkpt lat="-9.1552796" lon="148.2952613"/>
      <trkpt lat="-9.1551572" lon="148.2951525"/>
      <trkpt lat="-9.1549978" lon="148.2950791"/>
      <trkpt lat="-9.1548326" lon="148.2950143"/>
      <trkpt lat="-9.1546647" lon="148.2949624"/>
      <trkpt lat="-9.1545254" lon="148.2948782"/>
      <trkpt lat="-9.1543934" lon="148.2947754"/>
      <trkpt lat="-9.1542650" lon="148.2946570"/>
      <trkpt lat="-9.1541564" lon="148.2945331"/>
      <trkpt lat="-9.1540798" lon="148.2943836"/>
      <trkpt lat="-9.1540701" lon="148.2942135"/>
      <trkpt lat="-9.1540744" lon="148.2940405"/>
      <trkpt lat="-9.1541285" lon="148.2938737"/>
      <trkpt lat="-9.1542203" lon="148.2937451"/>
      <trkpt lat="-9.1543664" lon="148.2936759"/>
      <trkpt lat="-9.1545423" lon="148.2936502"/>
      <trkpt lat="-9.1547165" lon="148.2936646"/>
      <trkpt lat="-9.1548717" lon="148.2937236"/>
      <trkpt lat="-9.1550188" lon="148.2938194"/>
      <trkpt lat="-9.1551697" lon="148.2939079"/>
      <trkpt lat="-9.1553386" lon="148.2939599"/>
      <trkpt lat="-9.1554978" lon="148.2940245"/>
      <trkpt lat="-9.1556468" lon="148.2941108"/>
      <trkpt lat="-9.1557941" lon="148.2942015"/>
      <trkpt lat="-9.1559592" lon="148.2942528"/>
      <trkpt lat="-9.1561310" lon="148.2942910"/>
      <trkpt lat="-9.1563023" lon="148.2943249"/>
      <trkpt lat="-9.1564731" lon="148.2943597"/>
      <trkpt lat="-9.1566487" lon="148.2943701"/>
      <trkpt lat="-9.1568267" lon="148.2943717"/>
    </trkseg>
    <trkseg>
      <trkpt lat="-9.1611417" lon="148.3004050"/>
      <trkpt lat="-9.1612881" lon="148.3004612"/>
      <trkpt lat="-9.1614411" lon="148.3004521"/>
      <trkpt lat="-9.1615989" lon="148.3004353"/>
      <trkpt lat="-9.1617494" lon="148.3004594"/>
      <trkpt lat="-9.1619085" lon="148.3005103"/>
      <trkpt lat="-9.1620252" lon="148.3005647"/>
      <trkpt lat="-9.1620460" lon="148.3006306"/>
      <trkpt lat="-9.1620239" lon="148.3007331"/>
      <trkpt lat="-9.1620065" lon="148.3008000"/>
      <trkpt lat="-9.1620450" lon="148.3008217"/>
    </trkseg>
    <trkseg>
      <trkpt lat="-9.1621767" lon="148.3004833"/>
      <trkpt lat="-9.1623182" lon="148.3005850"/>
      <trkpt lat="-9.1624531" lon="148.3006832"/>
      <trkpt lat="-9.1625450" lon="148.3008106"/>
      <trkpt lat="-9.1625912" lon="148.3009557"/>
      <trkpt lat="-9.1625717" lon="148.3011303"/>
      <trkpt lat="-9.1625023" lon="148.3012801"/>
      <trkpt lat="-9.1623856" lon="148.3013934"/>
      <trkpt lat="-9.1622448" lon="148.3014821"/>
      <trkpt lat="-9.1621161" lon="148.3015814"/>
      <trkpt lat="-9.1620040" lon="148.3016964"/>
      <trkpt lat="-9.1619171" lon="148.3018332"/>
      <trkpt lat="-9.1618428" lon="148.3019821"/>
      <trkpt lat="-9.1617631" lon="148.3021304"/>
      <trkpt lat="-9.1616488" lon="148.3022380"/>
      <trkpt lat="-9.1615031" lon="148.3023214"/>
      <trkpt lat="-9.1613528" lon="148.3023377"/>
      <trkpt lat="-9.1612022" lon="148.3023177"/>
      <trkpt lat="-9.1610512" lon="148.3022336"/>
      <trkpt lat="-9.1608961" lon="148.3021579"/>
      <trkpt lat="-9.1607815" lon="148.3020937"/>
      <trkpt lat="-9.1607017" lon="148.3020483"/>
    </trkseg>
    <trkseg>
      <trkpt lat="-9.1606267" lon="148.3019967"/>
      <trkpt lat="-9.1605768" lon="148.3018367"/>
      <trkpt lat="-9.1605231" lon="148.3016720"/>
      <trkpt lat="-9.1604741" lon="148.3015063"/>
      <trkpt lat="-9.1604764" lon="148.3013481"/>
      <trkpt lat="-9.1605163" lon="148.3011918"/>
      <trkpt lat="-9.1605488" lon="148.3010309"/>
      <trkpt lat="-9.1605756" lon="148.3008688"/>
      <trkpt lat="-9.1606102" lon="148.3007063"/>
      <trkpt lat="-9.1606876" lon="148.3005467"/>
      <trkpt lat="-9.1607898" lon="148.3004265"/>
      <trkpt lat="-9.1609112" lon="148.3003805"/>
      <trkpt lat="-9.1610533" lon="148.3004083"/>
    </trkseg>
    <trkseg>
      <trkpt lat="-9.1569467" lon="148.2943200"/>
      <trkpt lat="-9.1569537" lon="148.2941472"/>
      <trkpt lat="-9.1570147" lon="148.2940193"/>
      <trkpt lat="-9.1571014" lon="148.2939134"/>
      <trkpt lat="-9.1571527" lon="148.2938083"/>
      <trkpt lat="-9.1571587" lon="148.2936567"/>
      <trkpt lat="-9.1571956" lon="148.2935261"/>
      <trkpt lat="-9.1573154" lon="148.2934595"/>
      <trkpt lat="-9.1574884" lon="148.2934602"/>
      <trkpt lat="-9.1576588" lon="148.2934930"/>
      <trkpt lat="-9.1578168" lon="148.2934796"/>
      <trkpt lat="-9.1579389" lon="148.2934029"/>
      <trkpt lat="-9.1580611" lon="148.2932848"/>
      <trkpt lat="-9.1581850" lon="148.2931706"/>
      <trkpt lat="-9.1583374" lon="148.2930832"/>
      <trkpt lat="-9.1584683" lon="148.2929708"/>
      <trkpt lat="-9.1585728" lon="148.2928379"/>
      <trkpt lat="-9.1586484" lon="148.2926785"/>
      <trkpt lat="-9.1586795" lon="148.2925102"/>
      <trkpt lat="-9.1587309" lon="148.2923705"/>
      <trkpt lat="-9.1588114" lon="148.2923158"/>
      <trkpt lat="-9.1589492" lon="148.2923623"/>
      <trkpt lat="-9.1591030" lon="148.2924270"/>
      <trkpt lat="-9.1592354" lon="148.2924178"/>
      <trkpt lat="-9.1593156" lon="148.2923070"/>
      <trkpt lat="-9.1593139" lon="148.2921539"/>
      <trkpt lat="-9.1592683" lon="148.2919894"/>
      <trkpt lat="-9.1592227" lon="148.2918243"/>
      <trkpt lat="-9.1592213" lon="148.2916595"/>
      <trkpt lat="-9.1592876" lon="148.2915463"/>
      <trkpt lat="-9.1593773" lon="148.2915500"/>
      <trkpt lat="-9.1594944" lon="148.2915795"/>
      <trkpt lat="-9.1595965" lon="148.2915714"/>
      <trkpt lat="-9.1597320" lon="148.2914696"/>
      <trkpt lat="-9.1598626" lon="148.2913544"/>
      <trkpt lat="-9.1599324" lon="148.2912297"/>
      <trkpt lat="-9.1599107" lon="148.2911012"/>
      <trkpt lat="-9.1598036" lon="148.2909661"/>
      <trkpt lat="-9.1596697" lon="148.2908455"/>
      <trkpt lat="-9.1595934" lon="148.2907148"/>
      <trkpt lat="-9.1596062" lon="148.2905917"/>
      <trkpt lat="-9.1597219" lon="148.2904820"/>
      <trkpt lat="-9.1598806" lon="148.2904024"/>
      <trkpt lat="-9.1600474" lon="148.2903641"/>
      <trkpt lat="-9.1601951" lon="148.2903959"/>
      <trkpt lat="-9.1603451" lon="148.2904597"/>
      <trkpt lat="-9.1604880" lon="148.2905536"/>
      <trkpt lat="-9.1606534" lon="148.2906056"/>
      <trkpt lat="-9.1608060" lon="148.2906790"/>
      <trkpt lat="-9.1609502" lon="148.2907611"/>
      <trkpt lat="-9.1610767" lon="148.2908831"/>
      <trkpt lat="-9.1612050" lon="148.2910027"/>
      <trkpt lat="-9.1613239" lon="148.2911292"/>
      <trkpt lat="-9.1614565" lon="148.2912352"/>
      <trkpt lat="-9.1615822" lon="148.2913542"/>
      <trkpt lat="-9.1616796" lon="148.2914830"/>
      <trkpt lat="-9.1617800" lon="148.2916055"/>
      <trkpt lat="-9.1618838" lon="148.2917186"/>
      <trkpt lat="-9.1620207" lon="148.2918188"/>
      <trkpt lat="-9.1621375" lon="148.2919484"/>
      <trkpt lat="-9.1622388" lon="148.2920954"/>
      <trkpt lat="-9.1623147" lon="148.2922521"/>
      <trkpt lat="-9.1624002" lon="148.2923966"/>
      <trkpt lat="-9.1625054" lon="148.2925197"/>
      <trkpt lat="-9.1626204" lon="148.2925984"/>
      <trkpt lat="-9.1627083" lon="148.2926550"/>
    </trkseg>
    <trkseg>
      <trkpt lat="-9.1627783" lon="148.2927183"/>
      <trkpt lat="-9.1629407" lon="148.2927881"/>
      <trkpt lat="-9.1631010" lon="148.2928366"/>
      <trkpt lat="-9.1632619" lon="148.2928590"/>
      <trkpt lat="-9.1634352" lon="148.2928309"/>
      <trkpt lat="-9.1636068" lon="148.2928143"/>
      <trkpt lat="-9.1637753" lon="148.2928182"/>
      <trkpt lat="-9.1639448" lon="148.2928285"/>
      <trkpt lat="-9.1641141" lon="148.2928574"/>
      <trkpt lat="-9.1642859" lon="148.2928925"/>
      <trkpt lat="-9.1644578" lon="148.2929379"/>
      <trkpt lat="-9.1646343" lon="148.2929694"/>
      <trkpt lat="-9.1648093" lon="148.2930020"/>
      <trkpt lat="-9.1649760" lon="148.2930582"/>
      <trkpt lat="-9.1651301" lon="148.2931346"/>
      <trkpt lat="-9.1652811" lon="148.2932115"/>
      <trkpt lat="-9.1654324" lon="148.2932910"/>
      <trkpt lat="-9.1655878" lon="148.2933732"/>
      <trkpt lat="-9.1657365" lon="148.2934759"/>
      <trkpt lat="-9.1658743" lon="148.2935918"/>
      <trkpt lat="-9.1660187" lon="148.2936909"/>
      <trkpt lat="-9.1661730" lon="148.2937727"/>
      <trkpt lat="-9.1663450" lon="148.2938032"/>
      <trkpt lat="-9.1665130" lon="148.2938386"/>
      <trkpt lat="-9.1666762" lon="148.2938825"/>
      <trkpt lat="-9.1668392" lon="148.2939394"/>
      <trkpt lat="-9.1670036" lon="148.2940010"/>
      <trkpt lat="-9.1671730" lon="148.2940516"/>
      <trkpt lat="-9.1673420" lon="148.2941085"/>
      <trkpt lat="-9.1675168" lon="148.2941339"/>
      <trkpt lat="-9.1676945" lon="148.2941407"/>
      <trkpt lat="-9.1678696" lon="148.2941396"/>
      <trkpt lat="-9.1680426" lon="148.2941416"/>
      <trkpt lat="-9.1682120" lon="148.2941654"/>
      <trkpt lat="-9.1683855" lon="148.2941799"/>
      <trkpt lat="-9.1685604" lon="148.2941899"/>
      <trkpt lat="-9.1687396" lon="148.2941785"/>
      <trkpt lat="-9.1689193" lon="148.2941766"/>
      <trkpt lat="-9.1690875" lon="148.2941736"/>
      <trkpt lat="-9.1692433" lon="148.2941633"/>
    </trkseg>
  </trk>
</gpx>
