<?xml version="1.0" encoding="UTF-8"?>
<gpx version="1.1" creator="MCA Maps — Managalas clan boundary survey"
     xmlns="http://www.topografix.com/GPX/1/1"
     xmlns:xsi="http://www.w3.org/2001/XMLSchema-instance"
     xsi:schemaLocation="http://www.topografix.com/GPX/1/1 http://www.topografix.com/GPX/1/1/gpx.xsd">
  <metadata>
    <name>Sahirut — clan land boundary</name>
    <desc>Sahirut, Zone 6. 23.0 km walked; 0.2 km still to walk in 1 gap</desc>
    <time>2026-08-18T00:00:00Z</time>
  </metadata>
  <wpt lat="-9.0402507" lon="148.3835541">
    <name>GAP 1 OF 1 START</name>
    <desc>0.22 km not walked. This straight line is not a boundary — it joins the two ends so the shape can be closed on paper. Sahirut, Zone 6.</desc>
    <sym>Flag</sym>
  </wpt>
  <wpt lat="-9.0416477" lon="148.3821725">
    <name>GAP 1 OF 1 END</name>
    <desc>0.22 km not walked. This straight line is not a boundary — it joins the two ends so the shape can be closed on paper. Sahirut, Zone 6.</desc>
    <sym>Flag</sym>
  </wpt>
  <trk>
    <name>GAP 1 OF 1 - NOT WALKED - 0.22 km</name>
    <desc>0.22 km not walked. This straight line is not a boundary — it joins the two ends so the shape can be closed on paper. Sahirut, Zone 6.</desc>
    <type>not-walked</type>
    <trkseg>
      <trkpt lat="-9.0402507" lon="148.3835541"/>
      <trkpt lat="-9.0416477" lon="148.3821725"/>
    </trkseg>
  </trk>
  <trk>
    <name>Sahirut - Lenard Urami</name>
    <desc>Walked by Lenard Urami. 4.9 km, 2 track(s), recorded on the ground. Sahirut, Zone 6.</desc>
    <type>walked-boundary</type>
    <trkseg>
      <trkpt lat="-9.0482331" lon="148.3895584"/>
      <trkpt lat="-9.0483246" lon="148.3895685"/>
    </trkseg>
    <trkseg>
      <trkpt lat="-9.0482915" lon="148.3893825"/>
      <trkpt lat="-9.0482618" lon="148.3895568"/>
      <trkpt lat="-9.0482275" lon="148.3897311"/>
      <trkpt lat="-9.0481732" lon="148.3899020"/>
      <trkpt lat="-9.0481107" lon="148.3900672"/>
      <trkpt lat="-9.0480212" lon="148.3902213"/>
      <trkpt lat="-9.0479320" lon="148.3903750"/>
      <trkpt lat="-9.0478479" lon="148.3905307"/>
      <trkpt lat="-9.0477969" lon="148.3906996"/>
      <trkpt lat="-9.0477738" lon="148.3908738"/>
      <trkpt lat="-9.0477663" lon="148.3910547"/>
      <trkpt lat="-9.0477442" lon="148.3912330"/>
      <trkpt lat="-9.0477257" lon="148.3914101"/>
      <trkpt lat="-9.0477024" lon="148.3915856"/>
      <trkpt lat="-9.0476916" lon="148.3917607"/>
      <trkpt lat="-9.0476332" lon="148.3919181"/>
      <trkpt lat="-9.0475313" lon="148.3920392"/>
      <trkpt lat="-9.0473824" lon="148.3921324"/>
      <trkpt lat="-9.0472279" lon="148.3922232"/>
      <trkpt lat="-9.0470873" lon="148.3923349"/>
      <trkpt lat="-9.0469597" lon="148.3924617"/>
      <trkpt lat="-9.0468313" lon="148.3925875"/>
      <trkpt lat="-9.0466941" lon="148.3927029"/>
      <trkpt lat="-9.0465426" lon="148.3928005"/>
      <trkpt lat="-9.0463841" lon="148.3928873"/>
      <trkpt lat="-9.0462269" lon="148.3929759"/>
      <trkpt lat="-9.0460681" lon="148.3930604"/>
      <trkpt lat="-9.0459058" lon="148.3931361"/>
      <trkpt lat="-9.0457357" lon="148.3931968"/>
      <trkpt lat="-9.0455619" lon="148.3932454"/>
      <trkpt lat="-9.0453867" lon="148.3932884"/>
      <trkpt lat="-9.0452099" lon="148.3933256"/>
      <trkpt lat="-9.0450337" lon="148.3933666"/>
      <trkpt lat="-9.0448571" lon="148.3933992"/>
      <trkpt lat="-9.0446788" lon="148.3934184"/>
      <trkpt lat="-9.0444987" lon="148.3934240"/>
      <trkpt lat="-9.0443179" lon="148.3934260"/>
      <trkpt lat="-9.0441371" lon="148.3934270"/>
      <trkpt lat="-9.0439564" lon="148.3934283"/>
      <trkpt lat="-9.0437756" lon="148.3934315"/>
      <trkpt lat="-9.0435948" lon="148.3934363"/>
      <trkpt lat="-9.0434141" lon="148.3934416"/>
      <trkpt lat="-9.0432336" lon="148.3934505"/>
      <trkpt lat="-9.0430533" lon="148.3934626"/>
      <trkpt lat="-9.0428731" lon="148.3934784"/>
      <trkpt lat="-9.0426938" lon="148.3934788"/>
      <trkpt lat="-9.0425154" lon="148.3934640"/>
      <trkpt lat="-9.0423379" lon="148.3934327"/>
      <trkpt lat="-9.0421621" lon="148.3933924"/>
      <trkpt lat="-9.0419861" lon="148.3933541"/>
      <trkpt lat="-9.0418109" lon="148.3933135"/>
      <trkpt lat="-9.0416341" lon="148.3932974"/>
      <trkpt lat="-9.0414567" lon="148.3932977"/>
      <trkpt lat="-9.0412783" lon="148.3933205"/>
      <trkpt lat="-9.0411023" lon="148.3933327"/>
      <trkpt lat="-9.0409269" lon="148.3933481"/>
      <trkpt lat="-9.0407510" lon="148.3933590"/>
      <trkpt lat="-9.0405719" lon="148.3933707"/>
      <trkpt lat="-9.0403916" lon="148.3933706"/>
      <trkpt lat="-9.0402110" lon="148.3933634"/>
      <trkpt lat="-9.0400303" lon="148.3933594"/>
      <trkpt lat="-9.0398499" lon="148.3933501"/>
      <trkpt lat="-9.0396740" lon="148.3933660"/>
      <trkpt lat="-9.0395047" lon="148.3934100"/>
      <trkpt lat="-9.0393425" lon="148.3934899"/>
      <trkpt lat="-9.0391820" lon="148.3935733"/>
      <trkpt lat="-9.0390207" lon="148.3936554"/>
      <trkpt lat="-9.0388576" lon="148.3937340"/>
      <trkpt lat="-9.0386942" lon="148.3938119"/>
      <trkpt lat="-9.0385292" lon="148.3938861"/>
      <trkpt lat="-9.0383599" lon="148.3939438"/>
      <trkpt lat="-9.0381849" lon="148.3939787"/>
      <trkpt lat="-9.0380057" lon="148.3939946"/>
      <trkpt lat="-9.0378251" lon="148.3940043"/>
      <trkpt lat="-9.0376475" lon="148.3940292"/>
      <trkpt lat="-9.0374731" lon="148.3940709"/>
      <trkpt lat="-9.0373044" lon="148.3941346"/>
      <trkpt lat="-9.0371430" lon="148.3942137"/>
      <trkpt lat="-9.0369860" lon="148.3943027"/>
      <trkpt lat="-9.0368277" lon="148.3943888"/>
      <trkpt lat="-9.0366730" lon="148.3944779"/>
      <trkpt lat="-9.0365298" lon="148.3945817"/>
      <trkpt lat="-9.0364038" lon="148.3947095"/>
      <trkpt lat="-9.0362902" lon="148.3948496"/>
      <trkpt lat="-9.0361971" lon="148.3950021"/>
      <trkpt lat="-9.0361157" lon="148.3951625"/>
      <trkpt lat="-9.0360406" lon="148.3953274"/>
      <trkpt lat="-9.0359546" lon="148.3954873"/>
      <trkpt lat="-9.0358693" lon="148.3956473"/>
      <trkpt lat="-9.0357922" lon="148.3958084"/>
      <trkpt lat="-9.0357194" lon="148.3959698"/>
      <trkpt lat="-9.0356314" lon="148.3961209"/>
      <trkpt lat="-9.0355421" lon="148.3962735"/>
      <trkpt lat="-9.0354561" lon="148.3964294"/>
      <trkpt lat="-9.0353611" lon="148.3965710"/>
      <trkpt lat="-9.0352359" lon="148.3966884"/>
      <trkpt lat="-9.0350777" lon="148.3967610"/>
      <trkpt lat="-9.0349120" lon="148.3968125"/>
      <trkpt lat="-9.0347410" lon="148.3968530"/>
      <trkpt lat="-9.0345674" lon="148.3968935"/>
      <trkpt lat="-9.0343917" lon="148.3969288"/>
      <trkpt lat="-9.0342123" lon="148.3969481"/>
      <trkpt lat="-9.0340349" lon="148.3969448"/>
      <trkpt lat="-9.0338630" lon="148.3969131"/>
      <trkpt lat="-9.0336914" lon="148.3968678"/>
      <trkpt lat="-9.0335172" lon="148.3968283"/>
      <trkpt lat="-9.0333376" lon="148.3968076"/>
      <trkpt lat="-9.0331584" lon="148.3967868"/>
      <trkpt lat="-9.0329809" lon="148.3967566"/>
      <trkpt lat="-9.0328183" lon="148.3966929"/>
      <trkpt lat="-9.0326713" lon="148.3965962"/>
      <trkpt lat="-9.0325318" lon="148.3964826"/>
      <trkpt lat="-9.0323838" lon="148.3963850"/>
      <trkpt lat="-9.0322190" lon="148.3963313"/>
      <trkpt lat="-9.0320461" lon="148.3963226"/>
      <trkpt lat="-9.0318677" lon="148.3963476"/>
      <trkpt lat="-9.0316902" lon="148.3963803"/>
      <trkpt lat="-9.0315128" lon="148.3964139"/>
      <trkpt lat="-9.0313355" lon="148.3964492"/>
      <trkpt lat="-9.0311592" lon="148.3964890"/>
      <trkpt lat="-9.0309841" lon="148.3965337"/>
      <trkpt lat="-9.0308106" lon="148.3965849"/>
      <trkpt lat="-9.0306399" lon="148.3966442"/>
      <trkpt lat="-9.0304732" lon="148.3967129"/>
      <trkpt lat="-9.0303122" lon="148.3967946"/>
      <trkpt lat="-9.0301537" lon="148.3968799"/>
      <trkpt lat="-9.0299906" lon="148.3969328"/>
      <trkpt lat="-9.0298665" lon="148.3968986"/>
      <trkpt lat="-9.0298054" lon="148.3967782"/>
      <trkpt lat="-9.0298189" lon="148.3966043"/>
      <trkpt lat="-9.0298523" lon="148.3964261"/>
      <trkpt lat="-9.0298773" lon="148.3962472"/>
      <trkpt lat="-9.0298907" lon="148.3960666"/>
      <trkpt lat="-9.0299272" lon="148.3958946"/>
      <trkpt lat="-9.0300112" lon="148.3957496"/>
      <trkpt lat="-9.0301453" lon="148.3956401"/>
      <trkpt lat="-9.0303047" lon="148.3955592"/>
      <trkpt lat="-9.0304719" lon="148.3954900"/>
      <trkpt lat="-9.0306405" lon="148.3954244"/>
      <trkpt lat="-9.0308135" lon="148.3953833"/>
      <trkpt lat="-9.0309906" lon="148.3953657"/>
      <trkpt lat="-9.0311714" lon="148.3953702"/>
      <trkpt lat="-9.0313460" lon="148.3953494"/>
      <trkpt lat="-9.0315162" lon="148.3953045"/>
      <trkpt lat="-9.0316841" lon="148.3952453"/>
      <trkpt lat="-9.0318444" lon="148.3951719"/>
      <trkpt lat="-9.0319927" lon="148.3950819"/>
      <trkpt lat="-9.0321431" lon="148.3950035"/>
      <trkpt lat="-9.0322916" lon="148.3949280"/>
      <trkpt lat="-9.0324362" lon="148.3948464"/>
      <trkpt lat="-9.0325606" lon="148.3947205"/>
      <trkpt lat="-9.0326804" lon="148.3945843"/>
      <trkpt lat="-9.0328047" lon="148.3944528"/>
      <trkpt lat="-9.0329367" lon="148.3943306"/>
      <trkpt lat="-9.0330868" lon="148.3942425"/>
      <trkpt lat="-9.0332483" lon="148.3941967"/>
      <trkpt lat="-9.0334116" lon="148.3942215"/>
      <trkpt lat="-9.0335644" lon="148.3942903"/>
      <trkpt lat="-9.0337212" lon="148.3943642"/>
      <trkpt lat="-9.0338879" lon="148.3944133"/>
      <trkpt lat="-9.0340659" lon="148.3944324"/>
      <trkpt lat="-9.0342419" lon="148.3944288"/>
      <trkpt lat="-9.0344027" lon="148.3943766"/>
      <trkpt lat="-9.0345623" lon="148.3943052"/>
      <trkpt lat="-9.0347125" lon="148.3942187"/>
      <trkpt lat="-9.0348394" lon="148.3941201"/>
      <trkpt lat="-9.0348990" lon="148.3939796"/>
      <trkpt lat="-9.0349340" lon="148.3938154"/>
      <trkpt lat="-9.0349812" lon="148.3936521"/>
      <trkpt lat="-9.0350833" lon="148.3935073"/>
      <trkpt lat="-9.0352091" lon="148.3933800"/>
      <trkpt lat="-9.0353479" lon="148.3932651"/>
      <trkpt lat="-9.0354920" lon="148.3931589"/>
      <trkpt lat="-9.0356448" lon="148.3930686"/>
      <trkpt lat="-9.0358108" lon="148.3930196"/>
      <trkpt lat="-9.0359805" lon="148.3929821"/>
      <trkpt lat="-9.0361271" lon="148.3929165"/>
      <trkpt lat="-9.0362591" lon="148.3928072"/>
      <trkpt lat="-9.0363785" lon="148.3926736"/>
      <trkpt lat="-9.0364998" lon="148.3925402"/>
      <trkpt lat="-9.0366189" lon="148.3924051"/>
      <trkpt lat="-9.0367022" lon="148.3922539"/>
      <trkpt lat="-9.0367596" lon="148.3920948"/>
      <trkpt lat="-9.0368089" lon="148.3919282"/>
      <trkpt lat="-9.0368715" lon="148.3917660"/>
      <trkpt lat="-9.0369487" lon="148.3916075"/>
      <trkpt lat="-9.0369717" lon="148.3914446"/>
      <trkpt lat="-9.0370024" lon="148.3912843"/>
      <trkpt lat="-9.0370339" lon="148.3911226"/>
      <trkpt lat="-9.0371187" lon="148.3909647"/>
      <trkpt lat="-9.0371879" lon="148.3908016"/>
      <trkpt lat="-9.0372405" lon="148.3906336"/>
      <trkpt lat="-9.0372583" lon="148.3904555"/>
      <trkpt lat="-9.0372576" lon="148.3902761"/>
      <trkpt lat="-9.0372301" lon="148.3900993"/>
      <trkpt lat="-9.0371860" lon="148.3899281"/>
      <trkpt lat="-9.0371618" lon="148.3897569"/>
      <trkpt lat="-9.0371714" lon="148.3895848"/>
      <trkpt lat="-9.0372313" lon="148.3894165"/>
      <trkpt lat="-9.0372710" lon="148.3892546"/>
      <trkpt lat="-9.0372842" lon="148.3890923"/>
      <trkpt lat="-9.0372740" lon="148.3889218"/>
      <trkpt lat="-9.0372836" lon="148.3887452"/>
      <trkpt lat="-9.0373274" lon="148.3885713"/>
      <trkpt lat="-9.0373872" lon="148.3884015"/>
      <trkpt lat="-9.0374722" lon="148.3882433"/>
      <trkpt lat="-9.0375742" lon="148.3880962"/>
      <trkpt lat="-9.0376972" lon="148.3879668"/>
      <trkpt lat="-9.0378241" lon="148.3878410"/>
      <trkpt lat="-9.0379511" lon="148.3877192"/>
      <trkpt lat="-9.0380719" lon="148.3875940"/>
      <trkpt lat="-9.0381931" lon="148.3874750"/>
      <trkpt lat="-9.0382632" lon="148.3873392"/>
      <trkpt lat="-9.0382555" lon="148.3871988"/>
      <trkpt lat="-9.0381514" lon="148.3870824"/>
      <trkpt lat="-9.0380321" lon="148.3869736"/>
      <trkpt lat="-9.0379749" lon="148.3868562"/>
      <trkpt lat="-9.0380130" lon="148.3867105"/>
      <trkpt lat="-9.0381367" lon="148.3866256"/>
      <trkpt lat="-9.0382860" lon="148.3866206"/>
      <trkpt lat="-9.0384475" lon="148.3866667"/>
      <trkpt lat="-9.0386045" lon="148.3867263"/>
      <trkpt lat="-9.0387630" lon="148.3867830"/>
      <trkpt lat="-9.0389213" lon="148.3868002"/>
      <trkpt lat="-9.0390804" lon="148.3867729"/>
      <trkpt lat="-9.0391798" lon="148.3866718"/>
      <trkpt lat="-9.0391708" lon="148.3865843"/>
      <trkpt lat="-9.0390619" lon="148.3864778"/>
      <trkpt lat="-9.0389046" lon="148.3864027"/>
      <trkpt lat="-9.0387608" lon="148.3863181"/>
      <trkpt lat="-9.0386579" lon="148.3862126"/>
      <trkpt lat="-9.0386156" lon="148.3860681"/>
      <trkpt lat="-9.0385797" lon="148.3859048"/>
      <trkpt lat="-9.0385249" lon="148.3857595"/>
      <trkpt lat="-9.0385159" lon="148.3856415"/>
      <trkpt lat="-9.0385769" lon="148.3855309"/>
      <trkpt lat="-9.0386567" lon="148.3854131"/>
      <trkpt lat="-9.0386801" lon="148.3852715"/>
      <trkpt lat="-9.0387120" lon="148.3851289"/>
      <trkpt lat="-9.0387823" lon="148.3849981"/>
      <trkpt lat="-9.0389186" lon="148.3849170"/>
      <trkpt lat="-9.0390481" lon="148.3848864"/>
      <trkpt lat="-9.0391777" lon="148.3848441"/>
      <trkpt lat="-9.0392572" lon="148.3847486"/>
      <trkpt lat="-9.0393065" lon="148.3845797"/>
      <trkpt lat="-9.0393268" lon="148.3844000"/>
      <trkpt lat="-9.0393451" lon="148.3842193"/>
      <trkpt lat="-9.0393961" lon="148.3840599"/>
      <trkpt lat="-9.0394976" lon="148.3839444"/>
      <trkpt lat="-9.0396433" lon="148.3839145"/>
      <trkpt lat="-9.0397941" lon="148.3839346"/>
      <trkpt lat="-9.0399157" lon="148.3839529"/>
      <trkpt lat="-9.0399605" lon="148.3839303"/>
      <trkpt lat="-9.0400005" lon="148.3838570"/>
      <trkpt lat="-9.0400536" lon="148.3837652"/>
      <trkpt lat="-9.0401525" lon="148.3836681"/>
      <trkpt lat="-9.0402675" lon="148.3835870"/>
      <trkpt lat="-9.0403600" lon="148.3835142"/>
      <trkpt lat="-9.0404223" lon="148.3834617"/>
      <trkpt lat="-9.0404286" lon="148.3834395"/>
      <trkpt lat="-9.0404411" lon="148.3834225"/>
      <trkpt lat="-9.0404072" lon="148.3834269"/>
      <trkpt lat="-9.0403374" lon="148.3834388"/>
      <trkpt lat="-9.0403017" lon="148.3834645"/>
      <trkpt lat="-9.0403274" lon="148.3834895"/>
      <trkpt lat="-9.0403492" lon="148.3835172"/>
      <trkpt lat="-9.0403063" lon="148.3835488"/>
      <trkpt lat="-9.0402507" lon="148.3835541"/>
    </trkseg>
  </trk>
  <trk>
    <name>Sahirut - Solomon Makanisa</name>
    <desc>Walked by Solomon Makanisa. 18.1 km, 5 track(s), recorded on the ground. Sahirut, Zone 6.</desc>
    <type>walked-boundary</type>
    <trkseg>
      <trkpt lat="-9.0625577" lon="148.3781830"/>
      <trkpt lat="-9.0625866" lon="148.3783607"/>
      <trkpt lat="-9.0626443" lon="148.3785273"/>
      <trkpt lat="-9.0627167" lon="148.3786902"/>
      <trkpt lat="-9.0628065" lon="148.3788449"/>
      <trkpt lat="-9.0628753" lon="148.3790081"/>
      <trkpt lat="-9.0629430" lon="148.3791719"/>
      <trkpt lat="-9.0630018" lon="148.3793410"/>
      <trkpt lat="-9.0630748" lon="148.3795058"/>
      <trkpt lat="-9.0631683" lon="148.3796592"/>
      <trkpt lat="-9.0632639" lon="148.3798112"/>
      <trkpt lat="-9.0633575" lon="148.3799645"/>
      <trkpt lat="-9.0634177" lon="148.3801321"/>
      <trkpt lat="-9.0634634" lon="148.3803056"/>
      <trkpt lat="-9.0635128" lon="148.3804774"/>
      <trkpt lat="-9.0635847" lon="148.3806425"/>
      <trkpt lat="-9.0636691" lon="148.3808031"/>
      <trkpt lat="-9.0637498" lon="148.3809655"/>
      <trkpt lat="-9.0638163" lon="148.3811312"/>
      <trkpt lat="-9.0638890" lon="148.3812932"/>
      <trkpt lat="-9.0639800" lon="148.3814417"/>
      <trkpt lat="-9.0640942" lon="148.3815803"/>
      <trkpt lat="-9.0642093" lon="148.3817185"/>
      <trkpt lat="-9.0643096" lon="148.3818684"/>
      <trkpt lat="-9.0644056" lon="148.3820221"/>
      <trkpt lat="-9.0644958" lon="148.3821793"/>
      <trkpt lat="-9.0645872" lon="148.3823357"/>
      <trkpt lat="-9.0646847" lon="148.3824872"/>
      <trkpt lat="-9.0647906" lon="148.3826334"/>
      <trkpt lat="-9.0649091" lon="148.3827696"/>
      <trkpt lat="-9.0650259" lon="148.3829069"/>
      <trkpt lat="-9.0651374" lon="148.3830477"/>
      <trkpt lat="-9.0652461" lon="148.3831912"/>
      <trkpt lat="-9.0653556" lon="148.3833340"/>
      <trkpt lat="-9.0654744" lon="148.3834703"/>
      <trkpt lat="-9.0655850" lon="148.3836129"/>
      <trkpt lat="-9.0656964" lon="148.3837546"/>
      <trkpt lat="-9.0658031" lon="148.3838988"/>
      <trkpt lat="-9.0659275" lon="148.3840254"/>
      <trkpt lat="-9.0660650" lon="148.3841359"/>
      <trkpt lat="-9.0662256" lon="148.3842140"/>
      <trkpt lat="-9.0663918" lon="148.3842819"/>
      <trkpt lat="-9.0665615" lon="148.3843431"/>
      <trkpt lat="-9.0667301" lon="148.3844084"/>
      <trkpt lat="-9.0668996" lon="148.3844703"/>
      <trkpt lat="-9.0670684" lon="148.3845281"/>
      <trkpt lat="-9.0672364" lon="148.3845878"/>
      <trkpt lat="-9.0674050" lon="148.3846464"/>
      <trkpt lat="-9.0675731" lon="148.3847095"/>
      <trkpt lat="-9.0677381" lon="148.3847786"/>
      <trkpt lat="-9.0678898" lon="148.3848700"/>
      <trkpt lat="-9.0680265" lon="148.3849842"/>
      <trkpt lat="-9.0681508" lon="148.3851148"/>
      <trkpt lat="-9.0682704" lon="148.3852505"/>
      <trkpt lat="-9.0683918" lon="148.3853840"/>
      <trkpt lat="-9.0685175" lon="148.3855128"/>
      <trkpt lat="-9.0686497" lon="148.3856349"/>
      <trkpt lat="-9.0687845" lon="148.3857546"/>
      <trkpt lat="-9.0689083" lon="148.3858846"/>
      <trkpt lat="-9.0690249" lon="148.3860220"/>
      <trkpt lat="-9.0691264" lon="148.3861714"/>
      <trkpt lat="-9.0692224" lon="148.3863244"/>
      <trkpt lat="-9.0692977" lon="148.3864883"/>
      <trkpt lat="-9.0693650" lon="148.3866562"/>
      <trkpt lat="-9.0694331" lon="148.3868236"/>
      <trkpt lat="-9.0695249" lon="148.3869767"/>
      <trkpt lat="-9.0696291" lon="148.3871221"/>
      <trkpt lat="-9.0697214" lon="148.3872727"/>
      <trkpt lat="-9.0698086" lon="148.3874278"/>
      <trkpt lat="-9.0698977" lon="148.3875829"/>
      <trkpt lat="-9.0699981" lon="148.3877332"/>
      <trkpt lat="-9.0700907" lon="148.3878880"/>
      <trkpt lat="-9.0701705" lon="148.3880489"/>
      <trkpt lat="-9.0702030" lon="148.3881934"/>
      <trkpt lat="-9.0701583" lon="148.3883157"/>
      <trkpt lat="-9.0700362" lon="148.3884081"/>
      <trkpt lat="-9.0698781" lon="148.3884875"/>
      <trkpt lat="-9.0697113" lon="148.3885541"/>
      <trkpt lat="-9.0695747" lon="148.3886471"/>
      <trkpt lat="-9.0695136" lon="148.3887677"/>
      <trkpt lat="-9.0695166" lon="148.3889254"/>
      <trkpt lat="-9.0695644" lon="148.3890870"/>
      <trkpt lat="-9.0696075" lon="148.3892548"/>
      <trkpt lat="-9.0696625" lon="148.3894231"/>
      <trkpt lat="-9.0696609" lon="148.3895389"/>
      <trkpt lat="-9.0696183" lon="148.3895433"/>
      <trkpt lat="-9.0695060" lon="148.3894602"/>
      <trkpt lat="-9.0693892" lon="148.3893338"/>
      <trkpt lat="-9.0692552" lon="148.3892208"/>
      <trkpt lat="-9.0691380" lon="148.3890902"/>
      <trkpt lat="-9.0690270" lon="148.3889518"/>
      <trkpt lat="-9.0689069" lon="148.3888215"/>
      <trkpt lat="-9.0687807" lon="148.3886972"/>
      <trkpt lat="-9.0686502" lon="148.3885763"/>
      <trkpt lat="-9.0685189" lon="148.3884576"/>
      <trkpt lat="-9.0683792" lon="148.3883476"/>
      <trkpt lat="-9.0682275" lon="148.3882503"/>
      <trkpt lat="-9.0680837" lon="148.3881418"/>
      <trkpt lat="-9.0679423" lon="148.3880300"/>
      <trkpt lat="-9.0678012" lon="148.3879181"/>
      <trkpt lat="-9.0676575" lon="148.3878775"/>
      <trkpt lat="-9.0675151" lon="148.3879112"/>
      <trkpt lat="-9.0674298" lon="148.3880283"/>
      <trkpt lat="-9.0673439" lon="148.3881193"/>
      <trkpt lat="-9.0672435" lon="148.3881711"/>
      <trkpt lat="-9.0670767" lon="148.3881709"/>
      <trkpt lat="-9.0668971" lon="148.3881639"/>
      <trkpt lat="-9.0667214" lon="148.3881544"/>
      <trkpt lat="-9.0665847" lon="148.3880941"/>
      <trkpt lat="-9.0664561" lon="148.3880053"/>
      <trkpt lat="-9.0663239" lon="148.3879179"/>
      <trkpt lat="-9.0661559" lon="148.3878637"/>
      <trkpt lat="-9.0659909" lon="148.3878082"/>
      <trkpt lat="-9.0658347" lon="148.3877276"/>
      <trkpt lat="-9.0656897" lon="148.3876289"/>
      <trkpt lat="-9.0655566" lon="148.3875152"/>
      <trkpt lat="-9.0654307" lon="148.3873967"/>
      <trkpt lat="-9.0653100" lon="148.3872890"/>
      <trkpt lat="-9.0651958" lon="148.3871775"/>
      <trkpt lat="-9.0650845" lon="148.3870578"/>
      <trkpt lat="-9.0649760" lon="148.3869174"/>
      <trkpt lat="-9.0648530" lon="148.3867904"/>
      <trkpt lat="-9.0647296" lon="148.3866649"/>
      <trkpt lat="-9.0645925" lon="148.3865552"/>
      <trkpt lat="-9.0644454" lon="148.3864583"/>
      <trkpt lat="-9.0642849" lon="148.3863793"/>
      <trkpt lat="-9.0641278" lon="148.3862970"/>
      <trkpt lat="-9.0639704" lon="148.3862164"/>
      <trkpt lat="-9.0638146" lon="148.3861299"/>
      <trkpt lat="-9.0636655" lon="148.3860360"/>
      <trkpt lat="-9.0635403" lon="148.3859138"/>
      <trkpt lat="-9.0634291" lon="148.3857747"/>
      <trkpt lat="-9.0633250" lon="148.3856313"/>
      <trkpt lat="-9.0632130" lon="148.3854946"/>
      <trkpt lat="-9.0630970" lon="148.3853666"/>
      <trkpt lat="-9.0629867" lon="148.3852398"/>
      <trkpt lat="-9.0628788" lon="148.3851196"/>
      <trkpt lat="-9.0627556" lon="148.3850247"/>
      <trkpt lat="-9.0626095" lon="148.3849511"/>
      <trkpt lat="-9.0624656" lon="148.3848702"/>
      <trkpt lat="-9.0623347" lon="148.3847613"/>
      <trkpt lat="-9.0622018" lon="148.3846510"/>
      <trkpt lat="-9.0620439" lon="148.3845786"/>
      <trkpt lat="-9.0619011" lon="148.3845037"/>
      <trkpt lat="-9.0617705" lon="148.3844106"/>
      <trkpt lat="-9.0616488" lon="148.3842939"/>
      <trkpt lat="-9.0615101" lon="148.3841817"/>
      <trkpt lat="-9.0613773" lon="148.3840654"/>
      <trkpt lat="-9.0612607" lon="148.3839336"/>
      <trkpt lat="-9.0611735" lon="148.3837830"/>
      <trkpt lat="-9.0611390" lon="148.3836433"/>
      <trkpt lat="-9.0611640" lon="148.3834956"/>
      <trkpt lat="-9.0612339" lon="148.3833511"/>
      <trkpt lat="-9.0612734" lon="148.3831852"/>
      <trkpt lat="-9.0612568" lon="148.3830225"/>
      <trkpt lat="-9.0611883" lon="148.3828580"/>
      <trkpt lat="-9.0611133" lon="148.3826938"/>
      <trkpt lat="-9.0610276" lon="148.3825526"/>
      <trkpt lat="-9.0609661" lon="148.3824063"/>
      <trkpt lat="-9.0608831" lon="148.3822772"/>
      <trkpt lat="-9.0607899" lon="148.3821608"/>
      <trkpt lat="-9.0606416" lon="148.3820996"/>
      <trkpt lat="-9.0604758" lon="148.3820644"/>
      <trkpt lat="-9.0603048" lon="148.3820256"/>
      <trkpt lat="-9.0601622" lon="148.3819449"/>
      <trkpt lat="-9.0600721" lon="148.3818202"/>
      <trkpt lat="-9.0600327" lon="148.3816557"/>
      <trkpt lat="-9.0599707" lon="148.3815064"/>
      <trkpt lat="-9.0598599" lon="148.3814320"/>
      <trkpt lat="-9.0596976" lon="148.3814318"/>
      <trkpt lat="-9.0595287" lon="148.3814799"/>
      <trkpt lat="-9.0593600" lon="148.3815352"/>
      <trkpt lat="-9.0591956" lon="148.3816037"/>
      <trkpt lat="-9.0590391" lon="148.3816915"/>
      <trkpt lat="-9.0588821" lon="148.3817798"/>
      <trkpt lat="-9.0587190" lon="148.3818490"/>
      <trkpt lat="-9.0585456" lon="148.3818869"/>
      <trkpt lat="-9.0583725" lon="148.3819256"/>
      <trkpt lat="-9.0582061" lon="148.3819798"/>
      <trkpt lat="-9.0580400" lon="148.3820298"/>
      <trkpt lat="-9.0578690" lon="148.3820491"/>
      <trkpt lat="-9.0576912" lon="148.3820518"/>
      <trkpt lat="-9.0575281" lon="148.3820918"/>
      <trkpt lat="-9.0573738" lon="148.3821695"/>
      <trkpt lat="-9.0572281" lon="148.3822711"/>
      <trkpt lat="-9.0570756" lon="148.3823658"/>
      <trkpt lat="-9.0569213" lon="148.3824149"/>
      <trkpt lat="-9.0567634" lon="148.3824114"/>
      <trkpt lat="-9.0566163" lon="148.3823452"/>
      <trkpt lat="-9.0565012" lon="148.3822357"/>
      <trkpt lat="-9.0564093" lon="148.3820959"/>
      <trkpt lat="-9.0563110" lon="148.3819534"/>
      <trkpt lat="-9.0561811" lon="148.3818908"/>
      <trkpt lat="-9.0560289" lon="148.3819062"/>
      <trkpt lat="-9.0558817" lon="148.3819986"/>
      <trkpt lat="-9.0557514" lon="148.3821150"/>
      <trkpt lat="-9.0556579" lon="148.3822616"/>
      <trkpt lat="-9.0555944" lon="148.3824242"/>
      <trkpt lat="-9.0555152" lon="148.3825583"/>
      <trkpt lat="-9.0553998" lon="148.3826545"/>
      <trkpt lat="-9.0552448" lon="148.3827069"/>
      <trkpt lat="-9.0550901" lon="148.3827729"/>
      <trkpt lat="-9.0549352" lon="148.3828474"/>
      <trkpt lat="-9.0547742" lon="148.3829241"/>
      <trkpt lat="-9.0546137" lon="148.3829957"/>
      <trkpt lat="-9.0545076" lon="148.3830494"/>
      <trkpt lat="-9.0544147" lon="148.3830621"/>
      <trkpt lat="-9.0543655" lon="148.3830506"/>
      <trkpt lat="-9.0542843" lon="148.3830740"/>
      <trkpt lat="-9.0542438" lon="148.3831810"/>
      <trkpt lat="-9.0542135" lon="148.3833456"/>
      <trkpt lat="-9.0542058" lon="148.3835235"/>
      <trkpt lat="-9.0541911" lon="148.3837001"/>
      <trkpt lat="-9.0541390" lon="148.3838617"/>
      <trkpt lat="-9.0540576" lon="148.3840111"/>
      <trkpt lat="-9.0539443" lon="148.3841457"/>
      <trkpt lat="-9.0538549" lon="148.3842900"/>
      <trkpt lat="-9.0538219" lon="148.3844462"/>
      <trkpt lat="-9.0538689" lon="148.3845978"/>
      <trkpt lat="-9.0539798" lon="148.3847184"/>
      <trkpt lat="-9.0541218" lon="148.3848089"/>
      <trkpt lat="-9.0542713" lon="148.3848913"/>
      <trkpt lat="-9.0543561" lon="148.3849967"/>
      <trkpt lat="-9.0543598" lon="148.3851261"/>
      <trkpt lat="-9.0542647" lon="148.3852496"/>
      <trkpt lat="-9.0541272" lon="148.3853430"/>
      <trkpt lat="-9.0540254" lon="148.3853859"/>
      <trkpt lat="-9.0539359" lon="148.3854482"/>
      <trkpt lat="-9.0539047" lon="148.3855474"/>
      <trkpt lat="-9.0538694" lon="148.3856942"/>
      <trkpt lat="-9.0538836" lon="148.3858447"/>
      <trkpt lat="-9.0538865" lon="148.3859996"/>
      <trkpt lat="-9.0538451" lon="148.3861455"/>
      <trkpt lat="-9.0537505" lon="148.3862840"/>
      <trkpt lat="-9.0536144" lon="148.3864005"/>
      <trkpt lat="-9.0534737" lon="148.3865085"/>
      <trkpt lat="-9.0533821" lon="148.3865823"/>
      <trkpt lat="-9.0532909" lon="148.3866492"/>
      <trkpt lat="-9.0532136" lon="148.3867336"/>
      <trkpt lat="-9.0530903" lon="148.3868454"/>
      <trkpt lat="-9.0529602" lon="148.3869223"/>
      <trkpt lat="-9.0528163" lon="148.3869537"/>
      <trkpt lat="-9.0526547" lon="148.3869627"/>
      <trkpt lat="-9.0524890" lon="148.3869925"/>
      <trkpt lat="-9.0523175" lon="148.3870442"/>
      <trkpt lat="-9.0521467" lon="148.3870967"/>
      <trkpt lat="-9.0519900" lon="148.3871745"/>
      <trkpt lat="-9.0518557" lon="148.3872316"/>
      <trkpt lat="-9.0517714" lon="148.3872985"/>
      <trkpt lat="-9.0516905" lon="148.3873549"/>
      <trkpt lat="-9.0515965" lon="148.3874470"/>
      <trkpt lat="-9.0514601" lon="148.3875470"/>
      <trkpt lat="-9.0513215" lon="148.3876549"/>
      <trkpt lat="-9.0511795" lon="148.3877511"/>
      <trkpt lat="-9.0510422" lon="148.3878480"/>
      <trkpt lat="-9.0509074" lon="148.3879517"/>
      <trkpt lat="-9.0507692" lon="148.3880557"/>
      <trkpt lat="-9.0506171" lon="148.3881275"/>
      <trkpt lat="-9.0504492" lon="148.3881603"/>
      <trkpt lat="-9.0502770" lon="148.3881702"/>
    </trkseg>
    <trkseg>
      <trkpt lat="-9.0501850" lon="148.3881866"/>
      <trkpt lat="-9.0500341" lon="148.3882735"/>
      <trkpt lat="-9.0498812" lon="148.3883604"/>
      <trkpt lat="-9.0497371" lon="148.3884591"/>
      <trkpt lat="-9.0496076" lon="148.3885834"/>
      <trkpt lat="-9.0494782" lon="148.3887029"/>
      <trkpt lat="-9.0493360" lon="148.3888000"/>
      <trkpt lat="-9.0491766" lon="148.3888523"/>
      <trkpt lat="-9.0490130" lon="148.3888891"/>
      <trkpt lat="-9.0488579" lon="148.3889429"/>
      <trkpt lat="-9.0487221" lon="148.3890425"/>
      <trkpt lat="-9.0485968" lon="148.3891699"/>
      <trkpt lat="-9.0484780" lon="148.3893040"/>
      <trkpt lat="-9.0483982" lon="148.3893975"/>
      <trkpt lat="-9.0483595" lon="148.3894514"/>
    </trkseg>
    <trkseg>
      <trkpt lat="-9.0483510" lon="148.3894469"/>
      <trkpt lat="-9.0482882" lon="148.3896141"/>
      <trkpt lat="-9.0482240" lon="148.3897790"/>
      <trkpt lat="-9.0481615" lon="148.3899444"/>
      <trkpt lat="-9.0480813" lon="148.3901033"/>
      <trkpt lat="-9.0480001" lon="148.3902620"/>
      <trkpt lat="-9.0479190" lon="148.3904211"/>
      <trkpt lat="-9.0478450" lon="148.3905853"/>
      <trkpt lat="-9.0477936" lon="148.3907571"/>
      <trkpt lat="-9.0477628" lon="148.3909337"/>
      <trkpt lat="-9.0477386" lon="148.3911116"/>
      <trkpt lat="-9.0477135" lon="148.3912880"/>
      <trkpt lat="-9.0476802" lon="148.3914635"/>
      <trkpt lat="-9.0476372" lon="148.3916353"/>
      <trkpt lat="-9.0475572" lon="148.3917902"/>
      <trkpt lat="-9.0474508" lon="148.3919323"/>
      <trkpt lat="-9.0473240" lon="148.3920615"/>
      <trkpt lat="-9.0471983" lon="148.3921920"/>
      <trkpt lat="-9.0470756" lon="148.3923248"/>
      <trkpt lat="-9.0469632" lon="148.3924662"/>
      <trkpt lat="-9.0468545" lon="148.3926108"/>
      <trkpt lat="-9.0467437" lon="148.3927537"/>
      <trkpt lat="-9.0466257" lon="148.3928909"/>
      <trkpt lat="-9.0465035" lon="148.3930245"/>
      <trkpt lat="-9.0463768" lon="148.3931540"/>
      <trkpt lat="-9.0462421" lon="148.3932679"/>
      <trkpt lat="-9.0460917" lon="148.3933492"/>
      <trkpt lat="-9.0459246" lon="148.3933980"/>
      <trkpt lat="-9.0457457" lon="148.3934211"/>
      <trkpt lat="-9.0455660" lon="148.3934395"/>
      <trkpt lat="-9.0453863" lon="148.3934574"/>
      <trkpt lat="-9.0452077" lon="148.3934837"/>
      <trkpt lat="-9.0450295" lon="148.3935044"/>
      <trkpt lat="-9.0448510" lon="148.3935071"/>
      <trkpt lat="-9.0446714" lon="148.3934959"/>
      <trkpt lat="-9.0444912" lon="148.3934835"/>
      <trkpt lat="-9.0443105" lon="148.3934769"/>
      <trkpt lat="-9.0441298" lon="148.3934699"/>
      <trkpt lat="-9.0439492" lon="148.3934668"/>
      <trkpt lat="-9.0437692" lon="148.3934618"/>
      <trkpt lat="-9.0435892" lon="148.3934600"/>
      <trkpt lat="-9.0434091" lon="148.3934574"/>
      <trkpt lat="-9.0432285" lon="148.3934641"/>
      <trkpt lat="-9.0430484" lon="148.3934776"/>
      <trkpt lat="-9.0428688" lon="148.3934886"/>
      <trkpt lat="-9.0426893" lon="148.3934879"/>
      <trkpt lat="-9.0425096" lon="148.3934739"/>
      <trkpt lat="-9.0423304" lon="148.3934509"/>
      <trkpt lat="-9.0421525" lon="148.3934206"/>
      <trkpt lat="-9.0419746" lon="148.3933921"/>
      <trkpt lat="-9.0417966" lon="148.3933654"/>
      <trkpt lat="-9.0416169" lon="148.3933541"/>
      <trkpt lat="-9.0414377" lon="148.3933532"/>
      <trkpt lat="-9.0412577" lon="148.3933590"/>
      <trkpt lat="-9.0410778" lon="148.3933605"/>
      <trkpt lat="-9.0408978" lon="148.3933466"/>
      <trkpt lat="-9.0407188" lon="148.3933233"/>
      <trkpt lat="-9.0405402" lon="148.3932997"/>
      <trkpt lat="-9.0403611" lon="148.3932878"/>
      <trkpt lat="-9.0401814" lon="148.3932942"/>
      <trkpt lat="-9.0400044" lon="148.3933233"/>
      <trkpt lat="-9.0398330" lon="148.3933752"/>
      <trkpt lat="-9.0396668" lon="148.3934462"/>
      <trkpt lat="-9.0395028" lon="148.3935226"/>
      <trkpt lat="-9.0393368" lon="148.3935937"/>
      <trkpt lat="-9.0391688" lon="148.3936590"/>
      <trkpt lat="-9.0389988" lon="148.3937185"/>
      <trkpt lat="-9.0388306" lon="148.3937828"/>
      <trkpt lat="-9.0386639" lon="148.3938520"/>
      <trkpt lat="-9.0384991" lon="148.3939269"/>
      <trkpt lat="-9.0383329" lon="148.3939985"/>
      <trkpt lat="-9.0381647" lon="148.3940644"/>
      <trkpt lat="-9.0379916" lon="148.3941121"/>
      <trkpt lat="-9.0378153" lon="148.3941432"/>
      <trkpt lat="-9.0376360" lon="148.3941538"/>
      <trkpt lat="-9.0374585" lon="148.3941728"/>
      <trkpt lat="-9.0372826" lon="148.3942042"/>
      <trkpt lat="-9.0371096" lon="148.3942561"/>
      <trkpt lat="-9.0369384" lon="148.3943144"/>
      <trkpt lat="-9.0367759" lon="148.3943899"/>
      <trkpt lat="-9.0366331" lon="148.3944927"/>
      <trkpt lat="-9.0365166" lon="148.3946265"/>
      <trkpt lat="-9.0364190" lon="148.3947782"/>
      <trkpt lat="-9.0363311" lon="148.3949371"/>
      <trkpt lat="-9.0362433" lon="148.3950961"/>
      <trkpt lat="-9.0361523" lon="148.3952531"/>
      <trkpt lat="-9.0360563" lon="148.3954069"/>
      <trkpt lat="-9.0359645" lon="148.3955630"/>
      <trkpt lat="-9.0358734" lon="148.3957194"/>
      <trkpt lat="-9.0357812" lon="148.3958752"/>
      <trkpt lat="-9.0356875" lon="148.3960303"/>
      <trkpt lat="-9.0356087" lon="148.3961921"/>
      <trkpt lat="-9.0355436" lon="148.3963606"/>
      <trkpt lat="-9.0354561" lon="148.3964970"/>
      <trkpt lat="-9.0353281" lon="148.3965917"/>
      <trkpt lat="-9.0351613" lon="148.3966412"/>
      <trkpt lat="-9.0349861" lon="148.3966847"/>
      <trkpt lat="-9.0348132" lon="148.3967349"/>
      <trkpt lat="-9.0346434" lon="148.3967961"/>
      <trkpt lat="-9.0344746" lon="148.3968610"/>
      <trkpt lat="-9.0343021" lon="148.3969041"/>
      <trkpt lat="-9.0341259" lon="148.3969165"/>
      <trkpt lat="-9.0339466" lon="148.3969034"/>
      <trkpt lat="-9.0337668" lon="148.3968848"/>
      <trkpt lat="-9.0335866" lon="148.3968692"/>
      <trkpt lat="-9.0334067" lon="148.3968517"/>
      <trkpt lat="-9.0332269" lon="148.3968333"/>
      <trkpt lat="-9.0330527" lon="148.3967993"/>
      <trkpt lat="-9.0328855" lon="148.3967435"/>
      <trkpt lat="-9.0327256" lon="148.3966640"/>
      <trkpt lat="-9.0325684" lon="148.3965743"/>
      <trkpt lat="-9.0324101" lon="148.3964864"/>
      <trkpt lat="-9.0322505" lon="148.3964010"/>
      <trkpt lat="-9.0320901" lon="148.3963171"/>
      <trkpt lat="-9.0319245" lon="148.3962660"/>
      <trkpt lat="-9.0317533" lon="148.3962467"/>
      <trkpt lat="-9.0315780" lon="148.3962767"/>
      <trkpt lat="-9.0314126" lon="148.3963365"/>
      <trkpt lat="-9.0312637" lon="148.3964330"/>
      <trkpt lat="-9.0311141" lon="148.3965221"/>
      <trkpt lat="-9.0309623" lon="148.3966017"/>
      <trkpt lat="-9.0308092" lon="148.3966772"/>
      <trkpt lat="-9.0306675" lon="148.3967791"/>
      <trkpt lat="-9.0305178" lon="148.3968593"/>
      <trkpt lat="-9.0303533" lon="148.3969140"/>
      <trkpt lat="-9.0301746" lon="148.3969311"/>
      <trkpt lat="-9.0299960" lon="148.3969401"/>
      <trkpt lat="-9.0298587" lon="148.3968884"/>
      <trkpt lat="-9.0297922" lon="148.3967757"/>
      <trkpt lat="-9.0297925" lon="148.3966074"/>
      <trkpt lat="-9.0298169" lon="148.3964292"/>
      <trkpt lat="-9.0298320" lon="148.3962502"/>
      <trkpt lat="-9.0298354" lon="148.3960711"/>
      <trkpt lat="-9.0298560" lon="148.3958954"/>
      <trkpt lat="-9.0299105" lon="148.3957342"/>
      <trkpt lat="-9.0300184" lon="148.3956030"/>
      <trkpt lat="-9.0301503" lon="148.3955536"/>
      <trkpt lat="-9.0302361" lon="148.3955578"/>
      <trkpt lat="-9.0302783" lon="148.3955560"/>
      <trkpt lat="-9.0303147" lon="148.3954879"/>
      <trkpt lat="-9.0304166" lon="148.3953922"/>
      <trkpt lat="-9.0305651" lon="148.3953182"/>
      <trkpt lat="-9.0307313" lon="148.3952803"/>
      <trkpt lat="-9.0309030" lon="148.3952614"/>
      <trkpt lat="-9.0310765" lon="148.3952763"/>
      <trkpt lat="-9.0312436" lon="148.3952747"/>
      <trkpt lat="-9.0313747" lon="148.3952358"/>
      <trkpt lat="-9.0315029" lon="148.3951599"/>
      <trkpt lat="-9.0316114" lon="148.3950649"/>
      <trkpt lat="-9.0316986" lon="148.3950251"/>
      <trkpt lat="-9.0317541" lon="148.3949774"/>
      <trkpt lat="-9.0318147" lon="148.3949860"/>
      <trkpt lat="-9.0318923" lon="148.3949334"/>
      <trkpt lat="-9.0319636" lon="148.3949336"/>
      <trkpt lat="-9.0319919" lon="148.3948992"/>
      <trkpt lat="-9.0319758" lon="148.3949330"/>
      <trkpt lat="-9.0319506" lon="148.3949149"/>
      <trkpt lat="-9.0319208" lon="148.3949294"/>
      <trkpt lat="-9.0319704" lon="148.3949265"/>
      <trkpt lat="-9.0320399" lon="148.3948984"/>
      <trkpt lat="-9.0321680" lon="148.3948337"/>
      <trkpt lat="-9.0322863" lon="148.3947800"/>
      <trkpt lat="-9.0323607" lon="148.3947771"/>
      <trkpt lat="-9.0323584" lon="148.3947427"/>
      <trkpt lat="-9.0323409" lon="148.3946630"/>
      <trkpt lat="-9.0323758" lon="148.3946265"/>
      <trkpt lat="-9.0324866" lon="148.3946334"/>
      <trkpt lat="-9.0325235" lon="148.3946329"/>
      <trkpt lat="-9.0325765" lon="148.3946226"/>
      <trkpt lat="-9.0325722" lon="148.3946192"/>
      <trkpt lat="-9.0326105" lon="148.3946314"/>
      <trkpt lat="-9.0326129" lon="148.3945722"/>
      <trkpt lat="-9.0326357" lon="148.3945316"/>
      <trkpt lat="-9.0326653" lon="148.3945001"/>
      <trkpt lat="-9.0326630" lon="148.3944720"/>
      <trkpt lat="-9.0327071" lon="148.3944267"/>
      <trkpt lat="-9.0327471" lon="148.3943430"/>
      <trkpt lat="-9.0328245" lon="148.3942434"/>
      <trkpt lat="-9.0328816" lon="148.3941603"/>
      <trkpt lat="-9.0329971" lon="148.3941319"/>
      <trkpt lat="-9.0331364" lon="148.3941408"/>
      <trkpt lat="-9.0332866" lon="148.3941706"/>
      <trkpt lat="-9.0334147" lon="148.3941747"/>
      <trkpt lat="-9.0335442" lon="148.3942156"/>
      <trkpt lat="-9.0336488" lon="148.3942565"/>
      <trkpt lat="-9.0337040" lon="148.3943442"/>
      <trkpt lat="-9.0337509" lon="148.3943761"/>
      <trkpt lat="-9.0338138" lon="148.3943766"/>
      <trkpt lat="-9.0338969" lon="148.3943937"/>
      <trkpt lat="-9.0339972" lon="148.3944414"/>
      <trkpt lat="-9.0341128" lon="148.3944944"/>
      <trkpt lat="-9.0342791" lon="148.3945025"/>
      <trkpt lat="-9.0344193" lon="148.3944948"/>
      <trkpt lat="-9.0345262" lon="148.3944740"/>
      <trkpt lat="-9.0345726" lon="148.3944236"/>
      <trkpt lat="-9.0346354" lon="148.3943469"/>
      <trkpt lat="-9.0347088" lon="148.3942293"/>
      <trkpt lat="-9.0348111" lon="148.3940973"/>
      <trkpt lat="-9.0348651" lon="148.3939518"/>
      <trkpt lat="-9.0348951" lon="148.3938096"/>
      <trkpt lat="-9.0349025" lon="148.3936534"/>
      <trkpt lat="-9.0349495" lon="148.3935069"/>
      <trkpt lat="-9.0349607" lon="148.3933728"/>
      <trkpt lat="-9.0350130" lon="148.3933020"/>
      <trkpt lat="-9.0350807" lon="148.3932478"/>
      <trkpt lat="-9.0352342" lon="148.3932217"/>
      <trkpt lat="-9.0353883" lon="148.3931947"/>
      <trkpt lat="-9.0354522" lon="148.3931593"/>
      <trkpt lat="-9.0355157" lon="148.3931301"/>
      <trkpt lat="-9.0355780" lon="148.3930576"/>
      <trkpt lat="-9.0357371" lon="148.3930271"/>
      <trkpt lat="-9.0358964" lon="148.3930017"/>
      <trkpt lat="-9.0360669" lon="148.3930009"/>
      <trkpt lat="-9.0361808" lon="148.3929879"/>
      <trkpt lat="-9.0362922" lon="148.3929595"/>
      <trkpt lat="-9.0363455" lon="148.3928961"/>
      <trkpt lat="-9.0364099" lon="148.3928100"/>
      <trkpt lat="-9.0364154" lon="148.3926756"/>
      <trkpt lat="-9.0364737" lon="148.3925734"/>
      <trkpt lat="-9.0365733" lon="148.3924716"/>
      <trkpt lat="-9.0367111" lon="148.3923870"/>
      <trkpt lat="-9.0368167" lon="148.3922816"/>
      <trkpt lat="-9.0368276" lon="148.3921726"/>
      <trkpt lat="-9.0368083" lon="148.3920515"/>
      <trkpt lat="-9.0367658" lon="148.3919151"/>
      <trkpt lat="-9.0367848" lon="148.3917695"/>
      <trkpt lat="-9.0368303" lon="148.3916343"/>
      <trkpt lat="-9.0369105" lon="148.3915103"/>
      <trkpt lat="-9.0369649" lon="148.3914094"/>
      <trkpt lat="-9.0369475" lon="148.3913007"/>
      <trkpt lat="-9.0369050" lon="148.3911812"/>
      <trkpt lat="-9.0368356" lon="148.3910400"/>
      <trkpt lat="-9.0368073" lon="148.3909032"/>
      <trkpt lat="-9.0367244" lon="148.3907864"/>
      <trkpt lat="-9.0366845" lon="148.3906886"/>
      <trkpt lat="-9.0367035" lon="148.3906246"/>
      <trkpt lat="-9.0368197" lon="148.3905818"/>
      <trkpt lat="-9.0369354" lon="148.3905154"/>
      <trkpt lat="-9.0370322" lon="148.3904165"/>
      <trkpt lat="-9.0370784" lon="148.3903021"/>
      <trkpt lat="-9.0371339" lon="148.3902241"/>
      <trkpt lat="-9.0371683" lon="148.3901344"/>
      <trkpt lat="-9.0372554" lon="148.3900430"/>
      <trkpt lat="-9.0373148" lon="148.3899168"/>
      <trkpt lat="-9.0373615" lon="148.3897956"/>
      <trkpt lat="-9.0373370" lon="148.3896516"/>
      <trkpt lat="-9.0372787" lon="148.3895175"/>
      <trkpt lat="-9.0372222" lon="148.3893703"/>
      <trkpt lat="-9.0371870" lon="148.3892240"/>
      <trkpt lat="-9.0372348" lon="148.3890676"/>
      <trkpt lat="-9.0372979" lon="148.3889213"/>
      <trkpt lat="-9.0373755" lon="148.3887712"/>
      <trkpt lat="-9.0373925" lon="148.3886117"/>
      <trkpt lat="-9.0373752" lon="148.3884417"/>
      <trkpt lat="-9.0373748" lon="148.3882872"/>
      <trkpt lat="-9.0374486" lon="148.3881651"/>
      <trkpt lat="-9.0375746" lon="148.3880801"/>
      <trkpt lat="-9.0376799" lon="148.3879895"/>
      <trkpt lat="-9.0377916" lon="148.3879107"/>
      <trkpt lat="-9.0379014" lon="148.3878124"/>
      <trkpt lat="-9.0380265" lon="148.3877064"/>
      <trkpt lat="-9.0381428" lon="148.3875799"/>
      <trkpt lat="-9.0382471" lon="148.3874748"/>
      <trkpt lat="-9.0383049" lon="148.3873870"/>
      <trkpt lat="-9.0382938" lon="148.3872818"/>
      <trkpt lat="-9.0382048" lon="148.3871761"/>
      <trkpt lat="-9.0380918" lon="148.3870728"/>
      <trkpt lat="-9.0379674" lon="148.3869668"/>
      <trkpt lat="-9.0379024" lon="148.3868237"/>
      <trkpt lat="-9.0379172" lon="148.3866662"/>
      <trkpt lat="-9.0380190" lon="148.3865598"/>
      <trkpt lat="-9.0381553" lon="148.3865468"/>
      <trkpt lat="-9.0383101" lon="148.3866100"/>
      <trkpt lat="-9.0384586" lon="148.3867038"/>
      <trkpt lat="-9.0386196" lon="148.3867783"/>
      <trkpt lat="-9.0387828" lon="148.3868102"/>
      <trkpt lat="-9.0389382" lon="148.3867687"/>
      <trkpt lat="-9.0390802" lon="148.3866694"/>
      <trkpt lat="-9.0391458" lon="148.3865497"/>
      <trkpt lat="-9.0391312" lon="148.3864393"/>
      <trkpt lat="-9.0390172" lon="148.3863903"/>
      <trkpt lat="-9.0388746" lon="148.3863679"/>
      <trkpt lat="-9.0387353" lon="148.3863304"/>
      <trkpt lat="-9.0386516" lon="148.3862141"/>
      <trkpt lat="-9.0386324" lon="148.3860486"/>
      <trkpt lat="-9.0386097" lon="148.3858884"/>
      <trkpt lat="-9.0385752" lon="148.3857331"/>
      <trkpt lat="-9.0385623" lon="148.3855968"/>
      <trkpt lat="-9.0386024" lon="148.3854454"/>
      <trkpt lat="-9.0386682" lon="148.3852892"/>
      <trkpt lat="-9.0387303" lon="148.3851268"/>
      <trkpt lat="-9.0388265" lon="148.3849945"/>
      <trkpt lat="-9.0389624" lon="148.3849040"/>
      <trkpt lat="-9.0390895" lon="148.3848036"/>
      <trkpt lat="-9.0391844" lon="148.3846750"/>
      <trkpt lat="-9.0392409" lon="148.3845071"/>
      <trkpt lat="-9.0392749" lon="148.3843361"/>
      <trkpt lat="-9.0393076" lon="148.3841719"/>
      <trkpt lat="-9.0393722" lon="148.3840332"/>
      <trkpt lat="-9.0394901" lon="148.3839438"/>
      <trkpt lat="-9.0396466" lon="148.3839266"/>
      <trkpt lat="-9.0398091" lon="148.3839478"/>
      <trkpt lat="-9.0399190" lon="148.3839515"/>
      <trkpt lat="-9.0399364" lon="148.3839199"/>
      <trkpt lat="-9.0399395" lon="148.3838636"/>
      <trkpt lat="-9.0399566" lon="148.3837773"/>
      <trkpt lat="-9.0400674" lon="148.3837003"/>
      <trkpt lat="-9.0401735" lon="148.3835943"/>
      <trkpt lat="-9.0403204" lon="148.3835485"/>
      <trkpt lat="-9.0403919" lon="148.3834799"/>
      <trkpt lat="-9.0403757" lon="148.3834376"/>
      <trkpt lat="-9.0403311" lon="148.3833908"/>
      <trkpt lat="-9.0403639" lon="148.3833657"/>
      <trkpt lat="-9.0404791" lon="148.3833227"/>
      <trkpt lat="-9.0405931" lon="148.3832417"/>
    </trkseg>
    <trkseg>
      <trkpt lat="-9.0625577" lon="148.3781830"/>
      <trkpt lat="-9.0625866" lon="148.3783607"/>
      <trkpt lat="-9.0626443" lon="148.3785273"/>
      <trkpt lat="-9.0627167" lon="148.3786902"/>
      <trkpt lat="-9.0628065" lon="148.3788449"/>
      <trkpt lat="-9.0628753" lon="148.3790081"/>
      <trkpt lat="-9.0629430" lon="148.3791719"/>
      <trkpt lat="-9.0630018" lon="148.3793410"/>
      <trkpt lat="-9.0630748" lon="148.3795058"/>
      <trkpt lat="-9.0631683" lon="148.3796592"/>
      <trkpt lat="-9.0632639" lon="148.3798112"/>
      <trkpt lat="-9.0633575" lon="148.3799645"/>
      <trkpt lat="-9.0634177" lon="148.3801321"/>
      <trkpt lat="-9.0634634" lon="148.3803056"/>
      <trkpt lat="-9.0635128" lon="148.3804774"/>
      <trkpt lat="-9.0635847" lon="148.3806425"/>
      <trkpt lat="-9.0636691" lon="148.3808031"/>
      <trkpt lat="-9.0637498" lon="148.3809655"/>
      <trkpt lat="-9.0638163" lon="148.3811312"/>
      <trkpt lat="-9.0638890" lon="148.3812932"/>
      <trkpt lat="-9.0639800" lon="148.3814417"/>
      <trkpt lat="-9.0640942" lon="148.3815803"/>
      <trkpt lat="-9.0642093" lon="148.3817185"/>
      <trkpt lat="-9.0643096" lon="148.3818684"/>
      <trkpt lat="-9.0644056" lon="148.3820221"/>
      <trkpt lat="-9.0644958" lon="148.3821793"/>
      <trkpt lat="-9.0645872" lon="148.3823357"/>
      <trkpt lat="-9.0646847" lon="148.3824872"/>
      <trkpt lat="-9.0647906" lon="148.3826334"/>
      <trkpt lat="-9.0649091" lon="148.3827696"/>
      <trkpt lat="-9.0650259" lon="148.3829069"/>
      <trkpt lat="-9.0651374" lon="148.3830477"/>
      <trkpt lat="-9.0652461" lon="148.3831912"/>
      <trkpt lat="-9.0653556" lon="148.3833340"/>
      <trkpt lat="-9.0654744" lon="148.3834703"/>
      <trkpt lat="-9.0655850" lon="148.3836129"/>
      <trkpt lat="-9.0656964" lon="148.3837546"/>
      <trkpt lat="-9.0658031" lon="148.3838988"/>
      <trkpt lat="-9.0659275" lon="148.3840254"/>
      <trkpt lat="-9.0660650" lon="148.3841359"/>
      <trkpt lat="-9.0662256" lon="148.3842140"/>
      <trkpt lat="-9.0663918" lon="148.3842819"/>
      <trkpt lat="-9.0665615" lon="148.3843431"/>
      <trkpt lat="-9.0667301" lon="148.3844084"/>
      <trkpt lat="-9.0668996" lon="148.3844703"/>
      <trkpt lat="-9.0670684" lon="148.3845281"/>
      <trkpt lat="-9.0672364" lon="148.3845878"/>
      <trkpt lat="-9.0674050" lon="148.3846464"/>
      <trkpt lat="-9.0675731" lon="148.3847095"/>
      <trkpt lat="-9.0677381" lon="148.3847786"/>
      <trkpt lat="-9.0678898" lon="148.3848700"/>
      <trkpt lat="-9.0680265" lon="148.3849842"/>
      <trkpt lat="-9.0681508" lon="148.3851148"/>
      <trkpt lat="-9.0682704" lon="148.3852505"/>
      <trkpt lat="-9.0683918" lon="148.3853840"/>
      <trkpt lat="-9.0685175" lon="148.3855128"/>
      <trkpt lat="-9.0686497" lon="148.3856349"/>
      <trkpt lat="-9.0687845" lon="148.3857546"/>
      <trkpt lat="-9.0689083" lon="148.3858846"/>
      <trkpt lat="-9.0690249" lon="148.3860220"/>
      <trkpt lat="-9.0691264" lon="148.3861714"/>
      <trkpt lat="-9.0692224" lon="148.3863244"/>
      <trkpt lat="-9.0692977" lon="148.3864883"/>
      <trkpt lat="-9.0693650" lon="148.3866562"/>
      <trkpt lat="-9.0694331" lon="148.3868236"/>
      <trkpt lat="-9.0695249" lon="148.3869767"/>
      <trkpt lat="-9.0696291" lon="148.3871221"/>
      <trkpt lat="-9.0697214" lon="148.3872727"/>
      <trkpt lat="-9.0698086" lon="148.3874278"/>
      <trkpt lat="-9.0698977" lon="148.3875829"/>
      <trkpt lat="-9.0699981" lon="148.3877332"/>
      <trkpt lat="-9.0700907" lon="148.3878880"/>
      <trkpt lat="-9.0701705" lon="148.3880489"/>
      <trkpt lat="-9.0702030" lon="148.3881934"/>
      <trkpt lat="-9.0701583" lon="148.3883157"/>
      <trkpt lat="-9.0700362" lon="148.3884081"/>
      <trkpt lat="-9.0698781" lon="148.3884875"/>
      <trkpt lat="-9.0697113" lon="148.3885541"/>
      <trkpt lat="-9.0695747" lon="148.3886471"/>
      <trkpt lat="-9.0695136" lon="148.3887677"/>
      <trkpt lat="-9.0695166" lon="148.3889254"/>
      <trkpt lat="-9.0695644" lon="148.3890870"/>
      <trkpt lat="-9.0696075" lon="148.3892548"/>
      <trkpt lat="-9.0696625" lon="148.3894231"/>
      <trkpt lat="-9.0696609" lon="148.3895389"/>
      <trkpt lat="-9.0696183" lon="148.3895433"/>
      <trkpt lat="-9.0695060" lon="148.3894602"/>
      <trkpt lat="-9.0693892" lon="148.3893338"/>
      <trkpt lat="-9.0692552" lon="148.3892208"/>
      <trkpt lat="-9.0691380" lon="148.3890902"/>
      <trkpt lat="-9.0690270" lon="148.3889518"/>
      <trkpt lat="-9.0689069" lon="148.3888215"/>
      <trkpt lat="-9.0687807" lon="148.3886972"/>
      <trkpt lat="-9.0686502" lon="148.3885763"/>
      <trkpt lat="-9.0685189" lon="148.3884576"/>
      <trkpt lat="-9.0683792" lon="148.3883476"/>
      <trkpt lat="-9.0682275" lon="148.3882503"/>
      <trkpt lat="-9.0680837" lon="148.3881418"/>
      <trkpt lat="-9.0679423" lon="148.3880300"/>
      <trkpt lat="-9.0678012" lon="148.3879181"/>
      <trkpt lat="-9.0676575" lon="148.3878775"/>
      <trkpt lat="-9.0675151" lon="148.3879112"/>
      <trkpt lat="-9.0674298" lon="148.3880283"/>
      <trkpt lat="-9.0673439" lon="148.3881193"/>
      <trkpt lat="-9.0672435" lon="148.3881711"/>
      <trkpt lat="-9.0670767" lon="148.3881709"/>
      <trkpt lat="-9.0668971" lon="148.3881639"/>
      <trkpt lat="-9.0667214" lon="148.3881544"/>
      <trkpt lat="-9.0665847" lon="148.3880941"/>
      <trkpt lat="-9.0664561" lon="148.3880053"/>
      <trkpt lat="-9.0663239" lon="148.3879179"/>
      <trkpt lat="-9.0661559" lon="148.3878637"/>
      <trkpt lat="-9.0659909" lon="148.3878082"/>
      <trkpt lat="-9.0658347" lon="148.3877276"/>
      <trkpt lat="-9.0656897" lon="148.3876289"/>
      <trkpt lat="-9.0655566" lon="148.3875152"/>
      <trkpt lat="-9.0654307" lon="148.3873967"/>
      <trkpt lat="-9.0653100" lon="148.3872890"/>
      <trkpt lat="-9.0651958" lon="148.3871775"/>
      <trkpt lat="-9.0650845" lon="148.3870578"/>
      <trkpt lat="-9.0649760" lon="148.3869174"/>
      <trkpt lat="-9.0648530" lon="148.3867904"/>
      <trkpt lat="-9.0647296" lon="148.3866649"/>
      <trkpt lat="-9.0645925" lon="148.3865552"/>
      <trkpt lat="-9.0644454" lon="148.3864583"/>
      <trkpt lat="-9.0642849" lon="148.3863793"/>
      <trkpt lat="-9.0641278" lon="148.3862970"/>
      <trkpt lat="-9.0639704" lon="148.3862164"/>
      <trkpt lat="-9.0638146" lon="148.3861299"/>
      <trkpt lat="-9.0636655" lon="148.3860360"/>
      <trkpt lat="-9.0635403" lon="148.3859138"/>
      <trkpt lat="-9.0634291" lon="148.3857747"/>
      <trkpt lat="-9.0633250" lon="148.3856313"/>
      <trkpt lat="-9.0632130" lon="148.3854946"/>
      <trkpt lat="-9.0630970" lon="148.3853666"/>
      <trkpt lat="-9.0629867" lon="148.3852398"/>
      <trkpt lat="-9.0628788" lon="148.3851196"/>
      <trkpt lat="-9.0627556" lon="148.3850247"/>
      <trkpt lat="-9.0626095" lon="148.3849511"/>
      <trkpt lat="-9.0624656" lon="148.3848702"/>
      <trkpt lat="-9.0623347" lon="148.3847613"/>
      <trkpt lat="-9.0622018" lon="148.3846510"/>
      <trkpt lat="-9.0620439" lon="148.3845786"/>
      <trkpt lat="-9.0619011" lon="148.3845037"/>
      <trkpt lat="-9.0617705" lon="148.3844106"/>
      <trkpt lat="-9.0616488" lon="148.3842939"/>
      <trkpt lat="-9.0615101" lon="148.3841817"/>
      <trkpt lat="-9.0613773" lon="148.3840654"/>
      <trkpt lat="-9.0612607" lon="148.3839336"/>
      <trkpt lat="-9.0611735" lon="148.3837830"/>
      <trkpt lat="-9.0611390" lon="148.3836433"/>
      <trkpt lat="-9.0611640" lon="148.3834956"/>
      <trkpt lat="-9.0612339" lon="148.3833511"/>
      <trkpt lat="-9.0612734" lon="148.3831852"/>
      <trkpt lat="-9.0612568" lon="148.3830225"/>
      <trkpt lat="-9.0611883" lon="148.3828580"/>
      <trkpt lat="-9.0611133" lon="148.3826938"/>
      <trkpt lat="-9.0610276" lon="148.3825526"/>
      <trkpt lat="-9.0609661" lon="148.3824063"/>
      <trkpt lat="-9.0608831" lon="148.3822772"/>
      <trkpt lat="-9.0607899" lon="148.3821608"/>
      <trkpt lat="-9.0606416" lon="148.3820996"/>
      <trkpt lat="-9.0604758" lon="148.3820644"/>
      <trkpt lat="-9.0603048" lon="148.3820256"/>
      <trkpt lat="-9.0601622" lon="148.3819449"/>
      <trkpt lat="-9.0600721" lon="148.3818202"/>
      <trkpt lat="-9.0600327" lon="148.3816557"/>
      <trkpt lat="-9.0599707" lon="148.3815064"/>
      <trkpt lat="-9.0598599" lon="148.3814320"/>
      <trkpt lat="-9.0596976" lon="148.3814318"/>
      <trkpt lat="-9.0595287" lon="148.3814799"/>
      <trkpt lat="-9.0593600" lon="148.3815352"/>
      <trkpt lat="-9.0591956" lon="148.3816037"/>
      <trkpt lat="-9.0590391" lon="148.3816915"/>
      <trkpt lat="-9.0588821" lon="148.3817798"/>
      <trkpt lat="-9.0587190" lon="148.3818490"/>
      <trkpt lat="-9.0585456" lon="148.3818869"/>
      <trkpt lat="-9.0583725" lon="148.3819256"/>
      <trkpt lat="-9.0582061" lon="148.3819798"/>
      <trkpt lat="-9.0580400" lon="148.3820298"/>
      <trkpt lat="-9.0578690" lon="148.3820491"/>
      <trkpt lat="-9.0576912" lon="148.3820518"/>
      <trkpt lat="-9.0575281" lon="148.3820918"/>
      <trkpt lat="-9.0573738" lon="148.3821695"/>
      <trkpt lat="-9.0572281" lon="148.3822711"/>
      <trkpt lat="-9.0570756" lon="148.3823658"/>
      <trkpt lat="-9.0569213" lon="148.3824149"/>
      <trkpt lat="-9.0567634" lon="148.3824114"/>
      <trkpt lat="-9.0566163" lon="148.3823452"/>
      <trkpt lat="-9.0565012" lon="148.3822357"/>
      <trkpt lat="-9.0564093" lon="148.3820959"/>
      <trkpt lat="-9.0563110" lon="148.3819534"/>
      <trkpt lat="-9.0561811" lon="148.3818908"/>
      <trkpt lat="-9.0560289" lon="148.3819062"/>
      <trkpt lat="-9.0558817" lon="148.3819986"/>
      <trkpt lat="-9.0557514" lon="148.3821150"/>
      <trkpt lat="-9.0556579" lon="148.3822616"/>
      <trkpt lat="-9.0555944" lon="148.3824242"/>
      <trkpt lat="-9.0555152" lon="148.3825583"/>
      <trkpt lat="-9.0553998" lon="148.3826545"/>
      <trkpt lat="-9.0552448" lon="148.3827069"/>
      <trkpt lat="-9.0550901" lon="148.3827729"/>
      <trkpt lat="-9.0549352" lon="148.3828474"/>
      <trkpt lat="-9.0547742" lon="148.3829241"/>
      <trkpt lat="-9.0546137" lon="148.3829957"/>
      <trkpt lat="-9.0545076" lon="148.3830494"/>
      <trkpt lat="-9.0544147" lon="148.3830621"/>
      <trkpt lat="-9.0543655" lon="148.3830506"/>
      <trkpt lat="-9.0542843" lon="148.3830740"/>
      <trkpt lat="-9.0542438" lon="148.3831810"/>
      <trkpt lat="-9.0542135" lon="148.3833456"/>
      <trkpt lat="-9.0542058" lon="148.3835235"/>
      <trkpt lat="-9.0541911" lon="148.3837001"/>
      <trkpt lat="-9.0541390" lon="148.3838617"/>
      <trkpt lat="-9.0540576" lon="148.3840111"/>
      <trkpt lat="-9.0539443" lon="148.3841457"/>
      <trkpt lat="-9.0538549" lon="148.3842900"/>
      <trkpt lat="-9.0538219" lon="148.3844462"/>
      <trkpt lat="-9.0538689" lon="148.3845978"/>
      <trkpt lat="-9.0539798" lon="148.3847184"/>
      <trkpt lat="-9.0541218" lon="148.3848089"/>
      <trkpt lat="-9.0542713" lon="148.3848913"/>
      <trkpt lat="-9.0543561" lon="148.3849967"/>
      <trkpt lat="-9.0543598" lon="148.3851261"/>
      <trkpt lat="-9.0542647" lon="148.3852496"/>
      <trkpt lat="-9.0541272" lon="148.3853430"/>
      <trkpt lat="-9.0540254" lon="148.3853859"/>
      <trkpt lat="-9.0539359" lon="148.3854482"/>
      <trkpt lat="-9.0539047" lon="148.3855474"/>
      <trkpt lat="-9.0538694" lon="148.3856942"/>
      <trkpt lat="-9.0538836" lon="148.3858447"/>
      <trkpt lat="-9.0538865" lon="148.3859996"/>
      <trkpt lat="-9.0538451" lon="148.3861455"/>
      <trkpt lat="-9.0537505" lon="148.3862840"/>
      <trkpt lat="-9.0536144" lon="148.3864005"/>
      <trkpt lat="-9.0534737" lon="148.3865085"/>
      <trkpt lat="-9.0533821" lon="148.3865823"/>
      <trkpt lat="-9.0532909" lon="148.3866492"/>
      <trkpt lat="-9.0532136" lon="148.3867336"/>
      <trkpt lat="-9.0530903" lon="148.3868454"/>
      <trkpt lat="-9.0529602" lon="148.3869223"/>
      <trkpt lat="-9.0528163" lon="148.3869537"/>
      <trkpt lat="-9.0526547" lon="148.3869627"/>
      <trkpt lat="-9.0524890" lon="148.3869925"/>
      <trkpt lat="-9.0523175" lon="148.3870442"/>
      <trkpt lat="-9.0521467" lon="148.3870967"/>
      <trkpt lat="-9.0519900" lon="148.3871745"/>
      <trkpt lat="-9.0518557" lon="148.3872316"/>
      <trkpt lat="-9.0517714" lon="148.3872985"/>
      <trkpt lat="-9.0516905" lon="148.3873549"/>
      <trkpt lat="-9.0515965" lon="148.3874470"/>
      <trkpt lat="-9.0514601" lon="148.3875470"/>
      <trkpt lat="-9.0513215" lon="148.3876549"/>
      <trkpt lat="-9.0511795" lon="148.3877511"/>
      <trkpt lat="-9.0510422" lon="148.3878480"/>
      <trkpt lat="-9.0509074" lon="148.3879517"/>
      <trkpt lat="-9.0507692" lon="148.3880557"/>
      <trkpt lat="-9.0506171" lon="148.3881275"/>
      <trkpt lat="-9.0504492" lon="148.3881603"/>
      <trkpt lat="-9.0502770" lon="148.3881702"/>
    </trkseg>
    <trkseg>
      <trkpt lat="-9.0501850" lon="148.3881866"/>
      <trkpt lat="-9.0500341" lon="148.3882735"/>
      <trkpt lat="-9.0498812" lon="148.3883604"/>
      <trkpt lat="-9.0497371" lon="148.3884591"/>
      <trkpt lat="-9.0496076" lon="148.3885834"/>
      <trkpt lat="-9.0494782" lon="148.3887029"/>
      <trkpt lat="-9.0493360" lon="148.3888000"/>
      <trkpt lat="-9.0491766" lon="148.3888523"/>
      <trkpt lat="-9.0490130" lon="148.3888891"/>
      <trkpt lat="-9.0488579" lon="148.3889429"/>
      <trkpt lat="-9.0487221" lon="148.3890425"/>
      <trkpt lat="-9.0485968" lon="148.3891699"/>
      <trkpt lat="-9.0484780" lon="148.3893040"/>
      <trkpt lat="-9.0483982" lon="148.3893975"/>
      <trkpt lat="-9.0483595" lon="148.3894514"/>
    </trkseg>
    <trkseg>
      <trkpt lat="-9.0407446" lon="148.3830739"/>
      <trkpt lat="-9.0407920" lon="148.3829104"/>
      <trkpt lat="-9.0408870" lon="148.3827840"/>
      <trkpt lat="-9.0410243" lon="148.3826902"/>
      <trkpt lat="-9.0411372" lon="148.3825885"/>
      <trkpt lat="-9.0412420" lon="148.3824751"/>
      <trkpt lat="-9.0413217" lon="148.3823686"/>
      <trkpt lat="-9.0414228" lon="148.3823032"/>
    </trkseg>
    <trkseg>
      <trkpt lat="-9.0416477" lon="148.3821725"/>
      <trkpt lat="-9.0416152" lon="148.3821046"/>
      <trkpt lat="-9.0416067" lon="148.3820665"/>
      <trkpt lat="-9.0416013" lon="148.3820362"/>
      <trkpt lat="-9.0416712" lon="148.3820395"/>
      <trkpt lat="-9.0417156" lon="148.3819800"/>
      <trkpt lat="-9.0417957" lon="148.3818926"/>
      <trkpt lat="-9.0419053" lon="148.3818156"/>
      <trkpt lat="-9.0420695" lon="148.3817902"/>
      <trkpt lat="-9.0422457" lon="148.3817908"/>
      <trkpt lat="-9.0424199" lon="148.3817586"/>
      <trkpt lat="-9.0425913" lon="148.3817070"/>
      <trkpt lat="-9.0427532" lon="148.3816311"/>
      <trkpt lat="-9.0429058" lon="148.3815393"/>
      <trkpt lat="-9.0430500" lon="148.3814303"/>
      <trkpt lat="-9.0431917" lon="148.3813178"/>
      <trkpt lat="-9.0433325" lon="148.3812041"/>
      <trkpt lat="-9.0434708" lon="148.3810872"/>
      <trkpt lat="-9.0436120" lon="148.3809737"/>
      <trkpt lat="-9.0437561" lon="148.3808639"/>
      <trkpt lat="-9.0439052" lon="148.3807620"/>
      <trkpt lat="-9.0440533" lon="148.3806617"/>
      <trkpt lat="-9.0441850" lon="148.3805464"/>
      <trkpt lat="-9.0443165" lon="148.3804302"/>
      <trkpt lat="-9.0444381" lon="148.3803037"/>
      <trkpt lat="-9.0445558" lon="148.3801743"/>
      <trkpt lat="-9.0446663" lon="148.3800356"/>
      <trkpt lat="-9.0447771" lon="148.3798952"/>
      <trkpt lat="-9.0448729" lon="148.3797524"/>
      <trkpt lat="-9.0449213" lon="148.3795904"/>
      <trkpt lat="-9.0449283" lon="148.3794148"/>
      <trkpt lat="-9.0449016" lon="148.3792382"/>
      <trkpt lat="-9.0448560" lon="148.3790654"/>
      <trkpt lat="-9.0448482" lon="148.3789089"/>
      <trkpt lat="-9.0449044" lon="148.3787750"/>
      <trkpt lat="-9.0450203" lon="148.3786700"/>
      <trkpt lat="-9.0451618" lon="148.3786026"/>
      <trkpt lat="-9.0453199" lon="148.3785669"/>
      <trkpt lat="-9.0454968" lon="148.3785402"/>
      <trkpt lat="-9.0456711" lon="148.3785016"/>
      <trkpt lat="-9.0458445" lon="148.3784546"/>
      <trkpt lat="-9.0460203" lon="148.3784139"/>
      <trkpt lat="-9.0461981" lon="148.3783820"/>
      <trkpt lat="-9.0463724" lon="148.3783448"/>
      <trkpt lat="-9.0465406" lon="148.3782949"/>
      <trkpt lat="-9.0467049" lon="148.3782304"/>
      <trkpt lat="-9.0468654" lon="148.3781612"/>
      <trkpt lat="-9.0470305" lon="148.3781041"/>
      <trkpt lat="-9.0471997" lon="148.3780642"/>
      <trkpt lat="-9.0473772" lon="148.3780437"/>
      <trkpt lat="-9.0475558" lon="148.3780243"/>
      <trkpt lat="-9.0477328" lon="148.3779989"/>
      <trkpt lat="-9.0479093" lon="148.3779675"/>
      <trkpt lat="-9.0480862" lon="148.3779377"/>
      <trkpt lat="-9.0482611" lon="148.3779392"/>
      <trkpt lat="-9.0484335" lon="148.3779477"/>
      <trkpt lat="-9.0485772" lon="148.3779140"/>
      <trkpt lat="-9.0486890" lon="148.3778076"/>
      <trkpt lat="-9.0487936" lon="148.3776692"/>
      <trkpt lat="-9.0489248" lon="148.3775647"/>
      <trkpt lat="-9.0490815" lon="148.3774829"/>
      <trkpt lat="-9.0492477" lon="148.3774378"/>
      <trkpt lat="-9.0494152" lon="148.3774181"/>
      <trkpt lat="-9.0495912" lon="148.3774411"/>
      <trkpt lat="-9.0497660" lon="148.3774553"/>
      <trkpt lat="-9.0499258" lon="148.3774969"/>
      <trkpt lat="-9.0500234" lon="148.3775871"/>
      <trkpt lat="-9.0501066" lon="148.3777095"/>
      <trkpt lat="-9.0502065" lon="148.3777927"/>
      <trkpt lat="-9.0503691" lon="148.3778236"/>
      <trkpt lat="-9.0505461" lon="148.3778398"/>
      <trkpt lat="-9.0507210" lon="148.3778727"/>
      <trkpt lat="-9.0508955" lon="148.3778850"/>
      <trkpt lat="-9.0510708" lon="148.3778752"/>
      <trkpt lat="-9.0512462" lon="148.3778374"/>
      <trkpt lat="-9.0514205" lon="148.3777948"/>
      <trkpt lat="-9.0515905" lon="148.3777368"/>
      <trkpt lat="-9.0517602" lon="148.3776771"/>
      <trkpt lat="-9.0519317" lon="148.3776235"/>
      <trkpt lat="-9.0521081" lon="148.3775876"/>
      <trkpt lat="-9.0522869" lon="148.3775637"/>
      <trkpt lat="-9.0524666" lon="148.3775450"/>
      <trkpt lat="-9.0526459" lon="148.3775239"/>
      <trkpt lat="-9.0528252" lon="148.3775123"/>
      <trkpt lat="-9.0530037" lon="148.3774992"/>
      <trkpt lat="-9.0531823" lon="148.3775051"/>
      <trkpt lat="-9.0533577" lon="148.3775238"/>
      <trkpt lat="-9.0535287" lon="148.3775739"/>
      <trkpt lat="-9.0537002" lon="148.3776094"/>
      <trkpt lat="-9.0538718" lon="148.3776452"/>
      <trkpt lat="-9.0540367" lon="148.3776328"/>
      <trkpt lat="-9.0541512" lon="148.3775671"/>
      <trkpt lat="-9.0542222" lon="148.3774269"/>
      <trkpt lat="-9.0542929" lon="148.3772751"/>
      <trkpt lat="-9.0544060" lon="148.3771533"/>
      <trkpt lat="-9.0545335" lon="148.3770349"/>
      <trkpt lat="-9.0546433" lon="148.3769014"/>
      <trkpt lat="-9.0547283" lon="148.3767431"/>
      <trkpt lat="-9.0548250" lon="148.3765939"/>
      <trkpt lat="-9.0549429" lon="148.3764644"/>
      <trkpt lat="-9.0550929" lon="148.3763798"/>
      <trkpt lat="-9.0552627" lon="148.3763297"/>
      <trkpt lat="-9.0554405" lon="148.3762997"/>
      <trkpt lat="-9.0556178" lon="148.3762654"/>
      <trkpt lat="-9.0557937" lon="148.3762254"/>
      <trkpt lat="-9.0559691" lon="148.3761831"/>
      <trkpt lat="-9.0561446" lon="148.3761402"/>
      <trkpt lat="-9.0563205" lon="148.3760982"/>
      <trkpt lat="-9.0564934" lon="148.3760468"/>
      <trkpt lat="-9.0566628" lon="148.3759849"/>
      <trkpt lat="-9.0568291" lon="148.3759135"/>
      <trkpt lat="-9.0569951" lon="148.3758415"/>
      <trkpt lat="-9.0571601" lon="148.3757672"/>
      <trkpt lat="-9.0573238" lon="148.3756902"/>
      <trkpt lat="-9.0574900" lon="148.3756280"/>
      <trkpt lat="-9.0576593" lon="148.3755737"/>
      <trkpt lat="-9.0578296" lon="148.3755219"/>
      <trkpt lat="-9.0579991" lon="148.3754593"/>
      <trkpt lat="-9.0581683" lon="148.3753959"/>
      <trkpt lat="-9.0583392" lon="148.3753515"/>
      <trkpt lat="-9.0584964" lon="148.3752888"/>
      <trkpt lat="-9.0586531" lon="148.3752251"/>
      <trkpt lat="-9.0588117" lon="148.3751530"/>
      <trkpt lat="-9.0589861" lon="148.3751067"/>
      <trkpt lat="-9.0591596" lon="148.3750792"/>
      <trkpt lat="-9.0593280" lon="148.3750903"/>
      <trkpt lat="-9.0594928" lon="148.3751371"/>
      <trkpt lat="-9.0596486" lon="148.3752137"/>
      <trkpt lat="-9.0598069" lon="148.3752850"/>
      <trkpt lat="-9.0599633" lon="148.3753578"/>
      <trkpt lat="-9.0601325" lon="148.3754096"/>
      <trkpt lat="-9.0603051" lon="148.3754381"/>
      <trkpt lat="-9.0604758" lon="148.3754717"/>
      <trkpt lat="-9.0606420" lon="148.3755224"/>
      <trkpt lat="-9.0607924" lon="148.3756150"/>
      <trkpt lat="-9.0609196" lon="148.3757308"/>
      <trkpt lat="-9.0610305" lon="148.3758687"/>
      <trkpt lat="-9.0611360" lon="148.3760151"/>
      <trkpt lat="-9.0612537" lon="148.3761526"/>
      <trkpt lat="-9.0613767" lon="148.3762851"/>
      <trkpt lat="-9.0615057" lon="148.3764120"/>
      <trkpt lat="-9.0616362" lon="148.3765371"/>
      <trkpt lat="-9.0617763" lon="148.3766483"/>
      <trkpt lat="-9.0619284" lon="148.3767403"/>
      <trkpt lat="-9.0620915" lon="148.3768173"/>
      <trkpt lat="-9.0622512" lon="148.3769005"/>
      <trkpt lat="-9.0624013" lon="148.3770002"/>
      <trkpt lat="-9.0625389" lon="148.3771167"/>
      <trkpt lat="-9.0626489" lon="148.3772537"/>
      <trkpt lat="-9.0626961" lon="148.3774101"/>
      <trkpt lat="-9.0626967" lon="148.3775829"/>
      <trkpt lat="-9.0626632" lon="148.3777605"/>
      <trkpt lat="-9.0626354" lon="148.3779400"/>
      <trkpt lat="-9.0626099" lon="148.3780713"/>
      <trkpt lat="-9.0625935" lon="148.3781554"/>
    </trkseg>
  </trk>
</gpx>
