<?xml version="1.0" encoding="UTF-8"?>
<gpx version="1.1" creator="MCA Maps — Managalas clan boundary survey"
     xmlns="http://www.topografix.com/GPX/1/1"
     xmlns:xsi="http://www.w3.org/2001/XMLSchema-instance"
     xsi:schemaLocation="http://www.topografix.com/GPX/1/1 http://www.topografix.com/GPX/1/1/gpx.xsd">
  <metadata>
    <name>Sukandi — clan land boundary</name>
    <desc>Sukandi, Zone 2. 29.1 km walked; the boundary closes</desc>
    <time>2026-08-16T11:44:03Z</time>
  </metadata>
  <trk>
    <name>Sukandi - Rodney Ajinko</name>
    <desc>Walked by Rodney Ajinko. 29.1 km, 1 track(s), recorded on the ground. Sukandi, Zone 2.</desc>
    <type>walked-boundary</type>
    <trkseg>
      <trkpt lat="-9.1691691" lon="148.2950902"/>
      <trkpt lat="-9.1691690" lon="148.2950903"/>
    </trkseg>
    <trkseg>
      <trkpt lat="-9.1691690" lon="148.2950903"/>
      <trkpt lat="-9.1691689" lon="148.2950903"/>
    </trkseg>
    <trkseg>
      <trkpt lat="-9.1691690" lon="148.2950903"/>
      <trkpt lat="-9.1690423" lon="148.2952096"/>
      <trkpt lat="-9.1688980" lon="148.2953021"/>
      <trkpt lat="-9.1687649" lon="148.2953977"/>
      <trkpt lat="-9.1686966" lon="148.2955207"/>
      <trkpt lat="-9.1686458" lon="148.2956595"/>
      <trkpt lat="-9.1685629" lon="148.2957622"/>
      <trkpt lat="-9.1684081" lon="148.2958254"/>
      <trkpt lat="-9.1682316" lon="148.2958537"/>
      <trkpt lat="-9.1680552" lon="148.2958808"/>
      <trkpt lat="-9.1678781" lon="148.2958786"/>
      <trkpt lat="-9.1677040" lon="148.2958569"/>
      <trkpt lat="-9.1675304" lon="148.2958105"/>
      <trkpt lat="-9.1673558" lon="148.2957673"/>
      <trkpt lat="-9.1671905" lon="148.2957107"/>
      <trkpt lat="-9.1670328" lon="148.2956353"/>
      <trkpt lat="-9.1668779" lon="148.2955577"/>
      <trkpt lat="-9.1667228" lon="148.2955479"/>
      <trkpt lat="-9.1665591" lon="148.2955796"/>
      <trkpt lat="-9.1663918" lon="148.2956226"/>
      <trkpt lat="-9.1662163" lon="148.2956129"/>
      <trkpt lat="-9.1660492" lon="148.2956090"/>
      <trkpt lat="-9.1658820" lon="148.2956038"/>
      <trkpt lat="-9.1657149" lon="148.2956386"/>
      <trkpt lat="-9.1655547" lon="148.2956951"/>
      <trkpt lat="-9.1654430" lon="148.2958129"/>
      <trkpt lat="-9.1653392" lon="148.2959430"/>
      <trkpt lat="-9.1652658" lon="148.2960746"/>
      <trkpt lat="-9.1651900" lon="148.2961858"/>
    </trkseg>
    <trkseg>
      <trkpt lat="-9.1757800" lon="148.3020667"/>
      <trkpt lat="-9.1756250" lon="148.3021461"/>
      <trkpt lat="-9.1754910" lon="148.3021412"/>
      <trkpt lat="-9.1753800" lon="148.3020492"/>
      <trkpt lat="-9.1753426" lon="148.3018906"/>
      <trkpt lat="-9.1753105" lon="148.3017257"/>
      <trkpt lat="-9.1753435" lon="148.3015666"/>
      <trkpt lat="-9.1753502" lon="148.3014071"/>
      <trkpt lat="-9.1753446" lon="148.3012541"/>
      <trkpt lat="-9.1752538" lon="148.3011088"/>
      <trkpt lat="-9.1751302" lon="148.3009799"/>
      <trkpt lat="-9.1750203" lon="148.3008430"/>
      <trkpt lat="-9.1749439" lon="148.3006851"/>
      <trkpt lat="-9.1749105" lon="148.3005092"/>
      <trkpt lat="-9.1748840" lon="148.3003311"/>
      <trkpt lat="-9.1748707" lon="148.3001524"/>
      <trkpt lat="-9.1748274" lon="148.2999863"/>
      <trkpt lat="-9.1747543" lon="148.2998396"/>
      <trkpt lat="-9.1746346" lon="148.2997140"/>
      <trkpt lat="-9.1744920" lon="148.2996056"/>
      <trkpt lat="-9.1743434" lon="148.2995035"/>
      <trkpt lat="-9.1741834" lon="148.2994223"/>
      <trkpt lat="-9.1740184" lon="148.2993525"/>
      <trkpt lat="-9.1738441" lon="148.2993082"/>
      <trkpt lat="-9.1736750" lon="148.2992534"/>
      <trkpt lat="-9.1735090" lon="148.2991922"/>
      <trkpt lat="-9.1733617" lon="148.2990943"/>
      <trkpt lat="-9.1732535" lon="148.2989684"/>
      <trkpt lat="-9.1732075" lon="148.2988095"/>
      <trkpt lat="-9.1732202" lon="148.2986541"/>
      <trkpt lat="-9.1732963" lon="148.2985216"/>
      <trkpt lat="-9.1734050" lon="148.2984051"/>
      <trkpt lat="-9.1735316" lon="148.2982816"/>
      <trkpt lat="-9.1736241" lon="148.2981337"/>
      <trkpt lat="-9.1736458" lon="148.2979788"/>
      <trkpt lat="-9.1736144" lon="148.2978142"/>
      <trkpt lat="-9.1735526" lon="148.2976488"/>
      <trkpt lat="-9.1734903" lon="148.2974870"/>
      <trkpt lat="-9.1734563" lon="148.2973263"/>
      <trkpt lat="-9.1734319" lon="148.2971656"/>
      <trkpt lat="-9.1733918" lon="148.2970329"/>
      <trkpt lat="-9.1732908" lon="148.2969266"/>
      <trkpt lat="-9.1731561" lon="148.2968432"/>
      <trkpt lat="-9.1730802" lon="148.2967178"/>
      <trkpt lat="-9.1730500" lon="148.2965626"/>
      <trkpt lat="-9.1730326" lon="148.2963921"/>
      <trkpt lat="-9.1730059" lon="148.2962215"/>
      <trkpt lat="-9.1729430" lon="148.2960722"/>
      <trkpt lat="-9.1728558" lon="148.2959411"/>
      <trkpt lat="-9.1727266" lon="148.2958249"/>
      <trkpt lat="-9.1725955" lon="148.2957063"/>
      <trkpt lat="-9.1724558" lon="148.2956055"/>
      <trkpt lat="-9.1723007" lon="148.2955435"/>
      <trkpt lat="-9.1721369" lon="148.2955465"/>
      <trkpt lat="-9.1720023" lon="148.2956032"/>
      <trkpt lat="-9.1718868" lon="148.2957079"/>
      <trkpt lat="-9.1717862" lon="148.2958363"/>
      <trkpt lat="-9.1716622" lon="148.2959538"/>
      <trkpt lat="-9.1715147" lon="148.2960267"/>
      <trkpt lat="-9.1713470" lon="148.2960382"/>
      <trkpt lat="-9.1711767" lon="148.2960442"/>
      <trkpt lat="-9.1710109" lon="148.2960706"/>
      <trkpt lat="-9.1708434" lon="148.2960973"/>
      <trkpt lat="-9.1706746" lon="148.2961143"/>
      <trkpt lat="-9.1705162" lon="148.2961544"/>
      <trkpt lat="-9.1703617" lon="148.2962347"/>
      <trkpt lat="-9.1702062" lon="148.2963046"/>
      <trkpt lat="-9.1700676" lon="148.2962801"/>
      <trkpt lat="-9.1699564" lon="148.2961748"/>
      <trkpt lat="-9.1698924" lon="148.2960077"/>
      <trkpt lat="-9.1698148" lon="148.2958624"/>
      <trkpt lat="-9.1697110" lon="148.2957474"/>
      <trkpt lat="-9.1695833" lon="148.2956425"/>
      <trkpt lat="-9.1694861" lon="148.2955106"/>
      <trkpt lat="-9.1694326" lon="148.2953454"/>
      <trkpt lat="-9.1693581" lon="148.2952076"/>
      <trkpt lat="-9.1692705" lon="148.2951231"/>
      <trkpt lat="-9.1691690" lon="148.2950903"/>
    </trkseg>
    <trkseg>
      <trkpt lat="-9.1651897" lon="148.2961858"/>
      <trkpt lat="-9.1650225" lon="148.2962520"/>
      <trkpt lat="-9.1648598" lon="148.2963284"/>
      <trkpt lat="-9.1647129" lon="148.2964280"/>
      <trkpt lat="-9.1645955" lon="148.2965541"/>
      <trkpt lat="-9.1644970" lon="148.2967001"/>
      <trkpt lat="-9.1644040" lon="148.2968489"/>
      <trkpt lat="-9.1643204" lon="148.2969492"/>
      <trkpt lat="-9.1642572" lon="148.2970081"/>
    </trkseg>
    <trkseg>
      <trkpt lat="-9.1642572" lon="148.2970081"/>
      <trkpt lat="-9.1641137" lon="148.2971180"/>
      <trkpt lat="-9.1639911" lon="148.2972449"/>
      <trkpt lat="-9.1638661" lon="148.2973674"/>
      <trkpt lat="-9.1637487" lon="148.2974977"/>
      <trkpt lat="-9.1636308" lon="148.2976249"/>
      <trkpt lat="-9.1635291" lon="148.2977674"/>
      <trkpt lat="-9.1634511" lon="148.2979217"/>
      <trkpt lat="-9.1633609" lon="148.2980706"/>
      <trkpt lat="-9.1632550" lon="148.2982039"/>
      <trkpt lat="-9.1631257" lon="148.2982943"/>
      <trkpt lat="-9.1629980" lon="148.2983541"/>
    </trkseg>
    <trkseg>
      <trkpt lat="-9.1629980" lon="148.2983547"/>
      <trkpt lat="-9.1628273" lon="148.2983723"/>
      <trkpt lat="-9.1626683" lon="148.2984333"/>
      <trkpt lat="-9.1625312" lon="148.2985483"/>
      <trkpt lat="-9.1624176" lon="148.2986854"/>
      <trkpt lat="-9.1623113" lon="148.2988291"/>
      <trkpt lat="-9.1621999" lon="148.2989605"/>
      <trkpt lat="-9.1620746" lon="148.2990799"/>
      <trkpt lat="-9.1619496" lon="148.2991990"/>
      <trkpt lat="-9.1618172" lon="148.2992885"/>
      <trkpt lat="-9.1616832" lon="148.2993753"/>
      <trkpt lat="-9.1615379" lon="148.2994464"/>
      <trkpt lat="-9.1614149" lon="148.2995659"/>
      <trkpt lat="-9.1613153" lon="148.2997038"/>
      <trkpt lat="-9.1612416" lon="148.2998694"/>
      <trkpt lat="-9.1611809" lon="148.3000399"/>
      <trkpt lat="-9.1611266" lon="148.3002114"/>
      <trkpt lat="-9.1610949" lon="148.3003886"/>
      <trkpt lat="-9.1610776" lon="148.3005676"/>
      <trkpt lat="-9.1610634" lon="148.3007469"/>
      <trkpt lat="-9.1610677" lon="148.3009226"/>
      <trkpt lat="-9.1611034" lon="148.3010882"/>
      <trkpt lat="-9.1611947" lon="148.3012351"/>
      <trkpt lat="-9.1613132" lon="148.3013677"/>
      <trkpt lat="-9.1614483" lon="148.3014872"/>
      <trkpt lat="-9.1615943" lon="148.3015884"/>
      <trkpt lat="-9.1617554" lon="148.3016471"/>
      <trkpt lat="-9.1619192" lon="148.3016358"/>
      <trkpt lat="-9.1620767" lon="148.3015683"/>
      <trkpt lat="-9.1622279" lon="148.3014767"/>
      <trkpt lat="-9.1623871" lon="148.3014296"/>
      <trkpt lat="-9.1625551" lon="148.3014046"/>
      <trkpt lat="-9.1627309" lon="148.3014154"/>
      <trkpt lat="-9.1629070" lon="148.3014269"/>
      <trkpt lat="-9.1630643" lon="148.3014947"/>
      <trkpt lat="-9.1631970" lon="148.3016003"/>
      <trkpt lat="-9.1632956" lon="148.3017487"/>
      <trkpt lat="-9.1633847" lon="148.3019059"/>
      <trkpt lat="-9.1634702" lon="148.3020656"/>
      <trkpt lat="-9.1635537" lon="148.3022262"/>
      <trkpt lat="-9.1636302" lon="148.3023905"/>
      <trkpt lat="-9.1637039" lon="148.3025564"/>
      <trkpt lat="-9.1637827" lon="148.3027197"/>
      <trkpt lat="-9.1638558" lon="148.3028842"/>
      <trkpt lat="-9.1639469" lon="148.3030334"/>
      <trkpt lat="-9.1640596" lon="148.3031633"/>
      <trkpt lat="-9.1641992" lon="148.3032770"/>
      <trkpt lat="-9.1643303" lon="148.3033998"/>
      <trkpt lat="-9.1644422" lon="148.3035406"/>
      <trkpt lat="-9.1645529" lon="148.3036816"/>
      <trkpt lat="-9.1646733" lon="148.3038117"/>
      <trkpt lat="-9.1648052" lon="148.3039310"/>
      <trkpt lat="-9.1649451" lon="148.3040418"/>
      <trkpt lat="-9.1650917" lon="148.3041431"/>
      <trkpt lat="-9.1652491" lon="148.3042318"/>
      <trkpt lat="-9.1653978" lon="148.3043309"/>
      <trkpt lat="-9.1655479" lon="148.3044244"/>
      <trkpt lat="-9.1656796" lon="148.3045375"/>
      <trkpt lat="-9.1657490" lon="148.3046618"/>
      <trkpt lat="-9.1657488" lon="148.3048232"/>
      <trkpt lat="-9.1657094" lon="148.3049970"/>
      <trkpt lat="-9.1656840" lon="148.3051766"/>
      <trkpt lat="-9.1656771" lon="148.3053568"/>
      <trkpt lat="-9.1657114" lon="148.3055211"/>
      <trkpt lat="-9.1657749" lon="148.3056799"/>
      <trkpt lat="-9.1658098" lon="148.3058307"/>
      <trkpt lat="-9.1657746" lon="148.3059872"/>
      <trkpt lat="-9.1656992" lon="148.3061463"/>
      <trkpt lat="-9.1656470" lon="148.3063144"/>
      <trkpt lat="-9.1656295" lon="148.3064931"/>
      <trkpt lat="-9.1656336" lon="148.3066742"/>
      <trkpt lat="-9.1656754" lon="148.3068406"/>
      <trkpt lat="-9.1657681" lon="148.3069759"/>
      <trkpt lat="-9.1659136" lon="148.3070708"/>
      <trkpt lat="-9.1660695" lon="148.3071579"/>
      <trkpt lat="-9.1662225" lon="148.3072501"/>
      <trkpt lat="-9.1663585" lon="148.3073683"/>
      <trkpt lat="-9.1664976" lon="148.3074785"/>
      <trkpt lat="-9.1666363" lon="148.3075891"/>
      <trkpt lat="-9.1667818" lon="148.3076923"/>
      <trkpt lat="-9.1669092" lon="148.3078101"/>
      <trkpt lat="-9.1669989" lon="148.3079475"/>
      <trkpt lat="-9.1670434" lon="148.3081074"/>
      <trkpt lat="-9.1670505" lon="148.3082783"/>
      <trkpt lat="-9.1670392" lon="148.3084502"/>
      <trkpt lat="-9.1670499" lon="148.3086152"/>
      <trkpt lat="-9.1671051" lon="148.3086930"/>
      <trkpt lat="-9.1672038" lon="148.3087184"/>
      <trkpt lat="-9.1672938" lon="148.3087484"/>
      <trkpt lat="-9.1673967" lon="148.3088306"/>
      <trkpt lat="-9.1675183" lon="148.3089327"/>
      <trkpt lat="-9.1676837" lon="148.3089771"/>
      <trkpt lat="-9.1678559" lon="148.3090063"/>
      <trkpt lat="-9.1680305" lon="148.3090089"/>
      <trkpt lat="-9.1682022" lon="148.3089916"/>
      <trkpt lat="-9.1683573" lon="148.3089260"/>
      <trkpt lat="-9.1684611" lon="148.3088071"/>
      <trkpt lat="-9.1685406" lon="148.3086564"/>
      <trkpt lat="-9.1686236" lon="148.3085107"/>
      <trkpt lat="-9.1687520" lon="148.3084062"/>
      <trkpt lat="-9.1689074" lon="148.3083422"/>
      <trkpt lat="-9.1690757" lon="148.3083212"/>
      <trkpt lat="-9.1692478" lon="148.3083399"/>
      <trkpt lat="-9.1694118" lon="148.3083944"/>
      <trkpt lat="-9.1695730" lon="148.3084292"/>
      <trkpt lat="-9.1697092" lon="148.3084848"/>
      <trkpt lat="-9.1697774" lon="148.3085664"/>
      <trkpt lat="-9.1697931" lon="148.3087228"/>
      <trkpt lat="-9.1697807" lon="148.3088945"/>
      <trkpt lat="-9.1697921" lon="148.3090748"/>
      <trkpt lat="-9.1698287" lon="148.3092473"/>
      <trkpt lat="-9.1698668" lon="148.3094082"/>
      <trkpt lat="-9.1699319" lon="148.3095498"/>
      <trkpt lat="-9.1699899" lon="148.3096761"/>
      <trkpt lat="-9.1701029" lon="148.3097681"/>
      <trkpt lat="-9.1702345" lon="148.3098502"/>
      <trkpt lat="-9.1703915" lon="148.3099336"/>
      <trkpt lat="-9.1705385" lon="148.3099959"/>
      <trkpt lat="-9.1706697" lon="148.3100132"/>
      <trkpt lat="-9.1707666" lon="148.3100471"/>
      <trkpt lat="-9.1708367" lon="148.3101384"/>
      <trkpt lat="-9.1709125" lon="148.3102737"/>
      <trkpt lat="-9.1710213" lon="148.3103900"/>
      <trkpt lat="-9.1711548" lon="148.3104898"/>
      <trkpt lat="-9.1712928" lon="148.3105985"/>
      <trkpt lat="-9.1714340" lon="148.3107067"/>
      <trkpt lat="-9.1715632" lon="148.3108283"/>
      <trkpt lat="-9.1716950" lon="148.3109373"/>
      <trkpt lat="-9.1718114" lon="148.3110534"/>
      <trkpt lat="-9.1719377" lon="148.3111622"/>
      <trkpt lat="-9.1720700" lon="148.3112665"/>
      <trkpt lat="-9.1722264" lon="148.3113463"/>
      <trkpt lat="-9.1723875" lon="148.3114148"/>
      <trkpt lat="-9.1725470" lon="148.3114895"/>
      <trkpt lat="-9.1726941" lon="148.3115859"/>
      <trkpt lat="-9.1728099" lon="148.3117092"/>
      <trkpt lat="-9.1729228" lon="148.3118381"/>
      <trkpt lat="-9.1730138" lon="148.3119830"/>
      <trkpt lat="-9.1731321" lon="148.3121070"/>
      <trkpt lat="-9.1732267" lon="148.3122519"/>
      <trkpt lat="-9.1733239" lon="148.3123963"/>
      <trkpt lat="-9.1734093" lon="148.3125556"/>
      <trkpt lat="-9.1735082" lon="148.3127059"/>
      <trkpt lat="-9.1736282" lon="148.3128396"/>
      <trkpt lat="-9.1737400" lon="148.3129778"/>
      <trkpt lat="-9.1738632" lon="148.3131017"/>
      <trkpt lat="-9.1739986" lon="148.3131998"/>
      <trkpt lat="-9.1741584" lon="148.3132776"/>
      <trkpt lat="-9.1743130" lon="148.3133632"/>
      <trkpt lat="-9.1744630" lon="148.3134609"/>
      <trkpt lat="-9.1746130" lon="148.3135589"/>
      <trkpt lat="-9.1747656" lon="148.3136535"/>
      <trkpt lat="-9.1749050" lon="148.3137672"/>
      <trkpt lat="-9.1750439" lon="148.3138792"/>
      <trkpt lat="-9.1751916" lon="148.3139721"/>
      <trkpt lat="-9.1753568" lon="148.3140352"/>
      <trkpt lat="-9.1755276" lon="148.3140880"/>
      <trkpt lat="-9.1756889" lon="148.3141527"/>
      <trkpt lat="-9.1758073" lon="148.3142553"/>
      <trkpt lat="-9.1759104" lon="148.3143809"/>
      <trkpt lat="-9.1760174" lon="148.3145069"/>
      <trkpt lat="-9.1761638" lon="148.3146016"/>
      <trkpt lat="-9.1763057" lon="148.3146993"/>
      <trkpt lat="-9.1764311" lon="148.3148175"/>
      <trkpt lat="-9.1765337" lon="148.3149625"/>
      <trkpt lat="-9.1766171" lon="148.3151171"/>
      <trkpt lat="-9.1766817" lon="148.3152809"/>
      <trkpt lat="-9.1767613" lon="148.3154275"/>
      <trkpt lat="-9.1768734" lon="148.3155519"/>
      <trkpt lat="-9.1770111" lon="148.3156598"/>
      <trkpt lat="-9.1771496" lon="148.3157740"/>
      <trkpt lat="-9.1772674" lon="148.3159052"/>
      <trkpt lat="-9.1773739" lon="148.3160450"/>
      <trkpt lat="-9.1774618" lon="148.3162007"/>
      <trkpt lat="-9.1775288" lon="148.3163634"/>
      <trkpt lat="-9.1775811" lon="148.3165326"/>
      <trkpt lat="-9.1776107" lon="148.3167078"/>
      <trkpt lat="-9.1776500" lon="148.3168813"/>
      <trkpt lat="-9.1777272" lon="148.3170201"/>
      <trkpt lat="-9.1778347" lon="148.3171468"/>
      <trkpt lat="-9.1779643" lon="148.3172608"/>
      <trkpt lat="-9.1780901" lon="148.3173756"/>
      <trkpt lat="-9.1782169" lon="148.3174896"/>
      <trkpt lat="-9.1783449" lon="148.3176028"/>
      <trkpt lat="-9.1784531" lon="148.3177451"/>
      <trkpt lat="-9.1785586" lon="148.3178902"/>
      <trkpt lat="-9.1786512" lon="148.3180446"/>
      <trkpt lat="-9.1787345" lon="148.3181995"/>
      <trkpt lat="-9.1788015" lon="148.3183626"/>
      <trkpt lat="-9.1788830" lon="148.3185132"/>
      <trkpt lat="-9.1789797" lon="148.3186548"/>
      <trkpt lat="-9.1790597" lon="148.3188008"/>
      <trkpt lat="-9.1791258" lon="148.3189538"/>
      <trkpt lat="-9.1791956" lon="148.3191078"/>
      <trkpt lat="-9.1793046" lon="148.3192434"/>
      <trkpt lat="-9.1794076" lon="148.3193870"/>
      <trkpt lat="-9.1795058" lon="148.3195337"/>
      <trkpt lat="-9.1795925" lon="148.3196901"/>
      <trkpt lat="-9.1796906" lon="148.3198377"/>
      <trkpt lat="-9.1797807" lon="148.3199914"/>
      <trkpt lat="-9.1798619" lon="148.3201501"/>
      <trkpt lat="-9.1799368" lon="148.3203152"/>
      <trkpt lat="-9.1800330" lon="148.3204438"/>
      <trkpt lat="-9.1801425" lon="148.3205646"/>
      <trkpt lat="-9.1802637" lon="148.3206782"/>
      <trkpt lat="-9.1803850" lon="148.3207979"/>
      <trkpt lat="-9.1805197" lon="148.3209035"/>
      <trkpt lat="-9.1806482" lon="148.3210120"/>
      <trkpt lat="-9.1807608" lon="148.3211472"/>
      <trkpt lat="-9.1808631" lon="148.3212927"/>
      <trkpt lat="-9.1809909" lon="148.3214040"/>
      <trkpt lat="-9.1811408" lon="148.3214892"/>
      <trkpt lat="-9.1813028" lon="148.3215627"/>
      <trkpt lat="-9.1814598" lon="148.3216497"/>
      <trkpt lat="-9.1816171" lon="148.3217334"/>
      <trkpt lat="-9.1817708" lon="148.3218067"/>
      <trkpt lat="-9.1819091" lon="148.3218981"/>
      <trkpt lat="-9.1820337" lon="148.3220103"/>
      <trkpt lat="-9.1821690" lon="148.3220945"/>
      <trkpt lat="-9.1823242" lon="148.3221431"/>
      <trkpt lat="-9.1824970" lon="148.3221483"/>
      <trkpt lat="-9.1826722" lon="148.3221631"/>
      <trkpt lat="-9.1828511" lon="148.3221666"/>
      <trkpt lat="-9.1830296" lon="148.3221828"/>
      <trkpt lat="-9.1832051" lon="148.3222110"/>
      <trkpt lat="-9.1833765" lon="148.3222594"/>
      <trkpt lat="-9.1835434" lon="148.3223226"/>
      <trkpt lat="-9.1837077" lon="148.3223925"/>
      <trkpt lat="-9.1838674" lon="148.3224722"/>
      <trkpt lat="-9.1840300" lon="148.3225447"/>
      <trkpt lat="-9.1841971" lon="148.3226096"/>
      <trkpt lat="-9.1843637" lon="148.3226758"/>
      <trkpt lat="-9.1845113" lon="148.3227641"/>
      <trkpt lat="-9.1846593" lon="148.3228509"/>
      <trkpt lat="-9.1848147" lon="148.3229208"/>
      <trkpt lat="-9.1849866" lon="148.3229385"/>
      <trkpt lat="-9.1851408" lon="148.3229834"/>
      <trkpt lat="-9.1852750" lon="148.3230598"/>
      <trkpt lat="-9.1854034" lon="148.3231816"/>
      <trkpt lat="-9.1855340" lon="148.3233039"/>
      <trkpt lat="-9.1856793" lon="148.3234046"/>
      <trkpt lat="-9.1858218" lon="148.3235067"/>
      <trkpt lat="-9.1859736" lon="148.3235779"/>
      <trkpt lat="-9.1861018" lon="148.3236658"/>
      <trkpt lat="-9.1862337" lon="148.3237498"/>
      <trkpt lat="-9.1863650" lon="148.3238448"/>
      <trkpt lat="-9.1865010" lon="148.3239236"/>
      <trkpt lat="-9.1866308" lon="148.3240082"/>
      <trkpt lat="-9.1867476" lon="148.3241158"/>
      <trkpt lat="-9.1868797" lon="148.3242322"/>
      <trkpt lat="-9.1870131" lon="148.3243518"/>
      <trkpt lat="-9.1871588" lon="148.3244578"/>
      <trkpt lat="-9.1873077" lon="148.3245583"/>
      <trkpt lat="-9.1874575" lon="148.3246565"/>
      <trkpt lat="-9.1875860" lon="148.3247757"/>
      <trkpt lat="-9.1876947" lon="148.3249168"/>
      <trkpt lat="-9.1878091" lon="148.3250485"/>
      <trkpt lat="-9.1879503" lon="148.3251468"/>
      <trkpt lat="-9.1881115" lon="148.3252231"/>
      <trkpt lat="-9.1882791" lon="148.3252868"/>
      <trkpt lat="-9.1884464" lon="148.3253514"/>
      <trkpt lat="-9.1886160" lon="148.3254041"/>
      <trkpt lat="-9.1887846" lon="148.3254210"/>
      <trkpt lat="-9.1889532" lon="148.3254253"/>
      <trkpt lat="-9.1891218" lon="148.3254368"/>
      <trkpt lat="-9.1892923" lon="148.3254772"/>
      <trkpt lat="-9.1894548" lon="148.3255426"/>
      <trkpt lat="-9.1895998" lon="148.3256100"/>
      <trkpt lat="-9.1897407" lon="148.3256577"/>
      <trkpt lat="-9.1898921" lon="148.3256855"/>
      <trkpt lat="-9.1900627" lon="148.3257038"/>
      <trkpt lat="-9.1902360" lon="148.3257231"/>
      <trkpt lat="-9.1904102" lon="148.3257320"/>
      <trkpt lat="-9.1905858" lon="148.3257201"/>
      <trkpt lat="-9.1907412" lon="148.3257400"/>
      <trkpt lat="-9.1908788" lon="148.3257983"/>
      <trkpt lat="-9.1910113" lon="148.3258603"/>
      <trkpt lat="-9.1911637" lon="148.3259175"/>
      <trkpt lat="-9.1913304" lon="148.3259383"/>
      <trkpt lat="-9.1914991" lon="148.3259824"/>
      <trkpt lat="-9.1916623" lon="148.3260405"/>
      <trkpt lat="-9.1918221" lon="148.3261237"/>
      <trkpt lat="-9.1919810" lon="148.3262099"/>
      <trkpt lat="-9.1921386" lon="148.3262978"/>
      <trkpt lat="-9.1922935" lon="148.3263593"/>
      <trkpt lat="-9.1924150" lon="148.3264500"/>
      <trkpt lat="-9.1925293" lon="148.3265285"/>
      <trkpt lat="-9.1926371" lon="148.3266438"/>
      <trkpt lat="-9.1927649" lon="148.3267432"/>
      <trkpt lat="-9.1928959" lon="148.3268595"/>
      <trkpt lat="-9.1930212" lon="148.3269834"/>
      <trkpt lat="-9.1931415" lon="148.3271156"/>
      <trkpt lat="-9.1932500" lon="148.3272583"/>
      <trkpt lat="-9.1933602" lon="148.3273992"/>
      <trkpt lat="-9.1934692" lon="148.3275418"/>
      <trkpt lat="-9.1935709" lon="148.3276871"/>
      <trkpt lat="-9.1936414" lon="148.3278431"/>
      <trkpt lat="-9.1936814" lon="148.3280103"/>
      <trkpt lat="-9.1936980" lon="148.3281858"/>
      <trkpt lat="-9.1937354" lon="148.3283374"/>
      <trkpt lat="-9.1937291" lon="148.3284670"/>
      <trkpt lat="-9.1936730" lon="148.3285729"/>
      <trkpt lat="-9.1935449" lon="148.3286844"/>
      <trkpt lat="-9.1934008" lon="148.3287628"/>
      <trkpt lat="-9.1932464" lon="148.3288124"/>
      <trkpt lat="-9.1930859" lon="148.3288384"/>
      <trkpt lat="-9.1929212" lon="148.3288594"/>
      <trkpt lat="-9.1927529" lon="148.3288705"/>
      <trkpt lat="-9.1925741" lon="148.3288686"/>
      <trkpt lat="-9.1924094" lon="148.3289052"/>
      <trkpt lat="-9.1922717" lon="148.3289952"/>
      <trkpt lat="-9.1921602" lon="148.3291330"/>
      <trkpt lat="-9.1920640" lon="148.3292811"/>
      <trkpt lat="-9.1919717" lon="148.3294314"/>
      <trkpt lat="-9.1918940" lon="148.3295873"/>
      <trkpt lat="-9.1918352" lon="148.3297500"/>
      <trkpt lat="-9.1918000" lon="148.3299190"/>
      <trkpt lat="-9.1917927" lon="148.3300933"/>
      <trkpt lat="-9.1918098" lon="148.3302707"/>
      <trkpt lat="-9.1918287" lon="148.3304497"/>
      <trkpt lat="-9.1918642" lon="148.3306211"/>
      <trkpt lat="-9.1919176" lon="148.3307861"/>
      <trkpt lat="-9.1920157" lon="148.3309317"/>
      <trkpt lat="-9.1921458" lon="148.3310410"/>
      <trkpt lat="-9.1922801" lon="148.3311460"/>
      <trkpt lat="-9.1924240" lon="148.3312182"/>
      <trkpt lat="-9.1925479" lon="148.3313124"/>
      <trkpt lat="-9.1926729" lon="148.3313930"/>
      <trkpt lat="-9.1927273" lon="148.3315197"/>
      <trkpt lat="-9.1927473" lon="148.3316668"/>
      <trkpt lat="-9.1927272" lon="148.3318392"/>
      <trkpt lat="-9.1927031" lon="148.3320128"/>
      <trkpt lat="-9.1926461" lon="148.3321794"/>
      <trkpt lat="-9.1925624" lon="148.3323371"/>
      <trkpt lat="-9.1924697" lon="148.3324899"/>
      <trkpt lat="-9.1923801" lon="148.3326456"/>
      <trkpt lat="-9.1923176" lon="148.3328104"/>
      <trkpt lat="-9.1922895" lon="148.3329851"/>
      <trkpt lat="-9.1922838" lon="148.3331646"/>
      <trkpt lat="-9.1922812" lon="148.3333412"/>
      <trkpt lat="-9.1922899" lon="148.3335146"/>
      <trkpt lat="-9.1923321" lon="148.3336812"/>
      <trkpt lat="-9.1923995" lon="148.3338458"/>
      <trkpt lat="-9.1924886" lon="148.3340028"/>
      <trkpt lat="-9.1925778" lon="148.3341595"/>
      <trkpt lat="-9.1926848" lon="148.3343025"/>
      <trkpt lat="-9.1927899" lon="148.3344454"/>
      <trkpt lat="-9.1928981" lon="148.3345847"/>
      <trkpt lat="-9.1930171" lon="148.3347096"/>
      <trkpt lat="-9.1931509" lon="148.3348189"/>
      <trkpt lat="-9.1933036" lon="148.3349091"/>
      <trkpt lat="-9.1934391" lon="148.3350206"/>
      <trkpt lat="-9.1935598" lon="148.3351487"/>
      <trkpt lat="-9.1936739" lon="148.3352827"/>
      <trkpt lat="-9.1938001" lon="148.3354048"/>
      <trkpt lat="-9.1939416" lon="148.3355111"/>
      <trkpt lat="-9.1940802" lon="148.3356246"/>
      <trkpt lat="-9.1942197" lon="148.3357369"/>
      <trkpt lat="-9.1943600" lon="148.3358487"/>
      <trkpt lat="-9.1945001" lon="148.3359596"/>
      <trkpt lat="-9.1946135" lon="148.3360918"/>
      <trkpt lat="-9.1947108" lon="148.3362402"/>
      <trkpt lat="-9.1947784" lon="148.3364056"/>
      <trkpt lat="-9.1948394" lon="148.3365736"/>
      <trkpt lat="-9.1948697" lon="148.3367504"/>
      <trkpt lat="-9.1948910" lon="148.3369279"/>
      <trkpt lat="-9.1949117" lon="148.3371054"/>
      <trkpt lat="-9.1949428" lon="148.3372830"/>
      <trkpt lat="-9.1949731" lon="148.3374613"/>
      <trkpt lat="-9.1950058" lon="148.3376390"/>
      <trkpt lat="-9.1950621" lon="148.3378032"/>
      <trkpt lat="-9.1951528" lon="148.3379524"/>
      <trkpt lat="-9.1952592" lon="148.3380933"/>
      <trkpt lat="-9.1953426" lon="148.3382462"/>
      <trkpt lat="-9.1953804" lon="148.3384069"/>
      <trkpt lat="-9.1954020" lon="148.3385685"/>
      <trkpt lat="-9.1954510" lon="148.3386970"/>
      <trkpt lat="-9.1955460" lon="148.3387988"/>
      <trkpt lat="-9.1956405" lon="148.3389081"/>
      <trkpt lat="-9.1957047" lon="148.3390512"/>
      <trkpt lat="-9.1957256" lon="148.3392281"/>
      <trkpt lat="-9.1956876" lon="148.3393833"/>
      <trkpt lat="-9.1956010" lon="148.3395213"/>
      <trkpt lat="-9.1955005" lon="148.3396566"/>
      <trkpt lat="-9.1953982" lon="148.3397688"/>
      <trkpt lat="-9.1953299" lon="148.3398763"/>
      <trkpt lat="-9.1953404" lon="148.3399343"/>
      <trkpt lat="-9.1953944" lon="148.3400328"/>
      <trkpt lat="-9.1954049" lon="148.3401292"/>
      <trkpt lat="-9.1953201" lon="148.3402647"/>
      <trkpt lat="-9.1952386" lon="148.3404064"/>
      <trkpt lat="-9.1952143" lon="148.3405576"/>
      <trkpt lat="-9.1952554" lon="148.3407128"/>
      <trkpt lat="-9.1953314" lon="148.3408515"/>
      <trkpt lat="-9.1954338" lon="148.3409484"/>
      <trkpt lat="-9.1955657" lon="148.3410012"/>
      <trkpt lat="-9.1957141" lon="148.3410366"/>
      <trkpt lat="-9.1958547" lon="148.3411215"/>
      <trkpt lat="-9.1959614" lon="148.3412498"/>
      <trkpt lat="-9.1959983" lon="148.3414091"/>
      <trkpt lat="-9.1960159" lon="148.3415703"/>
      <trkpt lat="-9.1960079" lon="148.3417314"/>
      <trkpt lat="-9.1960368" lon="148.3418577"/>
      <trkpt lat="-9.1960212" lon="148.3419662"/>
      <trkpt lat="-9.1959659" lon="148.3420693"/>
      <trkpt lat="-9.1958560" lon="148.3421886"/>
      <trkpt lat="-9.1957289" lon="148.3422479"/>
      <trkpt lat="-9.1956105" lon="148.3423097"/>
      <trkpt lat="-9.1955119" lon="148.3423884"/>
      <trkpt lat="-9.1954474" lon="148.3425468"/>
      <trkpt lat="-9.1954261" lon="148.3427135"/>
      <trkpt lat="-9.1954479" lon="148.3428451"/>
      <trkpt lat="-9.1955234" lon="148.3429669"/>
      <trkpt lat="-9.1956324" lon="148.3430671"/>
      <trkpt lat="-9.1957420" lon="148.3431925"/>
      <trkpt lat="-9.1958181" lon="148.3433326"/>
      <trkpt lat="-9.1958821" lon="148.3434859"/>
      <trkpt lat="-9.1959403" lon="148.3436482"/>
      <trkpt lat="-9.1959854" lon="148.3438038"/>
      <trkpt lat="-9.1959726" lon="148.3439601"/>
      <trkpt lat="-9.1959498" lon="148.3441124"/>
      <trkpt lat="-9.1959898" lon="148.3442407"/>
      <trkpt lat="-9.1960745" lon="148.3443647"/>
      <trkpt lat="-9.1961394" lon="148.3444970"/>
      <trkpt lat="-9.1961249" lon="148.3446514"/>
      <trkpt lat="-9.1960730" lon="148.3448041"/>
      <trkpt lat="-9.1960671" lon="148.3448637"/>
      <trkpt lat="-9.1961132" lon="148.3449123"/>
      <trkpt lat="-9.1962121" lon="148.3449529"/>
      <trkpt lat="-9.1963291" lon="148.3450415"/>
      <trkpt lat="-9.1964806" lon="148.3450955"/>
      <trkpt lat="-9.1966515" lon="148.3451001"/>
      <trkpt lat="-9.1968102" lon="148.3451030"/>
      <trkpt lat="-9.1969266" lon="148.3450464"/>
      <trkpt lat="-9.1970405" lon="148.3450087"/>
      <trkpt lat="-9.1971402" lon="148.3450049"/>
      <trkpt lat="-9.1972609" lon="148.3450925"/>
      <trkpt lat="-9.1973585" lon="148.3452284"/>
      <trkpt lat="-9.1974227" lon="148.3453750"/>
      <trkpt lat="-9.1974437" lon="148.3455426"/>
      <trkpt lat="-9.1974296" lon="148.3457100"/>
      <trkpt lat="-9.1974736" lon="148.3458415"/>
      <trkpt lat="-9.1975733" lon="148.3459013"/>
      <trkpt lat="-9.1976896" lon="148.3459696"/>
      <trkpt lat="-9.1977963" lon="148.3460446"/>
      <trkpt lat="-9.1978523" lon="148.3461874"/>
      <trkpt lat="-9.1978907" lon="148.3463306"/>
      <trkpt lat="-9.1979205" lon="148.3464922"/>
      <trkpt lat="-9.1979686" lon="148.3466560"/>
      <trkpt lat="-9.1980677" lon="148.3467905"/>
      <trkpt lat="-9.1981764" lon="148.3468466"/>
      <trkpt lat="-9.1983078" lon="148.3468638"/>
      <trkpt lat="-9.1984135" lon="148.3469075"/>
      <trkpt lat="-9.1984826" lon="148.3470427"/>
      <trkpt lat="-9.1985154" lon="148.3472192"/>
      <trkpt lat="-9.1985100" lon="148.3473901"/>
      <trkpt lat="-9.1984636" lon="148.3475536"/>
      <trkpt lat="-9.1983831" lon="148.3477078"/>
      <trkpt lat="-9.1983085" lon="148.3478700"/>
      <trkpt lat="-9.1982477" lon="148.3480391"/>
      <trkpt lat="-9.1982004" lon="148.3482145"/>
      <trkpt lat="-9.1981465" lon="148.3483881"/>
      <trkpt lat="-9.1980750" lon="148.3485487"/>
      <trkpt lat="-9.1980185" lon="148.3487111"/>
      <trkpt lat="-9.1979430" lon="148.3487967"/>
      <trkpt lat="-9.1978417" lon="148.3488296"/>
      <trkpt lat="-9.1977092" lon="148.3488384"/>
      <trkpt lat="-9.1975690" lon="148.3488961"/>
      <trkpt lat="-9.1974498" lon="148.3490048"/>
      <trkpt lat="-9.1973499" lon="148.3491364"/>
      <trkpt lat="-9.1972953" lon="148.3492989"/>
      <trkpt lat="-9.1972768" lon="148.3494756"/>
      <trkpt lat="-9.1973003" lon="148.3496434"/>
      <trkpt lat="-9.1972858" lon="148.3497971"/>
      <trkpt lat="-9.1972343" lon="148.3499374"/>
      <trkpt lat="-9.1971151" lon="148.3500697"/>
      <trkpt lat="-9.1969943" lon="148.3502006"/>
      <trkpt lat="-9.1968604" lon="148.3503100"/>
      <trkpt lat="-9.1967207" lon="148.3503869"/>
      <trkpt lat="-9.1966152" lon="148.3504775"/>
      <trkpt lat="-9.1965735" lon="148.3506011"/>
      <trkpt lat="-9.1965866" lon="148.3507757"/>
      <trkpt lat="-9.1966334" lon="148.3509440"/>
      <trkpt lat="-9.1967130" lon="148.3510943"/>
      <trkpt lat="-9.1968280" lon="148.3512010"/>
      <trkpt lat="-9.1969423" lon="148.3512448"/>
      <trkpt lat="-9.1969850" lon="148.3513039"/>
      <trkpt lat="-9.1969857" lon="148.3514049"/>
      <trkpt lat="-9.1969997" lon="148.3515399"/>
      <trkpt lat="-9.1970471" lon="148.3516621"/>
      <trkpt lat="-9.1970753" lon="148.3517839"/>
      <trkpt lat="-9.1970367" lon="148.3519363"/>
      <trkpt lat="-9.1969772" lon="148.3521047"/>
      <trkpt lat="-9.1968949" lon="148.3522593"/>
      <trkpt lat="-9.1968086" lon="148.3524117"/>
      <trkpt lat="-9.1967133" lon="148.3525611"/>
      <trkpt lat="-9.1966634" lon="148.3526727"/>
      <trkpt lat="-9.1966485" lon="148.3527384"/>
    </trkseg>
    <trkseg>
      <trkpt lat="-9.1760859" lon="148.3026595"/>
      <trkpt lat="-9.1762037" lon="148.3025361"/>
      <trkpt lat="-9.1762362" lon="148.3024099"/>
      <trkpt lat="-9.1761822" lon="148.3022768"/>
      <trkpt lat="-9.1760499" lon="148.3021675"/>
      <trkpt lat="-9.1759154" lon="148.3020961"/>
      <trkpt lat="-9.1757798" lon="148.3020667"/>
    </trkseg>
    <trkseg>
      <trkpt lat="-9.1857524" lon="148.3166128"/>
      <trkpt lat="-9.1855879" lon="148.3166362"/>
      <trkpt lat="-9.1854398" lon="148.3167082"/>
      <trkpt lat="-9.1853206" lon="148.3168372"/>
      <trkpt lat="-9.1852198" lon="148.3169840"/>
      <trkpt lat="-9.1851284" lon="148.3171380"/>
      <trkpt lat="-9.1850082" lon="148.3172537"/>
      <trkpt lat="-9.1848569" lon="148.3173221"/>
      <trkpt lat="-9.1846796" lon="148.3173464"/>
      <trkpt lat="-9.1845010" lon="148.3173579"/>
      <trkpt lat="-9.1843223" lon="148.3173615"/>
      <trkpt lat="-9.1841423" lon="148.3173606"/>
      <trkpt lat="-9.1839621" lon="148.3173557"/>
      <trkpt lat="-9.1837816" lon="148.3173533"/>
      <trkpt lat="-9.1836011" lon="148.3173476"/>
      <trkpt lat="-9.1834283" lon="148.3173168"/>
      <trkpt lat="-9.1832612" lon="148.3172608"/>
      <trkpt lat="-9.1830961" lon="148.3171914"/>
      <trkpt lat="-9.1829351" lon="148.3171160"/>
      <trkpt lat="-9.1827878" lon="148.3170218"/>
      <trkpt lat="-9.1826562" lon="148.3168996"/>
      <trkpt lat="-9.1825282" lon="148.3167715"/>
      <trkpt lat="-9.1823893" lon="148.3166575"/>
      <trkpt lat="-9.1822391" lon="148.3165609"/>
      <trkpt lat="-9.1820919" lon="148.3164629"/>
      <trkpt lat="-9.1819429" lon="148.3163676"/>
      <trkpt lat="-9.1818097" lon="148.3162510"/>
      <trkpt lat="-9.1816783" lon="148.3161313"/>
      <trkpt lat="-9.1815488" lon="148.3160102"/>
      <trkpt lat="-9.1813984" lon="148.3159260"/>
      <trkpt lat="-9.1812301" lon="148.3158710"/>
      <trkpt lat="-9.1810644" lon="148.3158128"/>
      <trkpt lat="-9.1809021" lon="148.3157595"/>
      <trkpt lat="-9.1807413" lon="148.3157075"/>
      <trkpt lat="-9.1805988" lon="148.3156427"/>
      <trkpt lat="-9.1804689" lon="148.3155453"/>
      <trkpt lat="-9.1803864" lon="148.3154035"/>
      <trkpt lat="-9.1803010" lon="148.3152564"/>
      <trkpt lat="-9.1802299" lon="148.3150939"/>
      <trkpt lat="-9.1801622" lon="148.3149306"/>
      <trkpt lat="-9.1801317" lon="148.3147585"/>
      <trkpt lat="-9.1801100" lon="148.3145823"/>
      <trkpt lat="-9.1800602" lon="148.3144164"/>
      <trkpt lat="-9.1799665" lon="148.3142650"/>
      <trkpt lat="-9.1798581" lon="148.3141211"/>
      <trkpt lat="-9.1797423" lon="148.3139835"/>
      <trkpt lat="-9.1796528" lon="148.3138316"/>
      <trkpt lat="-9.1795932" lon="148.3136691"/>
      <trkpt lat="-9.1795740" lon="148.3134892"/>
      <trkpt lat="-9.1795559" lon="148.3133111"/>
      <trkpt lat="-9.1795025" lon="148.3131506"/>
      <trkpt lat="-9.1794261" lon="148.3129950"/>
      <trkpt lat="-9.1793556" lon="148.3128376"/>
      <trkpt lat="-9.1793029" lon="148.3126724"/>
      <trkpt lat="-9.1792300" lon="148.3125219"/>
      <trkpt lat="-9.1791249" lon="148.3123927"/>
      <trkpt lat="-9.1789991" lon="148.3122872"/>
      <trkpt lat="-9.1788572" lon="148.3122225"/>
      <trkpt lat="-9.1786953" lon="148.3122046"/>
      <trkpt lat="-9.1785202" lon="148.3122210"/>
      <trkpt lat="-9.1783626" lon="148.3122482"/>
      <trkpt lat="-9.1782404" lon="148.3122113"/>
      <trkpt lat="-9.1781402" lon="148.3121167"/>
      <trkpt lat="-9.1780906" lon="148.3119525"/>
      <trkpt lat="-9.1780668" lon="148.3117835"/>
      <trkpt lat="-9.1780395" lon="148.3116182"/>
      <trkpt lat="-9.1779493" lon="148.3114914"/>
      <trkpt lat="-9.1777993" lon="148.3114144"/>
      <trkpt lat="-9.1776364" lon="148.3113503"/>
      <trkpt lat="-9.1774807" lon="148.3112719"/>
      <trkpt lat="-9.1773504" lon="148.3111530"/>
      <trkpt lat="-9.1772315" lon="148.3110211"/>
      <trkpt lat="-9.1771226" lon="148.3108782"/>
      <trkpt lat="-9.1770112" lon="148.3107399"/>
      <trkpt lat="-9.1769329" lon="148.3105942"/>
      <trkpt lat="-9.1768660" lon="148.3104405"/>
      <trkpt lat="-9.1767876" lon="148.3102952"/>
      <trkpt lat="-9.1766692" lon="148.3101672"/>
      <trkpt lat="-9.1765285" lon="148.3100583"/>
      <trkpt lat="-9.1764274" lon="148.3099284"/>
      <trkpt lat="-9.1763602" lon="148.3097770"/>
      <trkpt lat="-9.1763358" lon="148.3096015"/>
      <trkpt lat="-9.1763190" lon="148.3094261"/>
      <trkpt lat="-9.1763257" lon="148.3092507"/>
      <trkpt lat="-9.1763500" lon="148.3090753"/>
      <trkpt lat="-9.1763904" lon="148.3089000"/>
      <trkpt lat="-9.1764268" lon="148.3087231"/>
      <trkpt lat="-9.1764690" lon="148.3085470"/>
      <trkpt lat="-9.1764867" lon="148.3083687"/>
      <trkpt lat="-9.1764533" lon="148.3082097"/>
      <trkpt lat="-9.1763652" lon="148.3080628"/>
      <trkpt lat="-9.1762592" lon="148.3079212"/>
      <trkpt lat="-9.1761688" lon="148.3077665"/>
      <trkpt lat="-9.1760945" lon="148.3076027"/>
      <trkpt lat="-9.1760103" lon="148.3074520"/>
      <trkpt lat="-9.1759420" lon="148.3072956"/>
      <trkpt lat="-9.1758864" lon="148.3071344"/>
      <trkpt lat="-9.1758445" lon="148.3069609"/>
      <trkpt lat="-9.1758065" lon="148.3067944"/>
      <trkpt lat="-9.1757746" lon="148.3066530"/>
      <trkpt lat="-9.1757070" lon="148.3065485"/>
      <trkpt lat="-9.1756060" lon="148.3064540"/>
      <trkpt lat="-9.1754591" lon="148.3063976"/>
      <trkpt lat="-9.1753181" lon="148.3063830"/>
      <trkpt lat="-9.1751738" lon="148.3063742"/>
      <trkpt lat="-9.1750480" lon="148.3063148"/>
      <trkpt lat="-9.1749807" lon="148.3061713"/>
      <trkpt lat="-9.1749680" lon="148.3060072"/>
      <trkpt lat="-9.1749824" lon="148.3058362"/>
      <trkpt lat="-9.1750118" lon="148.3056685"/>
      <trkpt lat="-9.1750641" lon="148.3055117"/>
      <trkpt lat="-9.1751332" lon="148.3053699"/>
      <trkpt lat="-9.1751904" lon="148.3052638"/>
      <trkpt lat="-9.1751839" lon="148.3051519"/>
      <trkpt lat="-9.1752188" lon="148.3050577"/>
      <trkpt lat="-9.1752831" lon="148.3049402"/>
      <trkpt lat="-9.1754024" lon="148.3048233"/>
      <trkpt lat="-9.1754963" lon="148.3046911"/>
      <trkpt lat="-9.1755307" lon="148.3045829"/>
      <trkpt lat="-9.1755469" lon="148.3044665"/>
      <trkpt lat="-9.1755764" lon="148.3043559"/>
      <trkpt lat="-9.1756768" lon="148.3042422"/>
      <trkpt lat="-9.1757966" lon="148.3041751"/>
      <trkpt lat="-9.1759131" lon="148.3041841"/>
      <trkpt lat="-9.1760265" lon="148.3042054"/>
      <trkpt lat="-9.1761638" lon="148.3042693"/>
      <trkpt lat="-9.1763134" lon="148.3043136"/>
      <trkpt lat="-9.1764704" lon="148.3043498"/>
      <trkpt lat="-9.1766072" lon="148.3043045"/>
      <trkpt lat="-9.1767097" lon="148.3041846"/>
      <trkpt lat="-9.1767370" lon="148.3040264"/>
      <trkpt lat="-9.1767355" lon="148.3038634"/>
      <trkpt lat="-9.1766870" lon="148.3036979"/>
      <trkpt lat="-9.1766264" lon="148.3035370"/>
      <trkpt lat="-9.1765148" lon="148.3034001"/>
      <trkpt lat="-9.1764008" lon="148.3032648"/>
      <trkpt lat="-9.1762822" lon="148.3031332"/>
      <trkpt lat="-9.1761867" lon="148.3029805"/>
      <trkpt lat="-9.1761200" lon="148.3028236"/>
      <trkpt lat="-9.1760859" lon="148.3026595"/>
    </trkseg>
    <trkseg>
      <trkpt lat="-9.2165017" lon="148.3240283"/>
      <trkpt lat="-9.2163264" lon="148.3240685"/>
      <trkpt lat="-9.2161513" lon="148.3240969"/>
      <trkpt lat="-9.2159758" lon="148.3241236"/>
      <trkpt lat="-9.2158031" lon="148.3241228"/>
      <trkpt lat="-9.2156680" lon="148.3240679"/>
      <trkpt lat="-9.2155553" lon="148.3239586"/>
      <trkpt lat="-9.2154574" lon="148.3238108"/>
      <trkpt lat="-9.2153436" lon="148.3236742"/>
      <trkpt lat="-9.2152408" lon="148.3235295"/>
      <trkpt lat="-9.2151598" lon="148.3233757"/>
      <trkpt lat="-9.2151022" lon="148.3232083"/>
      <trkpt lat="-9.2150795" lon="148.3230375"/>
      <trkpt lat="-9.2150675" lon="148.3228617"/>
      <trkpt lat="-9.2150657" lon="148.3226846"/>
      <trkpt lat="-9.2150501" lon="148.3225048"/>
      <trkpt lat="-9.2150061" lon="148.3223369"/>
      <trkpt lat="-9.2149468" lon="148.3221755"/>
      <trkpt lat="-9.2148484" lon="148.3220351"/>
      <trkpt lat="-9.2147507" lon="148.3218973"/>
      <trkpt lat="-9.2146251" lon="148.3217958"/>
      <trkpt lat="-9.2145074" lon="148.3216905"/>
      <trkpt lat="-9.2143735" lon="148.3215979"/>
      <trkpt lat="-9.2142569" lon="148.3214730"/>
      <trkpt lat="-9.2141436" lon="148.3213413"/>
      <trkpt lat="-9.2140263" lon="148.3212223"/>
      <trkpt lat="-9.2138873" lon="148.3211303"/>
      <trkpt lat="-9.2137654" lon="148.3210312"/>
      <trkpt lat="-9.2136889" lon="148.3208933"/>
      <trkpt lat="-9.2136773" lon="148.3207197"/>
      <trkpt lat="-9.2136732" lon="148.3205437"/>
      <trkpt lat="-9.2136406" lon="148.3203812"/>
      <trkpt lat="-9.2135363" lon="148.3202676"/>
      <trkpt lat="-9.2134015" lon="148.3201703"/>
      <trkpt lat="-9.2132542" lon="148.3201242"/>
      <trkpt lat="-9.2131067" lon="148.3200827"/>
      <trkpt lat="-9.2129391" lon="148.3200717"/>
      <trkpt lat="-9.2127698" lon="148.3200777"/>
      <trkpt lat="-9.2126205" lon="148.3200544"/>
      <trkpt lat="-9.2124711" lon="148.3200507"/>
      <trkpt lat="-9.2123426" lon="148.3199888"/>
      <trkpt lat="-9.2121937" lon="148.3199620"/>
      <trkpt lat="-9.2120462" lon="148.3199336"/>
      <trkpt lat="-9.2118745" lon="148.3199164"/>
      <trkpt lat="-9.2117084" lon="148.3198706"/>
      <trkpt lat="-9.2115493" lon="148.3197869"/>
      <trkpt lat="-9.2113986" lon="148.3196904"/>
      <trkpt lat="-9.2112562" lon="148.3195833"/>
      <trkpt lat="-9.2111066" lon="148.3195240"/>
      <trkpt lat="-9.2109440" lon="148.3195022"/>
      <trkpt lat="-9.2107670" lon="148.3195265"/>
      <trkpt lat="-9.2105892" lon="148.3195232"/>
      <trkpt lat="-9.2104116" lon="148.3195106"/>
      <trkpt lat="-9.2102417" lon="148.3195182"/>
      <trkpt lat="-9.2100773" lon="148.3195538"/>
      <trkpt lat="-9.2099148" lon="148.3195925"/>
      <trkpt lat="-9.2097648" lon="148.3196226"/>
      <trkpt lat="-9.2096447" lon="148.3196818"/>
      <trkpt lat="-9.2095825" lon="148.3198052"/>
      <trkpt lat="-9.2095094" lon="148.3199390"/>
      <trkpt lat="-9.2094080" lon="148.3200578"/>
      <trkpt lat="-9.2092625" lon="148.3201131"/>
      <trkpt lat="-9.2091179" lon="148.3201679"/>
      <trkpt lat="-9.2089749" lon="148.3202225"/>
      <trkpt lat="-9.2088543" lon="148.3203209"/>
      <trkpt lat="-9.2087242" lon="148.3203781"/>
      <trkpt lat="-9.2085951" lon="148.3203778"/>
      <trkpt lat="-9.2084441" lon="148.3203780"/>
      <trkpt lat="-9.2083014" lon="148.3204127"/>
      <trkpt lat="-9.2081536" lon="148.3204498"/>
      <trkpt lat="-9.2079989" lon="148.3204133"/>
      <trkpt lat="-9.2078374" lon="148.3203428"/>
      <trkpt lat="-9.2076706" lon="148.3202899"/>
      <trkpt lat="-9.2075024" lon="148.3202473"/>
      <trkpt lat="-9.2073341" lon="148.3202047"/>
      <trkpt lat="-9.2071711" lon="148.3201513"/>
      <trkpt lat="-9.2070062" lon="148.3201022"/>
      <trkpt lat="-9.2068451" lon="148.3200800"/>
      <trkpt lat="-9.2066886" lon="148.3200425"/>
      <trkpt lat="-9.2065425" lon="148.3200621"/>
      <trkpt lat="-9.2063996" lon="148.3200985"/>
      <trkpt lat="-9.2062663" lon="148.3202107"/>
      <trkpt lat="-9.2061940" lon="148.3203382"/>
      <trkpt lat="-9.2061336" lon="148.3204587"/>
      <trkpt lat="-9.2060668" lon="148.3205646"/>
      <trkpt lat="-9.2059252" lon="148.3206363"/>
      <trkpt lat="-9.2057678" lon="148.3206838"/>
      <trkpt lat="-9.2056045" lon="148.3206868"/>
      <trkpt lat="-9.2054497" lon="148.3207062"/>
      <trkpt lat="-9.2052948" lon="148.3207267"/>
      <trkpt lat="-9.2051841" lon="148.3207111"/>
      <trkpt lat="-9.2051696" lon="148.3206232"/>
      <trkpt lat="-9.2052390" lon="148.3204812"/>
      <trkpt lat="-9.2053317" lon="148.3203335"/>
      <trkpt lat="-9.2054263" lon="148.3202109"/>
      <trkpt lat="-9.2055326" lon="148.3200964"/>
      <trkpt lat="-9.2055894" lon="148.3200622"/>
      <trkpt lat="-9.2055600" lon="148.3199941"/>
      <trkpt lat="-9.2054991" lon="148.3199142"/>
      <trkpt lat="-9.2055055" lon="148.3197622"/>
      <trkpt lat="-9.2055653" lon="148.3195979"/>
      <trkpt lat="-9.2055802" lon="148.3194593"/>
      <trkpt lat="-9.2055030" lon="148.3193760"/>
      <trkpt lat="-9.2053498" lon="148.3193487"/>
      <trkpt lat="-9.2052126" lon="148.3193018"/>
      <trkpt lat="-9.2051171" lon="148.3191979"/>
      <trkpt lat="-9.2050401" lon="148.3190697"/>
      <trkpt lat="-9.2049728" lon="148.3189836"/>
      <trkpt lat="-9.2048859" lon="148.3189092"/>
      <trkpt lat="-9.2047945" lon="148.3188337"/>
      <trkpt lat="-9.2046767" lon="148.3187170"/>
      <trkpt lat="-9.2045491" lon="148.3186038"/>
      <trkpt lat="-9.2044086" lon="148.3185088"/>
      <trkpt lat="-9.2042477" lon="148.3184444"/>
      <trkpt lat="-9.2040806" lon="148.3183893"/>
      <trkpt lat="-9.2039247" lon="148.3183054"/>
      <trkpt lat="-9.2037715" lon="148.3182118"/>
      <trkpt lat="-9.2036126" lon="148.3181568"/>
      <trkpt lat="-9.2034613" lon="148.3181280"/>
      <trkpt lat="-9.2033124" lon="148.3181572"/>
      <trkpt lat="-9.2031830" lon="148.3182185"/>
      <trkpt lat="-9.2030387" lon="148.3183172"/>
      <trkpt lat="-9.2028919" lon="148.3183817"/>
      <trkpt lat="-9.2027523" lon="148.3184545"/>
      <trkpt lat="-9.2026169" lon="148.3185304"/>
      <trkpt lat="-9.2024791" lon="148.3186323"/>
      <trkpt lat="-9.2023607" lon="148.3186734"/>
      <trkpt lat="-9.2022673" lon="148.3186523"/>
      <trkpt lat="-9.2021785" lon="148.3186275"/>
      <trkpt lat="-9.2020840" lon="148.3185643"/>
      <trkpt lat="-9.2019628" lon="148.3185262"/>
      <trkpt lat="-9.2018401" lon="148.3184756"/>
      <trkpt lat="-9.2016828" lon="148.3185005"/>
      <trkpt lat="-9.2016073" lon="148.3185033"/>
      <trkpt lat="-9.2015732" lon="148.3184491"/>
      <trkpt lat="-9.2016071" lon="148.3183150"/>
      <trkpt lat="-9.2015907" lon="148.3181807"/>
      <trkpt lat="-9.2016333" lon="148.3180614"/>
      <trkpt lat="-9.2016896" lon="148.3179428"/>
      <trkpt lat="-9.2017588" lon="148.3177971"/>
      <trkpt lat="-9.2017589" lon="148.3176380"/>
      <trkpt lat="-9.2017292" lon="148.3174711"/>
      <trkpt lat="-9.2016780" lon="148.3173094"/>
      <trkpt lat="-9.2016077" lon="148.3171565"/>
      <trkpt lat="-9.2014903" lon="148.3170467"/>
      <trkpt lat="-9.2013762" lon="148.3169578"/>
      <trkpt lat="-9.2012710" lon="148.3168655"/>
      <trkpt lat="-9.2011607" lon="148.3167738"/>
      <trkpt lat="-9.2010267" lon="148.3167481"/>
      <trkpt lat="-9.2008767" lon="148.3167413"/>
      <trkpt lat="-9.2007325" lon="148.3167128"/>
      <trkpt lat="-9.2006155" lon="148.3165971"/>
      <trkpt lat="-9.2004965" lon="148.3164843"/>
      <trkpt lat="-9.2004084" lon="148.3163711"/>
      <trkpt lat="-9.2002996" lon="148.3162703"/>
      <trkpt lat="-9.2002077" lon="148.3161462"/>
      <trkpt lat="-9.2001058" lon="148.3160066"/>
      <trkpt lat="-9.2000178" lon="148.3158545"/>
      <trkpt lat="-9.1999332" lon="148.3156959"/>
      <trkpt lat="-9.1998454" lon="148.3155375"/>
      <trkpt lat="-9.1997447" lon="148.3154704"/>
      <trkpt lat="-9.1996201" lon="148.3154647"/>
      <trkpt lat="-9.1994894" lon="148.3154892"/>
      <trkpt lat="-9.1993609" lon="148.3154963"/>
      <trkpt lat="-9.1992555" lon="148.3155218"/>
      <trkpt lat="-9.1991283" lon="148.3155558"/>
      <trkpt lat="-9.1989929" lon="148.3155908"/>
      <trkpt lat="-9.1988402" lon="148.3155710"/>
      <trkpt lat="-9.1987408" lon="148.3155059"/>
      <trkpt lat="-9.1986544" lon="148.3154282"/>
      <trkpt lat="-9.1985827" lon="148.3153420"/>
      <trkpt lat="-9.1984551" lon="148.3153214"/>
      <trkpt lat="-9.1983033" lon="148.3152830"/>
      <trkpt lat="-9.1981469" lon="148.3152468"/>
      <trkpt lat="-9.1980080" lon="148.3151631"/>
      <trkpt lat="-9.1978704" lon="148.3150908"/>
      <trkpt lat="-9.1977449" lon="148.3149989"/>
      <trkpt lat="-9.1976088" lon="148.3149293"/>
      <trkpt lat="-9.1974947" lon="148.3148887"/>
      <trkpt lat="-9.1973863" lon="148.3149591"/>
      <trkpt lat="-9.1973270" lon="148.3151016"/>
      <trkpt lat="-9.1972948" lon="148.3152104"/>
      <trkpt lat="-9.1972627" lon="148.3153159"/>
      <trkpt lat="-9.1971789" lon="148.3153448"/>
      <trkpt lat="-9.1970451" lon="148.3153811"/>
      <trkpt lat="-9.1968771" lon="148.3153645"/>
      <trkpt lat="-9.1967472" lon="148.3153623"/>
      <trkpt lat="-9.1966951" lon="148.3153901"/>
      <trkpt lat="-9.1966375" lon="148.3154050"/>
      <trkpt lat="-9.1965390" lon="148.3154139"/>
      <trkpt lat="-9.1963647" lon="148.3153800"/>
      <trkpt lat="-9.1962082" lon="148.3153148"/>
      <trkpt lat="-9.1960797" lon="148.3152133"/>
      <trkpt lat="-9.1960185" lon="148.3150688"/>
      <trkpt lat="-9.1959727" lon="148.3149179"/>
      <trkpt lat="-9.1959195" lon="148.3147738"/>
      <trkpt lat="-9.1958939" lon="148.3146376"/>
      <trkpt lat="-9.1958957" lon="148.3145083"/>
      <trkpt lat="-9.1958752" lon="148.3144294"/>
      <trkpt lat="-9.1957575" lon="148.3143930"/>
      <trkpt lat="-9.1955926" lon="148.3144223"/>
      <trkpt lat="-9.1954413" lon="148.3144686"/>
      <trkpt lat="-9.1952923" lon="148.3145059"/>
      <trkpt lat="-9.1951467" lon="148.3145332"/>
      <trkpt lat="-9.1950161" lon="148.3144867"/>
      <trkpt lat="-9.1948914" lon="148.3144177"/>
      <trkpt lat="-9.1947956" lon="148.3142802"/>
      <trkpt lat="-9.1947131" lon="148.3142320"/>
      <trkpt lat="-9.1946641" lon="148.3142600"/>
      <trkpt lat="-9.1946026" lon="148.3143816"/>
      <trkpt lat="-9.1945180" lon="148.3144931"/>
      <trkpt lat="-9.1944111" lon="148.3145605"/>
      <trkpt lat="-9.1943520" lon="148.3145578"/>
      <trkpt lat="-9.1942907" lon="148.3144850"/>
      <trkpt lat="-9.1942175" lon="148.3143940"/>
      <trkpt lat="-9.1940748" lon="148.3143582"/>
      <trkpt lat="-9.1939228" lon="148.3143384"/>
      <trkpt lat="-9.1937665" lon="148.3143192"/>
      <trkpt lat="-9.1936055" lon="148.3142476"/>
      <trkpt lat="-9.1934729" lon="148.3141470"/>
      <trkpt lat="-9.1933608" lon="148.3140641"/>
      <trkpt lat="-9.1932758" lon="148.3140347"/>
      <trkpt lat="-9.1931872" lon="148.3140967"/>
      <trkpt lat="-9.1930744" lon="148.3141508"/>
      <trkpt lat="-9.1929353" lon="148.3142031"/>
      <trkpt lat="-9.1927858" lon="148.3142511"/>
      <trkpt lat="-9.1926585" lon="148.3143519"/>
      <trkpt lat="-9.1925297" lon="148.3144196"/>
      <trkpt lat="-9.1923941" lon="148.3144221"/>
      <trkpt lat="-9.1922546" lon="148.3144160"/>
      <trkpt lat="-9.1921252" lon="148.3144431"/>
      <trkpt lat="-9.1919854" lon="148.3145230"/>
      <trkpt lat="-9.1918679" lon="148.3146136"/>
      <trkpt lat="-9.1917670" lon="148.3147077"/>
      <trkpt lat="-9.1917442" lon="148.3148368"/>
      <trkpt lat="-9.1917837" lon="148.3149599"/>
      <trkpt lat="-9.1918261" lon="148.3151071"/>
      <trkpt lat="-9.1918558" lon="148.3152569"/>
      <trkpt lat="-9.1918184" lon="148.3154060"/>
      <trkpt lat="-9.1917611" lon="148.3154766"/>
      <trkpt lat="-9.1916621" lon="148.3154382"/>
      <trkpt lat="-9.1915706" lon="148.3154024"/>
      <trkpt lat="-9.1915149" lon="148.3154543"/>
      <trkpt lat="-9.1915002" lon="148.3156175"/>
      <trkpt lat="-9.1914951" lon="148.3157724"/>
      <trkpt lat="-9.1915392" lon="148.3158695"/>
      <trkpt lat="-9.1915186" lon="148.3159149"/>
      <trkpt lat="-9.1914844" lon="148.3159591"/>
      <trkpt lat="-9.1913913" lon="148.3160563"/>
      <trkpt lat="-9.1913376" lon="148.3160878"/>
      <trkpt lat="-9.1912710" lon="148.3161021"/>
      <trkpt lat="-9.1912090" lon="148.3160736"/>
      <trkpt lat="-9.1911438" lon="148.3160597"/>
      <trkpt lat="-9.1910586" lon="148.3160522"/>
      <trkpt lat="-9.1909794" lon="148.3159839"/>
      <trkpt lat="-9.1908884" lon="148.3159465"/>
      <trkpt lat="-9.1907993" lon="148.3158666"/>
      <trkpt lat="-9.1906841" lon="148.3157931"/>
      <trkpt lat="-9.1905740" lon="148.3156785"/>
      <trkpt lat="-9.1904718" lon="148.3155549"/>
      <trkpt lat="-9.1903560" lon="148.3154558"/>
      <trkpt lat="-9.1902307" lon="148.3153634"/>
      <trkpt lat="-9.1901270" lon="148.3152550"/>
      <trkpt lat="-9.1900344" lon="148.3151498"/>
      <trkpt lat="-9.1899569" lon="148.3150864"/>
      <trkpt lat="-9.1898839" lon="148.3151208"/>
      <trkpt lat="-9.1897959" lon="148.3152027"/>
      <trkpt lat="-9.1897213" lon="148.3153423"/>
      <trkpt lat="-9.1896652" lon="148.3154883"/>
      <trkpt lat="-9.1896543" lon="148.3156618"/>
      <trkpt lat="-9.1896527" lon="148.3158423"/>
      <trkpt lat="-9.1896542" lon="148.3160227"/>
      <trkpt lat="-9.1896777" lon="148.3161993"/>
      <trkpt lat="-9.1897133" lon="148.3163741"/>
      <trkpt lat="-9.1897643" lon="148.3165461"/>
      <trkpt lat="-9.1897814" lon="148.3167141"/>
      <trkpt lat="-9.1897282" lon="148.3168418"/>
      <trkpt lat="-9.1895968" lon="148.3169265"/>
      <trkpt lat="-9.1894245" lon="148.3169749"/>
      <trkpt lat="-9.1892511" lon="148.3170196"/>
      <trkpt lat="-9.1890772" lon="148.3170544"/>
      <trkpt lat="-9.1889016" lon="148.3170847"/>
      <trkpt lat="-9.1887302" lon="148.3171189"/>
      <trkpt lat="-9.1885628" lon="148.3171614"/>
      <trkpt lat="-9.1883941" lon="148.3171943"/>
      <trkpt lat="-9.1882194" lon="148.3171993"/>
      <trkpt lat="-9.1880478" lon="148.3171668"/>
      <trkpt lat="-9.1878768" lon="148.3171266"/>
      <trkpt lat="-9.1877057" lon="148.3170981"/>
      <trkpt lat="-9.1875301" lon="148.3170820"/>
      <trkpt lat="-9.1873538" lon="148.3170689"/>
      <trkpt lat="-9.1871814" lon="148.3170748"/>
      <trkpt lat="-9.1870053" lon="148.3170978"/>
      <trkpt lat="-9.1868292" lon="148.3171238"/>
      <trkpt lat="-9.1866564" lon="148.3171024"/>
      <trkpt lat="-9.1864950" lon="148.3170409"/>
      <trkpt lat="-9.1863390" lon="148.3169554"/>
      <trkpt lat="-9.1861792" lon="148.3168757"/>
      <trkpt lat="-9.1860185" lon="148.3167978"/>
      <trkpt lat="-9.1858757" lon="148.3167114"/>
      <trkpt lat="-9.1857524" lon="148.3166128"/>
    </trkseg>
    <trkseg>
      <trkpt lat="-9.2168173" lon="148.3246480"/>
      <trkpt lat="-9.2167270" lon="148.3245217"/>
      <trkpt lat="-9.2166926" lon="148.3244103"/>
      <trkpt lat="-9.2167216" lon="148.3243156"/>
      <trkpt lat="-9.2168588" lon="148.3242219"/>
      <trkpt lat="-9.2170109" lon="148.3241361"/>
      <trkpt lat="-9.2170618" lon="148.3240671"/>
      <trkpt lat="-9.2170363" lon="148.3239677"/>
      <trkpt lat="-9.2169116" lon="148.3238729"/>
      <trkpt lat="-9.2167983" lon="148.3238275"/>
      <trkpt lat="-9.2166629" lon="148.3238760"/>
      <trkpt lat="-9.2165655" lon="148.3239611"/>
      <trkpt lat="-9.2165041" lon="148.3240271"/>
    </trkseg>
    <trkseg>
      <trkpt lat="-9.2285283" lon="148.3314133"/>
      <trkpt lat="-9.2283513" lon="148.3313766"/>
      <trkpt lat="-9.2281749" lon="148.3313374"/>
      <trkpt lat="-9.2279983" lon="148.3313024"/>
      <trkpt lat="-9.2278200" lon="148.3312820"/>
      <trkpt lat="-9.2276520" lon="148.3313062"/>
      <trkpt lat="-9.2274868" lon="148.3313435"/>
      <trkpt lat="-9.2273236" lon="148.3313655"/>
      <trkpt lat="-9.2271595" lon="148.3313358"/>
      <trkpt lat="-9.2269927" lon="148.3313001"/>
      <trkpt lat="-9.2268281" lon="148.3312574"/>
      <trkpt lat="-9.2266588" lon="148.3312087"/>
      <trkpt lat="-9.2264927" lon="148.3311375"/>
      <trkpt lat="-9.2263389" lon="148.3310485"/>
      <trkpt lat="-9.2261892" lon="148.3309783"/>
      <trkpt lat="-9.2260362" lon="148.3309301"/>
      <trkpt lat="-9.2258770" lon="148.3308883"/>
      <trkpt lat="-9.2257105" lon="148.3308396"/>
      <trkpt lat="-9.2255436" lon="148.3307911"/>
      <trkpt lat="-9.2253699" lon="148.3307671"/>
      <trkpt lat="-9.2252084" lon="148.3307919"/>
      <trkpt lat="-9.2250546" lon="148.3307864"/>
      <trkpt lat="-9.2249186" lon="148.3307481"/>
      <trkpt lat="-9.2248376" lon="148.3306161"/>
      <trkpt lat="-9.2248131" lon="148.3304537"/>
      <trkpt lat="-9.2247975" lon="148.3302958"/>
      <trkpt lat="-9.2247339" lon="148.3301542"/>
      <trkpt lat="-9.2246492" lon="148.3300161"/>
      <trkpt lat="-9.2245489" lon="148.3299045"/>
      <trkpt lat="-9.2244540" lon="148.3298838"/>
      <trkpt lat="-9.2243192" lon="148.3299309"/>
      <trkpt lat="-9.2241721" lon="148.3299795"/>
      <trkpt lat="-9.2240117" lon="148.3299412"/>
      <trkpt lat="-9.2238648" lon="148.3298590"/>
      <trkpt lat="-9.2237525" lon="148.3297326"/>
      <trkpt lat="-9.2236624" lon="148.3295914"/>
      <trkpt lat="-9.2235628" lon="148.3294591"/>
      <trkpt lat="-9.2234277" lon="148.3293806"/>
      <trkpt lat="-9.2232666" lon="148.3293337"/>
      <trkpt lat="-9.2231101" lon="148.3292854"/>
      <trkpt lat="-9.2229768" lon="148.3291904"/>
      <trkpt lat="-9.2228499" lon="148.3290807"/>
      <trkpt lat="-9.2227229" lon="148.3289632"/>
      <trkpt lat="-9.2225847" lon="148.3288559"/>
      <trkpt lat="-9.2224627" lon="148.3287318"/>
      <trkpt lat="-9.2223536" lon="148.3285931"/>
      <trkpt lat="-9.2222680" lon="148.3284364"/>
      <trkpt lat="-9.2221905" lon="148.3282761"/>
      <trkpt lat="-9.2221215" lon="148.3281093"/>
      <trkpt lat="-9.2220385" lon="148.3279521"/>
      <trkpt lat="-9.2219334" lon="148.3278085"/>
      <trkpt lat="-9.2218222" lon="148.3276686"/>
      <trkpt lat="-9.2217131" lon="148.3275250"/>
      <trkpt lat="-9.2216191" lon="148.3273705"/>
      <trkpt lat="-9.2215307" lon="148.3272125"/>
      <trkpt lat="-9.2214530" lon="148.3270482"/>
      <trkpt lat="-9.2213663" lon="148.3268898"/>
      <trkpt lat="-9.2212681" lon="148.3267400"/>
      <trkpt lat="-9.2211439" lon="148.3266123"/>
      <trkpt lat="-9.2210002" lon="148.3265127"/>
      <trkpt lat="-9.2208428" lon="148.3264432"/>
      <trkpt lat="-9.2206925" lon="148.3263667"/>
      <trkpt lat="-9.2205442" lon="148.3262818"/>
      <trkpt lat="-9.2203924" lon="148.3261971"/>
      <trkpt lat="-9.2202355" lon="148.3261190"/>
      <trkpt lat="-9.2200946" lon="148.3260226"/>
      <trkpt lat="-9.2199598" lon="148.3259085"/>
      <trkpt lat="-9.2198142" lon="148.3258240"/>
      <trkpt lat="-9.2196451" lon="148.3257853"/>
      <trkpt lat="-9.2194656" lon="148.3257781"/>
      <trkpt lat="-9.2192882" lon="148.3257567"/>
      <trkpt lat="-9.2191148" lon="148.3257163"/>
      <trkpt lat="-9.2189801" lon="148.3256361"/>
      <trkpt lat="-9.2188569" lon="148.3255372"/>
      <trkpt lat="-9.2187517" lon="148.3254120"/>
      <trkpt lat="-9.2186376" lon="148.3252761"/>
      <trkpt lat="-9.2185346" lon="148.3251286"/>
      <trkpt lat="-9.2184342" lon="148.3249830"/>
      <trkpt lat="-9.2183138" lon="148.3248565"/>
      <trkpt lat="-9.2181735" lon="148.3247532"/>
      <trkpt lat="-9.2180162" lon="148.3246659"/>
      <trkpt lat="-9.2178705" lon="148.3245653"/>
      <trkpt lat="-9.2177298" lon="148.3244687"/>
      <trkpt lat="-9.2175842" lon="148.3244190"/>
      <trkpt lat="-9.2174203" lon="148.3244331"/>
      <trkpt lat="-9.2172537" lon="148.3244970"/>
      <trkpt lat="-9.2170958" lon="148.3245779"/>
      <trkpt lat="-9.2169529" lon="148.3246317"/>
      <trkpt lat="-9.2168200" lon="148.3246480"/>
    </trkseg>
    <trkseg>
      <trkpt lat="-9.2258278" lon="148.3400529"/>
      <trkpt lat="-9.2257408" lon="148.3399153"/>
      <trkpt lat="-9.2256808" lon="148.3397630"/>
      <trkpt lat="-9.2256907" lon="148.3395988"/>
      <trkpt lat="-9.2257005" lon="148.3394290"/>
      <trkpt lat="-9.2257133" lon="148.3392565"/>
      <trkpt lat="-9.2256883" lon="148.3390778"/>
      <trkpt lat="-9.2256587" lon="148.3388994"/>
      <trkpt lat="-9.2256351" lon="148.3387193"/>
      <trkpt lat="-9.2255937" lon="148.3385463"/>
      <trkpt lat="-9.2255456" lon="148.3383768"/>
      <trkpt lat="-9.2254846" lon="148.3382109"/>
      <trkpt lat="-9.2254563" lon="148.3380401"/>
      <trkpt lat="-9.2254528" lon="148.3378711"/>
      <trkpt lat="-9.2255169" lon="148.3377242"/>
      <trkpt lat="-9.2256360" lon="148.3376255"/>
      <trkpt lat="-9.2257837" lon="148.3375387"/>
      <trkpt lat="-9.2259327" lon="148.3374521"/>
      <trkpt lat="-9.2260642" lon="148.3373349"/>
      <trkpt lat="-9.2261929" lon="148.3372356"/>
      <trkpt lat="-9.2263057" lon="148.3371204"/>
      <trkpt lat="-9.2264014" lon="148.3369907"/>
      <trkpt lat="-9.2264662" lon="148.3368284"/>
      <trkpt lat="-9.2265054" lon="148.3366656"/>
      <trkpt lat="-9.2265365" lon="148.3365178"/>
      <trkpt lat="-9.2265848" lon="148.3364120"/>
      <trkpt lat="-9.2266213" lon="148.3363175"/>
      <trkpt lat="-9.2266288" lon="148.3362524"/>
      <trkpt lat="-9.2266346" lon="148.3361469"/>
      <trkpt lat="-9.2266356" lon="148.3360230"/>
      <trkpt lat="-9.2266655" lon="148.3358520"/>
      <trkpt lat="-9.2266649" lon="148.3356782"/>
      <trkpt lat="-9.2266489" lon="148.3355142"/>
      <trkpt lat="-9.2266118" lon="148.3353583"/>
      <trkpt lat="-9.2265750" lon="148.3352068"/>
      <trkpt lat="-9.2266006" lon="148.3350653"/>
      <trkpt lat="-9.2266768" lon="148.3349363"/>
      <trkpt lat="-9.2268018" lon="148.3348171"/>
      <trkpt lat="-9.2269331" lon="148.3347014"/>
      <trkpt lat="-9.2270088" lon="148.3345673"/>
      <trkpt lat="-9.2270215" lon="148.3344284"/>
      <trkpt lat="-9.2270274" lon="148.3342771"/>
      <trkpt lat="-9.2270892" lon="148.3341426"/>
      <trkpt lat="-9.2271978" lon="148.3340065"/>
      <trkpt lat="-9.2272543" lon="148.3338590"/>
      <trkpt lat="-9.2272402" lon="148.3336944"/>
      <trkpt lat="-9.2272390" lon="148.3335332"/>
      <trkpt lat="-9.2272973" lon="148.3333932"/>
      <trkpt lat="-9.2274186" lon="148.3332622"/>
      <trkpt lat="-9.2275374" lon="148.3331343"/>
      <trkpt lat="-9.2276590" lon="148.3330081"/>
      <trkpt lat="-9.2277852" lon="148.3328874"/>
      <trkpt lat="-9.2279050" lon="148.3327573"/>
      <trkpt lat="-9.2280195" lon="148.3326210"/>
      <trkpt lat="-9.2281261" lon="148.3324774"/>
      <trkpt lat="-9.2282160" lon="148.3323279"/>
      <trkpt lat="-9.2282963" lon="148.3321711"/>
      <trkpt lat="-9.2283604" lon="148.3320103"/>
      <trkpt lat="-9.2284001" lon="148.3318508"/>
      <trkpt lat="-9.2284332" lon="148.3316918"/>
      <trkpt lat="-9.2284648" lon="148.3315446"/>
      <trkpt lat="-9.2285270" lon="148.3314146"/>
    </trkseg>
    <trkseg>
      <trkpt lat="-9.2259023" lon="148.3449829"/>
      <trkpt lat="-9.2258139" lon="148.3448265"/>
      <trkpt lat="-9.2257286" lon="148.3446707"/>
      <trkpt lat="-9.2256283" lon="148.3445363"/>
      <trkpt lat="-9.2255359" lon="148.3443994"/>
      <trkpt lat="-9.2254589" lon="148.3442562"/>
      <trkpt lat="-9.2254099" lon="148.3440876"/>
      <trkpt lat="-9.2253823" lon="148.3439128"/>
      <trkpt lat="-9.2253732" lon="148.3437386"/>
      <trkpt lat="-9.2253847" lon="148.3435737"/>
      <trkpt lat="-9.2254004" lon="148.3434071"/>
      <trkpt lat="-9.2254044" lon="148.3432394"/>
      <trkpt lat="-9.2253825" lon="148.3430672"/>
      <trkpt lat="-9.2253545" lon="148.3428940"/>
      <trkpt lat="-9.2253180" lon="148.3427218"/>
      <trkpt lat="-9.2252895" lon="148.3425446"/>
      <trkpt lat="-9.2252905" lon="148.3423710"/>
      <trkpt lat="-9.2253475" lon="148.3422190"/>
      <trkpt lat="-9.2254331" lon="148.3420903"/>
      <trkpt lat="-9.2254454" lon="148.3419978"/>
      <trkpt lat="-9.2254173" lon="148.3418871"/>
      <trkpt lat="-9.2254021" lon="148.3417602"/>
      <trkpt lat="-9.2254641" lon="148.3416014"/>
      <trkpt lat="-9.2255608" lon="148.3414539"/>
      <trkpt lat="-9.2256138" lon="148.3413020"/>
      <trkpt lat="-9.2256741" lon="148.3411594"/>
      <trkpt lat="-9.2256930" lon="148.3410015"/>
      <trkpt lat="-9.2257342" lon="148.3408393"/>
      <trkpt lat="-9.2257509" lon="148.3406609"/>
      <trkpt lat="-9.2257827" lon="148.3404835"/>
      <trkpt lat="-9.2258088" lon="148.3403058"/>
      <trkpt lat="-9.2258258" lon="148.3401620"/>
      <trkpt lat="-9.2258269" lon="148.3400520"/>
    </trkseg>
    <trkseg>
      <trkpt lat="-9.2209315" lon="148.3557466"/>
      <trkpt lat="-9.2210263" lon="148.3555995"/>
      <trkpt lat="-9.2211100" lon="148.3554437"/>
      <trkpt lat="-9.2211613" lon="148.3552824"/>
      <trkpt lat="-9.2211717" lon="148.3551306"/>
      <trkpt lat="-9.2211157" lon="148.3549859"/>
      <trkpt lat="-9.2210493" lon="148.3548343"/>
      <trkpt lat="-9.2210298" lon="148.3546750"/>
      <trkpt lat="-9.2210846" lon="148.3545154"/>
      <trkpt lat="-9.2211873" lon="148.3543797"/>
      <trkpt lat="-9.2212778" lon="148.3542447"/>
      <trkpt lat="-9.2213516" lon="148.3540986"/>
      <trkpt lat="-9.2214020" lon="148.3539287"/>
      <trkpt lat="-9.2214632" lon="148.3537578"/>
      <trkpt lat="-9.2214694" lon="148.3536205"/>
      <trkpt lat="-9.2214256" lon="148.3534869"/>
      <trkpt lat="-9.2213220" lon="148.3533662"/>
      <trkpt lat="-9.2212713" lon="148.3532125"/>
      <trkpt lat="-9.2212725" lon="148.3530577"/>
      <trkpt lat="-9.2213331" lon="148.3528903"/>
      <trkpt lat="-9.2214095" lon="148.3527299"/>
      <trkpt lat="-9.2214924" lon="148.3525712"/>
      <trkpt lat="-9.2215818" lon="148.3524154"/>
      <trkpt lat="-9.2216635" lon="148.3522572"/>
      <trkpt lat="-9.2217315" lon="148.3520938"/>
      <trkpt lat="-9.2218084" lon="148.3519364"/>
      <trkpt lat="-9.2218547" lon="148.3517761"/>
      <trkpt lat="-9.2218458" lon="148.3516309"/>
      <trkpt lat="-9.2217807" lon="148.3514773"/>
      <trkpt lat="-9.2216928" lon="148.3513289"/>
      <trkpt lat="-9.2216394" lon="148.3511787"/>
      <trkpt lat="-9.2216120" lon="148.3510337"/>
      <trkpt lat="-9.2216533" lon="148.3508941"/>
      <trkpt lat="-9.2217435" lon="148.3507579"/>
      <trkpt lat="-9.2218706" lon="148.3506325"/>
      <trkpt lat="-9.2220114" lon="148.3505263"/>
      <trkpt lat="-9.2221491" lon="148.3504186"/>
      <trkpt lat="-9.2222890" lon="148.3503104"/>
      <trkpt lat="-9.2224180" lon="148.3501855"/>
      <trkpt lat="-9.2225465" lon="148.3500587"/>
      <trkpt lat="-9.2226649" lon="148.3499231"/>
      <trkpt lat="-9.2227716" lon="148.3497804"/>
      <trkpt lat="-9.2228651" lon="148.3496288"/>
      <trkpt lat="-9.2229638" lon="148.3494811"/>
      <trkpt lat="-9.2230297" lon="148.3493228"/>
      <trkpt lat="-9.2230698" lon="148.3491580"/>
      <trkpt lat="-9.2230988" lon="148.3489876"/>
      <trkpt lat="-9.2231857" lon="148.3488581"/>
      <trkpt lat="-9.2233291" lon="148.3487735"/>
      <trkpt lat="-9.2234762" lon="148.3486896"/>
      <trkpt lat="-9.2236079" lon="148.3485827"/>
      <trkpt lat="-9.2237318" lon="148.3484578"/>
      <trkpt lat="-9.2238736" lon="148.3483501"/>
      <trkpt lat="-9.2240139" lon="148.3482387"/>
      <trkpt lat="-9.2241378" lon="148.3481103"/>
      <trkpt lat="-9.2242489" lon="148.3479680"/>
      <trkpt lat="-9.2243529" lon="148.3478203"/>
      <trkpt lat="-9.2244181" lon="148.3476626"/>
      <trkpt lat="-9.2244855" lon="148.3475085"/>
      <trkpt lat="-9.2245716" lon="148.3474077"/>
      <trkpt lat="-9.2247057" lon="148.3473943"/>
      <trkpt lat="-9.2248436" lon="148.3473845"/>
      <trkpt lat="-9.2249717" lon="148.3473285"/>
      <trkpt lat="-9.2250965" lon="148.3472022"/>
      <trkpt lat="-9.2252150" lon="148.3470715"/>
      <trkpt lat="-9.2253353" lon="148.3469492"/>
      <trkpt lat="-9.2254722" lon="148.3468516"/>
      <trkpt lat="-9.2256157" lon="148.3467570"/>
      <trkpt lat="-9.2257489" lon="148.3466470"/>
      <trkpt lat="-9.2258520" lon="148.3465010"/>
      <trkpt lat="-9.2259285" lon="148.3463384"/>
      <trkpt lat="-9.2259877" lon="148.3461733"/>
      <trkpt lat="-9.2260031" lon="148.3460046"/>
      <trkpt lat="-9.2259675" lon="148.3458451"/>
      <trkpt lat="-9.2259002" lon="148.3456803"/>
      <trkpt lat="-9.2258533" lon="148.3455130"/>
      <trkpt lat="-9.2258425" lon="148.3453344"/>
      <trkpt lat="-9.2258616" lon="148.3451682"/>
      <trkpt lat="-9.2258812" lon="148.3450512"/>
      <trkpt lat="-9.2259023" lon="148.3449829"/>
    </trkseg>
    <trkseg>
      <trkpt lat="-9.1966485" lon="148.3527384"/>
      <trkpt lat="-9.1965240" lon="148.3528465"/>
      <trkpt lat="-9.1965027" lon="148.3529497"/>
      <trkpt lat="-9.1965816" lon="148.3530542"/>
      <trkpt lat="-9.1967256" lon="148.3531369"/>
      <trkpt lat="-9.1968595" lon="148.3532379"/>
      <trkpt lat="-9.1969492" lon="148.3533570"/>
      <trkpt lat="-9.1969490" lon="148.3534872"/>
      <trkpt lat="-9.1968842" lon="148.3536277"/>
      <trkpt lat="-9.1967863" lon="148.3537718"/>
      <trkpt lat="-9.1967279" lon="148.3539391"/>
      <trkpt lat="-9.1967202" lon="148.3541034"/>
      <trkpt lat="-9.1967197" lon="148.3542654"/>
      <trkpt lat="-9.1966678" lon="148.3543779"/>
      <trkpt lat="-9.1965600" lon="148.3544811"/>
      <trkpt lat="-9.1964427" lon="148.3545841"/>
      <trkpt lat="-9.1963950" lon="148.3547358"/>
      <trkpt lat="-9.1963495" lon="148.3548992"/>
      <trkpt lat="-9.1963014" lon="148.3550617"/>
      <trkpt lat="-9.1962211" lon="148.3552193"/>
      <trkpt lat="-9.1962137" lon="148.3553484"/>
      <trkpt lat="-9.1962592" lon="148.3554830"/>
      <trkpt lat="-9.1963702" lon="148.3556005"/>
      <trkpt lat="-9.1964723" lon="148.3557322"/>
      <trkpt lat="-9.1965964" lon="148.3558483"/>
      <trkpt lat="-9.1966571" lon="148.3559851"/>
      <trkpt lat="-9.1966958" lon="148.3561365"/>
      <trkpt lat="-9.1967326" lon="148.3562930"/>
      <trkpt lat="-9.1968251" lon="148.3564394"/>
      <trkpt lat="-9.1969240" lon="148.3565879"/>
      <trkpt lat="-9.1970166" lon="148.3567417"/>
      <trkpt lat="-9.1970845" lon="148.3569070"/>
      <trkpt lat="-9.1971270" lon="148.3570743"/>
      <trkpt lat="-9.1971074" lon="148.3572444"/>
      <trkpt lat="-9.1970922" lon="148.3574092"/>
      <trkpt lat="-9.1970355" lon="148.3575515"/>
      <trkpt lat="-9.1969739" lon="148.3576874"/>
      <trkpt lat="-9.1968887" lon="148.3578302"/>
      <trkpt lat="-9.1968701" lon="148.3579908"/>
      <trkpt lat="-9.1969009" lon="148.3581610"/>
      <trkpt lat="-9.1969616" lon="148.3583261"/>
      <trkpt lat="-9.1970073" lon="148.3584958"/>
      <trkpt lat="-9.1970724" lon="148.3586588"/>
      <trkpt lat="-9.1971197" lon="148.3588252"/>
      <trkpt lat="-9.1971519" lon="148.3589935"/>
      <trkpt lat="-9.1971724" lon="148.3591592"/>
      <trkpt lat="-9.1972024" lon="148.3593201"/>
      <trkpt lat="-9.1972923" lon="148.3594471"/>
      <trkpt lat="-9.1973488" lon="148.3595845"/>
      <trkpt lat="-9.1973973" lon="148.3597279"/>
      <trkpt lat="-9.1973842" lon="148.3599022"/>
      <trkpt lat="-9.1973416" lon="148.3600622"/>
      <trkpt lat="-9.1972827" lon="148.3602212"/>
      <trkpt lat="-9.1972046" lon="148.3603756"/>
      <trkpt lat="-9.1971341" lon="148.3605378"/>
      <trkpt lat="-9.1970734" lon="148.3607003"/>
      <trkpt lat="-9.1970342" lon="148.3608690"/>
      <trkpt lat="-9.1970168" lon="148.3610445"/>
      <trkpt lat="-9.1969548" lon="148.3612014"/>
      <trkpt lat="-9.1968824" lon="148.3613544"/>
      <trkpt lat="-9.1967881" lon="148.3614998"/>
      <trkpt lat="-9.1966985" lon="148.3616496"/>
      <trkpt lat="-9.1965848" lon="148.3617860"/>
      <trkpt lat="-9.1964951" lon="148.3619313"/>
      <trkpt lat="-9.1964477" lon="148.3620887"/>
      <trkpt lat="-9.1964361" lon="148.3622649"/>
      <trkpt lat="-9.1964388" lon="148.3624421"/>
      <trkpt lat="-9.1964348" lon="148.3626229"/>
      <trkpt lat="-9.1964400" lon="148.3628037"/>
      <trkpt lat="-9.1964435" lon="148.3629848"/>
      <trkpt lat="-9.1964567" lon="148.3631656"/>
      <trkpt lat="-9.1964655" lon="148.3633458"/>
      <trkpt lat="-9.1964467" lon="148.3635213"/>
      <trkpt lat="-9.1964220" lon="148.3636966"/>
      <trkpt lat="-9.1964218" lon="148.3638649"/>
      <trkpt lat="-9.1964812" lon="148.3640243"/>
      <trkpt lat="-9.1965607" lon="148.3641785"/>
      <trkpt lat="-9.1966361" lon="148.3643349"/>
      <trkpt lat="-9.1966836" lon="148.3645016"/>
      <trkpt lat="-9.1967468" lon="148.3646532"/>
      <trkpt lat="-9.1968233" lon="148.3647722"/>
      <trkpt lat="-9.1969123" lon="148.3648900"/>
      <trkpt lat="-9.1969770" lon="148.3650273"/>
      <trkpt lat="-9.1969901" lon="148.3651861"/>
      <trkpt lat="-9.1970100" lon="148.3653422"/>
      <trkpt lat="-9.1970474" lon="148.3654910"/>
      <trkpt lat="-9.1971482" lon="148.3656286"/>
      <trkpt lat="-9.1972491" lon="148.3657666"/>
      <trkpt lat="-9.1973559" lon="148.3659011"/>
      <trkpt lat="-9.1974456" lon="148.3660550"/>
      <trkpt lat="-9.1975266" lon="148.3662125"/>
      <trkpt lat="-9.1976033" lon="148.3663630"/>
      <trkpt lat="-9.1976827" lon="148.3665067"/>
      <trkpt lat="-9.1977838" lon="148.3666286"/>
      <trkpt lat="-9.1979125" lon="148.3667187"/>
      <trkpt lat="-9.1980615" lon="148.3667891"/>
      <trkpt lat="-9.1982239" lon="148.3668343"/>
      <trkpt lat="-9.1983822" lon="148.3668957"/>
      <trkpt lat="-9.1985253" lon="148.3669797"/>
      <trkpt lat="-9.1986413" lon="148.3671075"/>
      <trkpt lat="-9.1987159" lon="148.3672679"/>
      <trkpt lat="-9.1987751" lon="148.3674214"/>
      <trkpt lat="-9.1988451" lon="148.3675626"/>
      <trkpt lat="-9.1989439" lon="148.3676887"/>
      <trkpt lat="-9.1990560" lon="148.3678247"/>
      <trkpt lat="-9.1991648" lon="148.3679685"/>
      <trkpt lat="-9.1992666" lon="148.3681182"/>
      <trkpt lat="-9.1993773" lon="148.3682615"/>
      <trkpt lat="-9.1994989" lon="148.3683939"/>
      <trkpt lat="-9.1996302" lon="148.3685154"/>
      <trkpt lat="-9.1997374" lon="148.3686487"/>
      <trkpt lat="-9.1998264" lon="148.3687971"/>
      <trkpt lat="-9.1998892" lon="148.3689626"/>
      <trkpt lat="-9.1999495" lon="148.3691306"/>
      <trkpt lat="-9.1999931" lon="148.3693044"/>
      <trkpt lat="-9.2000355" lon="148.3694807"/>
      <trkpt lat="-9.2000435" lon="148.3696525"/>
      <trkpt lat="-9.2000076" lon="148.3698089"/>
      <trkpt lat="-9.1999503" lon="148.3699644"/>
      <trkpt lat="-9.1998786" lon="148.3701156"/>
      <trkpt lat="-9.1998348" lon="148.3702772"/>
      <trkpt lat="-9.1998196" lon="148.3704360"/>
      <trkpt lat="-9.1998670" lon="148.3705976"/>
      <trkpt lat="-9.1999571" lon="148.3706909"/>
      <trkpt lat="-9.2000456" lon="148.3706730"/>
      <trkpt lat="-9.2001491" lon="148.3705608"/>
      <trkpt lat="-9.2002553" lon="148.3704183"/>
      <trkpt lat="-9.2003773" lon="148.3702854"/>
      <trkpt lat="-9.2004902" lon="148.3701478"/>
      <trkpt lat="-9.2006086" lon="148.3700161"/>
      <trkpt lat="-9.2007434" lon="148.3699107"/>
      <trkpt lat="-9.2008839" lon="148.3698070"/>
      <trkpt lat="-9.2010196" lon="148.3696981"/>
      <trkpt lat="-9.2011580" lon="148.3695989"/>
      <trkpt lat="-9.2013166" lon="148.3695460"/>
      <trkpt lat="-9.2014935" lon="148.3695402"/>
      <trkpt lat="-9.2016616" lon="148.3695148"/>
      <trkpt lat="-9.2018292" lon="148.3694928"/>
      <trkpt lat="-9.2019951" lon="148.3694831"/>
      <trkpt lat="-9.2021688" lon="148.3695116"/>
      <trkpt lat="-9.2023375" lon="148.3695234"/>
      <trkpt lat="-9.2025047" lon="148.3695382"/>
      <trkpt lat="-9.2026758" lon="148.3695523"/>
      <trkpt lat="-9.2028481" lon="148.3695988"/>
      <trkpt lat="-9.2030209" lon="148.3696410"/>
      <trkpt lat="-9.2031887" lon="148.3697013"/>
      <trkpt lat="-9.2033392" lon="148.3697844"/>
      <trkpt lat="-9.2034809" lon="148.3698888"/>
      <trkpt lat="-9.2036253" lon="148.3699773"/>
      <trkpt lat="-9.2037898" lon="148.3700317"/>
      <trkpt lat="-9.2039653" lon="148.3700573"/>
      <trkpt lat="-9.2041428" lon="148.3700805"/>
      <trkpt lat="-9.2043199" lon="148.3700812"/>
      <trkpt lat="-9.2044906" lon="148.3700511"/>
      <trkpt lat="-9.2046614" lon="148.3700190"/>
      <trkpt lat="-9.2048327" lon="148.3699861"/>
      <trkpt lat="-9.2050025" lon="148.3699565"/>
      <trkpt lat="-9.2051463" lon="148.3698762"/>
      <trkpt lat="-9.2052365" lon="148.3697491"/>
      <trkpt lat="-9.2053021" lon="148.3695905"/>
      <trkpt lat="-9.2053750" lon="148.3694333"/>
      <trkpt lat="-9.2054739" lon="148.3692845"/>
      <trkpt lat="-9.2055881" lon="148.3691510"/>
      <trkpt lat="-9.2057212" lon="148.3690547"/>
      <trkpt lat="-9.2058763" lon="148.3689915"/>
      <trkpt lat="-9.2060386" lon="148.3689320"/>
      <trkpt lat="-9.2061968" lon="148.3688569"/>
      <trkpt lat="-9.2063604" lon="148.3687863"/>
      <trkpt lat="-9.2065310" lon="148.3687281"/>
      <trkpt lat="-9.2066979" lon="148.3686626"/>
      <trkpt lat="-9.2068626" lon="148.3685952"/>
      <trkpt lat="-9.2070045" lon="148.3685014"/>
      <trkpt lat="-9.2071152" lon="148.3683811"/>
      <trkpt lat="-9.2071999" lon="148.3682248"/>
      <trkpt lat="-9.2072980" lon="148.3680818"/>
      <trkpt lat="-9.2074233" lon="148.3680295"/>
      <trkpt lat="-9.2075728" lon="148.3680553"/>
      <trkpt lat="-9.2077324" lon="148.3681076"/>
      <trkpt lat="-9.2078956" lon="148.3680980"/>
      <trkpt lat="-9.2080619" lon="148.3680455"/>
      <trkpt lat="-9.2082247" lon="148.3679808"/>
      <trkpt lat="-9.2083897" lon="148.3679332"/>
      <trkpt lat="-9.2085510" lon="148.3678902"/>
      <trkpt lat="-9.2087177" lon="148.3678554"/>
      <trkpt lat="-9.2088774" lon="148.3677965"/>
      <trkpt lat="-9.2090034" lon="148.3676931"/>
      <trkpt lat="-9.2090976" lon="148.3675477"/>
      <trkpt lat="-9.2091945" lon="148.3674044"/>
      <trkpt lat="-9.2093052" lon="148.3672689"/>
      <trkpt lat="-9.2094121" lon="148.3671314"/>
      <trkpt lat="-9.2095061" lon="148.3669790"/>
      <trkpt lat="-9.2096043" lon="148.3668289"/>
      <trkpt lat="-9.2097329" lon="148.3667088"/>
      <trkpt lat="-9.2098691" lon="148.3665975"/>
      <trkpt lat="-9.2099751" lon="148.3665199"/>
      <trkpt lat="-9.2100350" lon="148.3664550"/>
    </trkseg>
    <trkseg>
      <trkpt lat="-9.2147200" lon="148.3632167"/>
      <trkpt lat="-9.2148246" lon="148.3630702"/>
      <trkpt lat="-9.2149176" lon="148.3629201"/>
      <trkpt lat="-9.2150115" lon="148.3627704"/>
      <trkpt lat="-9.2151144" lon="148.3626471"/>
      <trkpt lat="-9.2152520" lon="148.3625910"/>
      <trkpt lat="-9.2153813" lon="148.3625423"/>
      <trkpt lat="-9.2154706" lon="148.3624556"/>
      <trkpt lat="-9.2155119" lon="148.3622949"/>
      <trkpt lat="-9.2155699" lon="148.3621416"/>
      <trkpt lat="-9.2156330" lon="148.3619888"/>
      <trkpt lat="-9.2156815" lon="148.3618358"/>
      <trkpt lat="-9.2157216" lon="148.3616728"/>
      <trkpt lat="-9.2157782" lon="148.3615187"/>
      <trkpt lat="-9.2158633" lon="148.3613691"/>
      <trkpt lat="-9.2159417" lon="148.3612104"/>
      <trkpt lat="-9.2160339" lon="148.3610560"/>
      <trkpt lat="-9.2161109" lon="148.3608970"/>
      <trkpt lat="-9.2161850" lon="148.3607362"/>
      <trkpt lat="-9.2162364" lon="148.3605640"/>
      <trkpt lat="-9.2163008" lon="148.3603955"/>
      <trkpt lat="-9.2163691" lon="148.3602297"/>
      <trkpt lat="-9.2164399" lon="148.3600663"/>
      <trkpt lat="-9.2165198" lon="148.3599088"/>
      <trkpt lat="-9.2166116" lon="148.3597620"/>
      <trkpt lat="-9.2167221" lon="148.3596239"/>
      <trkpt lat="-9.2168474" lon="148.3594973"/>
      <trkpt lat="-9.2169599" lon="148.3593588"/>
      <trkpt lat="-9.2170830" lon="148.3592331"/>
      <trkpt lat="-9.2172010" lon="148.3591021"/>
      <trkpt lat="-9.2173264" lon="148.3589781"/>
      <trkpt lat="-9.2174478" lon="148.3588517"/>
      <trkpt lat="-9.2175808" lon="148.3587404"/>
      <trkpt lat="-9.2177166" lon="148.3586302"/>
      <trkpt lat="-9.2178502" lon="148.3585153"/>
      <trkpt lat="-9.2179544" lon="148.3583739"/>
      <trkpt lat="-9.2180435" lon="148.3582233"/>
      <trkpt lat="-9.2181310" lon="148.3580690"/>
      <trkpt lat="-9.2182269" lon="148.3579188"/>
      <trkpt lat="-9.2183325" lon="148.3577743"/>
      <trkpt lat="-9.2184447" lon="148.3576369"/>
      <trkpt lat="-9.2185586" lon="148.3575028"/>
      <trkpt lat="-9.2186615" lon="148.3573616"/>
      <trkpt lat="-9.2187452" lon="148.3572088"/>
      <trkpt lat="-9.2188369" lon="148.3570623"/>
      <trkpt lat="-9.2189523" lon="148.3569334"/>
      <trkpt lat="-9.2190775" lon="148.3568067"/>
      <trkpt lat="-9.2191954" lon="148.3567146"/>
      <trkpt lat="-9.2193258" lon="148.3566597"/>
      <trkpt lat="-9.2194555" lon="148.3566084"/>
      <trkpt lat="-9.2196036" lon="148.3565384"/>
      <trkpt lat="-9.2197402" lon="148.3564344"/>
      <trkpt lat="-9.2198972" lon="148.3563554"/>
      <trkpt lat="-9.2200583" lon="148.3562806"/>
      <trkpt lat="-9.2202288" lon="148.3562436"/>
      <trkpt lat="-9.2203476" lon="148.3561685"/>
      <trkpt lat="-9.2203683" lon="148.3560843"/>
      <trkpt lat="-9.2203751" lon="148.3559892"/>
      <trkpt lat="-9.2204359" lon="148.3559505"/>
      <trkpt lat="-9.2205896" lon="148.3559319"/>
      <trkpt lat="-9.2207323" lon="148.3558847"/>
      <trkpt lat="-9.2208435" lon="148.3558194"/>
      <trkpt lat="-9.2209316" lon="148.3557467"/>
    </trkseg>
    <trkseg>
      <trkpt lat="-9.2100867" lon="148.3665317"/>
      <trkpt lat="-9.2102167" lon="148.3664180"/>
      <trkpt lat="-9.2103429" lon="148.3663014"/>
      <trkpt lat="-9.2104847" lon="148.3662094"/>
      <trkpt lat="-9.2106413" lon="148.3661622"/>
      <trkpt lat="-9.2108117" lon="148.3661749"/>
      <trkpt lat="-9.2109733" lon="148.3661748"/>
      <trkpt lat="-9.2111176" lon="148.3661235"/>
      <trkpt lat="-9.2112386" lon="148.3660009"/>
      <trkpt lat="-9.2113449" lon="148.3658555"/>
      <trkpt lat="-9.2114590" lon="148.3657194"/>
      <trkpt lat="-9.2115534" lon="148.3655792"/>
      <trkpt lat="-9.2116287" lon="148.3654304"/>
      <trkpt lat="-9.2116746" lon="148.3652593"/>
      <trkpt lat="-9.2117417" lon="148.3650929"/>
      <trkpt lat="-9.2118358" lon="148.3649466"/>
      <trkpt lat="-9.2119573" lon="148.3648223"/>
      <trkpt lat="-9.2120944" lon="148.3647124"/>
      <trkpt lat="-9.2122076" lon="148.3645845"/>
      <trkpt lat="-9.2123284" lon="148.3644800"/>
      <trkpt lat="-9.2124583" lon="148.3644058"/>
      <trkpt lat="-9.2126195" lon="148.3643564"/>
      <trkpt lat="-9.2127842" lon="148.3643046"/>
      <trkpt lat="-9.2129452" lon="148.3642298"/>
      <trkpt lat="-9.2131106" lon="148.3641614"/>
      <trkpt lat="-9.2132535" lon="148.3640649"/>
      <trkpt lat="-9.2133742" lon="148.3639524"/>
      <trkpt lat="-9.2134994" lon="148.3638556"/>
      <trkpt lat="-9.2136477" lon="148.3637873"/>
      <trkpt lat="-9.2138165" lon="148.3637327"/>
      <trkpt lat="-9.2139776" lon="148.3636558"/>
      <trkpt lat="-9.2141160" lon="148.3635467"/>
      <trkpt lat="-9.2142567" lon="148.3634424"/>
      <trkpt lat="-9.2143675" lon="148.3633129"/>
      <trkpt lat="-9.2144731" lon="148.3632353"/>
      <trkpt lat="-9.2145567" lon="148.3631917"/>
    </trkseg>
  </trk>
</gpx>
