<?xml version="1.0" encoding="UTF-8"?>
<gpx version="1.1" creator="MCA Maps — Managalas clan boundary survey"
     xmlns="http://www.topografix.com/GPX/1/1"
     xmlns:xsi="http://www.w3.org/2001/XMLSchema-instance"
     xsi:schemaLocation="http://www.topografix.com/GPX/1/1 http://www.topografix.com/GPX/1/1/gpx.xsd">
  <metadata>
    <name>Uremkol — clan land boundary</name>
    <desc>Uremkol, Zone 8. 11.2 km walked; 6.2 km still to walk in 3 gaps. 1 join(s) under the marking threshold are not shown.</desc>
    <time>2026-08-23T00:00:00Z</time>
  </metadata>
  <wpt lat="-9.0874500" lon="148.4670267">
    <name>GAP 1 OF 3 START</name>
    <desc>3.17 km not walked. This straight line is not a boundary — it joins the two ends so the shape can be closed on paper. Uremkol, Zone 8.</desc>
    <sym>Flag</sym>
  </wpt>
  <wpt lat="-9.1134083" lon="148.4548517">
    <name>GAP 1 OF 3 END</name>
    <desc>3.17 km not walked. This straight line is not a boundary — it joins the two ends so the shape can be closed on paper. Uremkol, Zone 8.</desc>
    <sym>Flag</sym>
  </wpt>
  <wpt lat="-9.1120433" lon="148.4492100">
    <name>GAP 2 OF 3 START</name>
    <desc>1.82 km not walked. This straight line is not a boundary — it joins the two ends so the shape can be closed on paper. Uremkol, Zone 8.</desc>
    <sym>Flag</sym>
  </wpt>
  <wpt lat="-9.1285017" lon="148.4491750">
    <name>GAP 2 OF 3 END</name>
    <desc>1.82 km not walked. This straight line is not a boundary — it joins the two ends so the shape can be closed on paper. Uremkol, Zone 8.</desc>
    <sym>Flag</sym>
  </wpt>
  <wpt lat="-9.1295800" lon="148.4463350">
    <name>GAP 3 OF 3 START</name>
    <desc>1.24 km not walked. This straight line is not a boundary — it joins the two ends so the shape can be closed on paper. Uremkol, Zone 8.</desc>
    <sym>Flag</sym>
  </wpt>
  <wpt lat="-9.1184017" lon="148.4468750">
    <name>GAP 3 OF 3 END</name>
    <desc>1.24 km not walked. This straight line is not a boundary — it joins the two ends so the shape can be closed on paper. Uremkol, Zone 8.</desc>
    <sym>Flag</sym>
  </wpt>
  <trk>
    <name>GAP 1 OF 3 - NOT WALKED - 3.17 km</name>
    <desc>3.17 km not walked. This straight line is not a boundary — it joins the two ends so the shape can be closed on paper. Uremkol, Zone 8.</desc>
    <type>not-walked</type>
    <trkseg>
      <trkpt lat="-9.0874500" lon="148.4670267"/>
      <trkpt lat="-9.1134083" lon="148.4548517"/>
    </trkseg>
  </trk>
  <trk>
    <name>GAP 2 OF 3 - NOT WALKED - 1.82 km</name>
    <desc>1.82 km not walked. This straight line is not a boundary — it joins the two ends so the shape can be closed on paper. Uremkol, Zone 8.</desc>
    <type>not-walked</type>
    <trkseg>
      <trkpt lat="-9.1120433" lon="148.4492100"/>
      <trkpt lat="-9.1285017" lon="148.4491750"/>
    </trkseg>
  </trk>
  <trk>
    <name>GAP 3 OF 3 - NOT WALKED - 1.24 km</name>
    <desc>1.24 km not walked. This straight line is not a boundary — it joins the two ends so the shape can be closed on paper. Uremkol, Zone 8.</desc>
    <type>not-walked</type>
    <trkseg>
      <trkpt lat="-9.1295800" lon="148.4463350"/>
      <trkpt lat="-9.1184017" lon="148.4468750"/>
    </trkseg>
  </trk>
  <trk>
    <name>Uremkol - Cyprian Sirami</name>
    <desc>Walked by Cyprian Sirami. 11.2 km, 3 track(s), recorded on the ground. Uremkol, Zone 8.</desc>
    <type>walked-boundary</type>
    <trkseg>
      <trkpt lat="-9.1141100" lon="148.4475667"/>
      <trkpt lat="-9.1142849" lon="148.4475255"/>
      <trkpt lat="-9.1144580" lon="148.4474770"/>
      <trkpt lat="-9.1146204" lon="148.4474160"/>
      <trkpt lat="-9.1147215" lon="148.4473680"/>
      <trkpt lat="-9.1147596" lon="148.4473449"/>
      <trkpt lat="-9.1147488" lon="148.4473514"/>
      <trkpt lat="-9.1147341" lon="148.4473752"/>
      <trkpt lat="-9.1147388" lon="148.4473724"/>
      <trkpt lat="-9.1147186" lon="148.4473518"/>
      <trkpt lat="-9.1146817" lon="148.4473100"/>
    </trkseg>
    <trkseg>
      <trkpt lat="-9.1184017" lon="148.4468750"/>
      <trkpt lat="-9.1185175" lon="148.4468167"/>
      <trkpt lat="-9.1186633" lon="148.4467963"/>
      <trkpt lat="-9.1188393" lon="148.4467977"/>
      <trkpt lat="-9.1190158" lon="148.4467761"/>
      <trkpt lat="-9.1191913" lon="148.4467393"/>
      <trkpt lat="-9.1193609" lon="148.4467162"/>
      <trkpt lat="-9.1195314" lon="148.4467042"/>
      <trkpt lat="-9.1197044" lon="148.4467009"/>
      <trkpt lat="-9.1198842" lon="148.4466893"/>
      <trkpt lat="-9.1200612" lon="148.4466830"/>
      <trkpt lat="-9.1202379" lon="148.4466809"/>
      <trkpt lat="-9.1204060" lon="148.4467160"/>
      <trkpt lat="-9.1205731" lon="148.4467617"/>
      <trkpt lat="-9.1207363" lon="148.4467925"/>
      <trkpt lat="-9.1209031" lon="148.4467770"/>
      <trkpt lat="-9.1210708" lon="148.4467454"/>
      <trkpt lat="-9.1212385" lon="148.4467120"/>
      <trkpt lat="-9.1214002" lon="148.4466627"/>
      <trkpt lat="-9.1215522" lon="148.4465859"/>
      <trkpt lat="-9.1216987" lon="148.4465159"/>
      <trkpt lat="-9.1218547" lon="148.4464754"/>
      <trkpt lat="-9.1220160" lon="148.4464416"/>
      <trkpt lat="-9.1221851" lon="148.4464035"/>
      <trkpt lat="-9.1223020" lon="148.4463199"/>
      <trkpt lat="-9.1224243" lon="148.4462676"/>
      <trkpt lat="-9.1225410" lon="148.4462567"/>
      <trkpt lat="-9.1226948" lon="148.4462710"/>
      <trkpt lat="-9.1228188" lon="148.4462274"/>
      <trkpt lat="-9.1229285" lon="148.4461794"/>
      <trkpt lat="-9.1230398" lon="148.4461873"/>
      <trkpt lat="-9.1231681" lon="148.4462122"/>
      <trkpt lat="-9.1232988" lon="148.4462519"/>
      <trkpt lat="-9.1234027" lon="148.4463177"/>
      <trkpt lat="-9.1234952" lon="148.4464609"/>
      <trkpt lat="-9.1235756" lon="148.4466179"/>
      <trkpt lat="-9.1236773" lon="148.4467631"/>
      <trkpt lat="-9.1237821" lon="148.4469085"/>
      <trkpt lat="-9.1238976" lon="148.4470457"/>
      <trkpt lat="-9.1240301" lon="148.4471417"/>
      <trkpt lat="-9.1241358" lon="148.4471888"/>
      <trkpt lat="-9.1242117" lon="148.4471917"/>
    </trkseg>
    <trkseg>
      <trkpt lat="-9.1295800" lon="148.4463350"/>
      <trkpt lat="-9.1295400" lon="148.4462533"/>
    </trkseg>
    <trkseg>
      <trkpt lat="-9.1296283" lon="148.4462233"/>
      <trkpt lat="-9.1297985" lon="148.4461899"/>
      <trkpt lat="-9.1299728" lon="148.4461700"/>
      <trkpt lat="-9.1301492" lon="148.4461718"/>
      <trkpt lat="-9.1303225" lon="148.4461682"/>
      <trkpt lat="-9.1304837" lon="148.4461259"/>
      <trkpt lat="-9.1306406" lon="148.4460466"/>
      <trkpt lat="-9.1307970" lon="148.4459992"/>
      <trkpt lat="-9.1309471" lon="148.4460328"/>
      <trkpt lat="-9.1310999" lon="148.4461025"/>
      <trkpt lat="-9.1312538" lon="148.4461714"/>
      <trkpt lat="-9.1314135" lon="148.4462314"/>
      <trkpt lat="-9.1315240" lon="148.4463411"/>
      <trkpt lat="-9.1315657" lon="148.4464947"/>
      <trkpt lat="-9.1315726" lon="148.4466586"/>
      <trkpt lat="-9.1315332" lon="148.4468088"/>
      <trkpt lat="-9.1314774" lon="148.4469527"/>
      <trkpt lat="-9.1313809" lon="148.4471006"/>
      <trkpt lat="-9.1312980" lon="148.4472579"/>
      <trkpt lat="-9.1311889" lon="148.4473469"/>
      <trkpt lat="-9.1310512" lon="148.4473974"/>
      <trkpt lat="-9.1308853" lon="148.4474186"/>
      <trkpt lat="-9.1307290" lon="148.4474936"/>
      <trkpt lat="-9.1305826" lon="148.4475838"/>
      <trkpt lat="-9.1304740" lon="148.4477069"/>
      <trkpt lat="-9.1304094" lon="148.4478477"/>
      <trkpt lat="-9.1303541" lon="148.4480073"/>
      <trkpt lat="-9.1302730" lon="148.4481510"/>
      <trkpt lat="-9.1302082" lon="148.4482892"/>
      <trkpt lat="-9.1302184" lon="148.4484290"/>
      <trkpt lat="-9.1302836" lon="148.4485854"/>
      <trkpt lat="-9.1303481" lon="148.4487473"/>
      <trkpt lat="-9.1304009" lon="148.4489159"/>
      <trkpt lat="-9.1304751" lon="148.4490693"/>
      <trkpt lat="-9.1305864" lon="148.4491916"/>
      <trkpt lat="-9.1307046" lon="148.4493075"/>
      <trkpt lat="-9.1307877" lon="148.4494310"/>
      <trkpt lat="-9.1308066" lon="148.4495808"/>
      <trkpt lat="-9.1308072" lon="148.4497427"/>
      <trkpt lat="-9.1308454" lon="148.4498910"/>
      <trkpt lat="-9.1309223" lon="148.4500279"/>
      <trkpt lat="-9.1310177" lon="148.4501337"/>
      <trkpt lat="-9.1311015" lon="148.4502506"/>
      <trkpt lat="-9.1311927" lon="148.4503766"/>
      <trkpt lat="-9.1312908" lon="148.4505200"/>
      <trkpt lat="-9.1313822" lon="148.4506687"/>
      <trkpt lat="-9.1314620" lon="148.4508230"/>
      <trkpt lat="-9.1315361" lon="148.4509820"/>
      <trkpt lat="-9.1315509" lon="148.4510589"/>
      <trkpt lat="-9.1314877" lon="148.4510795"/>
      <trkpt lat="-9.1313333" lon="148.4510547"/>
      <trkpt lat="-9.1311624" lon="148.4510645"/>
      <trkpt lat="-9.1309957" lon="148.4510459"/>
      <trkpt lat="-9.1308352" lon="148.4509957"/>
      <trkpt lat="-9.1306915" lon="148.4508933"/>
      <trkpt lat="-9.1305572" lon="148.4507802"/>
      <trkpt lat="-9.1304225" lon="148.4506647"/>
      <trkpt lat="-9.1302715" lon="148.4505730"/>
      <trkpt lat="-9.1301104" lon="148.4504931"/>
      <trkpt lat="-9.1299470" lon="148.4504668"/>
      <trkpt lat="-9.1297846" lon="148.4504796"/>
      <trkpt lat="-9.1296159" lon="148.4505158"/>
      <trkpt lat="-9.1294477" lon="148.4505063"/>
      <trkpt lat="-9.1293195" lon="148.4504209"/>
      <trkpt lat="-9.1292185" lon="148.4503089"/>
      <trkpt lat="-9.1291735" lon="148.4501589"/>
      <trkpt lat="-9.1291407" lon="148.4500063"/>
      <trkpt lat="-9.1290900" lon="148.4498669"/>
      <trkpt lat="-9.1290102" lon="148.4497391"/>
      <trkpt lat="-9.1289111" lon="148.4496161"/>
      <trkpt lat="-9.1288297" lon="148.4494618"/>
      <trkpt lat="-9.1287274" lon="148.4493188"/>
      <trkpt lat="-9.1286148" lon="148.4492251"/>
      <trkpt lat="-9.1285017" lon="148.4491750"/>
    </trkseg>
    <trkseg>
      <trkpt lat="-9.1286667" lon="148.4492533"/>
      <trkpt lat="-9.1285120" lon="148.4491711"/>
      <trkpt lat="-9.1283804" lon="148.4490638"/>
      <trkpt lat="-9.1282574" lon="148.4489456"/>
      <trkpt lat="-9.1281438" lon="148.4488173"/>
      <trkpt lat="-9.1280161" lon="148.4487052"/>
      <trkpt lat="-9.1278950" lon="148.4485932"/>
      <trkpt lat="-9.1277698" lon="148.4484827"/>
      <trkpt lat="-9.1276370" lon="148.4483815"/>
      <trkpt lat="-9.1275407" lon="148.4482551"/>
      <trkpt lat="-9.1274666" lon="148.4481606"/>
      <trkpt lat="-9.1274439" lon="148.4480854"/>
      <trkpt lat="-9.1274395" lon="148.4480649"/>
      <trkpt lat="-9.1274726" lon="148.4480486"/>
      <trkpt lat="-9.1274811" lon="148.4479982"/>
      <trkpt lat="-9.1274183" lon="148.4479501"/>
      <trkpt lat="-9.1272763" lon="148.4478982"/>
      <trkpt lat="-9.1271568" lon="148.4478337"/>
      <trkpt lat="-9.1270602" lon="148.4477442"/>
      <trkpt lat="-9.1270274" lon="148.4476185"/>
      <trkpt lat="-9.1269433" lon="148.4475215"/>
      <trkpt lat="-9.1268404" lon="148.4474405"/>
      <trkpt lat="-9.1267115" lon="148.4474328"/>
      <trkpt lat="-9.1266183" lon="148.4474717"/>
    </trkseg>
    <trkseg>
      <trkpt lat="-9.1242150" lon="148.4472067"/>
      <trkpt lat="-9.1243318" lon="148.4473112"/>
      <trkpt lat="-9.1244705" lon="148.4473973"/>
      <trkpt lat="-9.1246357" lon="148.4474532"/>
      <trkpt lat="-9.1247957" lon="148.4475316"/>
      <trkpt lat="-9.1249537" lon="148.4476071"/>
      <trkpt lat="-9.1251046" lon="148.4476968"/>
      <trkpt lat="-9.1252226" lon="148.4477196"/>
      <trkpt lat="-9.1252480" lon="148.4476810"/>
      <trkpt lat="-9.1252448" lon="148.4475978"/>
      <trkpt lat="-9.1252212" lon="148.4475504"/>
      <trkpt lat="-9.1251795" lon="148.4475331"/>
      <trkpt lat="-9.1251314" lon="148.4474934"/>
      <trkpt lat="-9.1251468" lon="148.4474449"/>
      <trkpt lat="-9.1252800" lon="148.4474041"/>
      <trkpt lat="-9.1254533" lon="148.4473995"/>
      <trkpt lat="-9.1256155" lon="148.4474366"/>
      <trkpt lat="-9.1257674" lon="148.4474912"/>
      <trkpt lat="-9.1259130" lon="148.4475303"/>
      <trkpt lat="-9.1260706" lon="148.4475352"/>
      <trkpt lat="-9.1262323" lon="148.4474942"/>
      <trkpt lat="-9.1263935" lon="148.4474817"/>
      <trkpt lat="-9.1264769" lon="148.4475018"/>
      <trkpt lat="-9.1264579" lon="148.4475824"/>
      <trkpt lat="-9.1263317" lon="148.4476673"/>
      <trkpt lat="-9.1261653" lon="148.4477308"/>
      <trkpt lat="-9.1259897" lon="148.4477553"/>
      <trkpt lat="-9.1258163" lon="148.4477703"/>
      <trkpt lat="-9.1256492" lon="148.4477989"/>
      <trkpt lat="-9.1254840" lon="148.4478482"/>
      <trkpt lat="-9.1253232" lon="148.4479222"/>
      <trkpt lat="-9.1251647" lon="148.4480023"/>
      <trkpt lat="-9.1250199" lon="148.4481097"/>
      <trkpt lat="-9.1248753" lon="148.4482157"/>
      <trkpt lat="-9.1247299" lon="148.4483191"/>
      <trkpt lat="-9.1245734" lon="148.4484055"/>
      <trkpt lat="-9.1244282" lon="148.4485061"/>
      <trkpt lat="-9.1242964" lon="148.4486234"/>
      <trkpt lat="-9.1241721" lon="148.4487490"/>
      <trkpt lat="-9.1240743" lon="148.4488869"/>
      <trkpt lat="-9.1239896" lon="148.4490320"/>
      <trkpt lat="-9.1239290" lon="148.4491997"/>
      <trkpt lat="-9.1238533" lon="148.4493637"/>
      <trkpt lat="-9.1237787" lon="148.4495284"/>
      <trkpt lat="-9.1237170" lon="148.4496969"/>
      <trkpt lat="-9.1236824" lon="148.4498722"/>
      <trkpt lat="-9.1236428" lon="148.4500318"/>
      <trkpt lat="-9.1235562" lon="148.4501482"/>
      <trkpt lat="-9.1234245" lon="148.4502424"/>
      <trkpt lat="-9.1232982" lon="148.4503323"/>
      <trkpt lat="-9.1231711" lon="148.4504070"/>
      <trkpt lat="-9.1230534" lon="148.4504779"/>
      <trkpt lat="-9.1229578" lon="148.4505332"/>
      <trkpt lat="-9.1228817" lon="148.4505633"/>
      <trkpt lat="-9.1228385" lon="148.4506021"/>
      <trkpt lat="-9.1227930" lon="148.4506816"/>
      <trkpt lat="-9.1228035" lon="148.4508418"/>
      <trkpt lat="-9.1228155" lon="148.4510197"/>
      <trkpt lat="-9.1228193" lon="148.4511964"/>
      <trkpt lat="-9.1227972" lon="148.4513762"/>
      <trkpt lat="-9.1227613" lon="148.4515527"/>
      <trkpt lat="-9.1226957" lon="148.4517114"/>
      <trkpt lat="-9.1226214" lon="148.4518656"/>
      <trkpt lat="-9.1225089" lon="148.4519873"/>
      <trkpt lat="-9.1223921" lon="148.4521063"/>
      <trkpt lat="-9.1222376" lon="148.4521925"/>
      <trkpt lat="-9.1220931" lon="148.4522946"/>
      <trkpt lat="-9.1219420" lon="148.4523748"/>
      <trkpt lat="-9.1218084" lon="148.4524792"/>
      <trkpt lat="-9.1216643" lon="148.4525661"/>
      <trkpt lat="-9.1215153" lon="148.4526564"/>
      <trkpt lat="-9.1213444" lon="148.4527042"/>
      <trkpt lat="-9.1211896" lon="148.4527422"/>
      <trkpt lat="-9.1210819" lon="148.4528193"/>
      <trkpt lat="-9.1209949" lon="148.4529342"/>
      <trkpt lat="-9.1208880" lon="148.4530463"/>
      <trkpt lat="-9.1207305" lon="148.4530969"/>
      <trkpt lat="-9.1205685" lon="148.4531111"/>
      <trkpt lat="-9.1204337" lon="148.4531619"/>
      <trkpt lat="-9.1203018" lon="148.4532191"/>
      <trkpt lat="-9.1201606" lon="148.4532923"/>
      <trkpt lat="-9.1199961" lon="148.4532953"/>
      <trkpt lat="-9.1198301" lon="148.4532891"/>
      <trkpt lat="-9.1196604" lon="148.4532795"/>
      <trkpt lat="-9.1194869" lon="148.4532833"/>
      <trkpt lat="-9.1193186" lon="148.4532877"/>
      <trkpt lat="-9.1191479" lon="148.4532744"/>
      <trkpt lat="-9.1189784" lon="148.4532870"/>
      <trkpt lat="-9.1188030" lon="148.4532994"/>
      <trkpt lat="-9.1186255" lon="148.4533127"/>
      <trkpt lat="-9.1184519" lon="148.4533316"/>
      <trkpt lat="-9.1182801" lon="148.4533714"/>
      <trkpt lat="-9.1181093" lon="148.4534145"/>
      <trkpt lat="-9.1179389" lon="148.4534551"/>
      <trkpt lat="-9.1177670" lon="148.4534827"/>
      <trkpt lat="-9.1175964" lon="148.4535158"/>
      <trkpt lat="-9.1174345" lon="148.4535704"/>
      <trkpt lat="-9.1172780" lon="148.4536455"/>
      <trkpt lat="-9.1171195" lon="148.4537056"/>
      <trkpt lat="-9.1169467" lon="148.4537280"/>
      <trkpt lat="-9.1167726" lon="148.4537507"/>
      <trkpt lat="-9.1166012" lon="148.4537856"/>
      <trkpt lat="-9.1164419" lon="148.4537833"/>
      <trkpt lat="-9.1163462" lon="148.4536979"/>
      <trkpt lat="-9.1162814" lon="148.4536194"/>
      <trkpt lat="-9.1162717" lon="148.4535544"/>
      <trkpt lat="-9.1162300" lon="148.4535091"/>
      <trkpt lat="-9.1161558" lon="148.4534599"/>
      <trkpt lat="-9.1160140" lon="148.4534417"/>
      <trkpt lat="-9.1158361" lon="148.4534702"/>
      <trkpt lat="-9.1157527" lon="148.4534454"/>
      <trkpt lat="-9.1156838" lon="148.4534215"/>
      <trkpt lat="-9.1156150" lon="148.4533964"/>
      <trkpt lat="-9.1154540" lon="148.4534332"/>
      <trkpt lat="-9.1153197" lon="148.4535055"/>
      <trkpt lat="-9.1151872" lon="148.4535609"/>
      <trkpt lat="-9.1150606" lon="148.4536272"/>
      <trkpt lat="-9.1149320" lon="148.4536908"/>
      <trkpt lat="-9.1148047" lon="148.4537838"/>
      <trkpt lat="-9.1146948" lon="148.4538277"/>
      <trkpt lat="-9.1146191" lon="148.4537950"/>
      <trkpt lat="-9.1145893" lon="148.4537542"/>
      <trkpt lat="-9.1145426" lon="148.4537659"/>
      <trkpt lat="-9.1144274" lon="148.4538356"/>
      <trkpt lat="-9.1142728" lon="148.4539255"/>
      <trkpt lat="-9.1141139" lon="148.4540025"/>
      <trkpt lat="-9.1139875" lon="148.4541036"/>
      <trkpt lat="-9.1138742" lon="148.4542211"/>
      <trkpt lat="-9.1137619" lon="148.4543451"/>
      <trkpt lat="-9.1136115" lon="148.4544247"/>
      <trkpt lat="-9.1134535" lon="148.4544898"/>
      <trkpt lat="-9.1133180" lon="148.4545790"/>
      <trkpt lat="-9.1132084" lon="148.4547053"/>
      <trkpt lat="-9.1131534" lon="148.4547801"/>
      <trkpt lat="-9.1131851" lon="148.4548160"/>
      <trkpt lat="-9.1132821" lon="148.4548606"/>
      <trkpt lat="-9.1133925" lon="148.4549792"/>
      <trkpt lat="-9.1134899" lon="148.4551269"/>
      <trkpt lat="-9.1136020" lon="148.4552623"/>
      <trkpt lat="-9.1137193" lon="148.4553924"/>
      <trkpt lat="-9.1138463" lon="148.4555014"/>
      <trkpt lat="-9.1139868" lon="148.4555757"/>
      <trkpt lat="-9.1141592" lon="148.4556007"/>
      <trkpt lat="-9.1143357" lon="148.4556254"/>
      <trkpt lat="-9.1145111" lon="148.4556592"/>
      <trkpt lat="-9.1146860" lon="148.4556978"/>
      <trkpt lat="-9.1148611" lon="148.4557366"/>
      <trkpt lat="-9.1150346" lon="148.4557812"/>
      <trkpt lat="-9.1152049" lon="148.4558411"/>
      <trkpt lat="-9.1153560" lon="148.4559212"/>
      <trkpt lat="-9.1154019" lon="148.4560063"/>
      <trkpt lat="-9.1153442" lon="148.4560928"/>
      <trkpt lat="-9.1152176" lon="148.4561886"/>
      <trkpt lat="-9.1150939" lon="148.4563004"/>
      <trkpt lat="-9.1149730" lon="148.4564309"/>
      <trkpt lat="-9.1148291" lon="148.4565365"/>
      <trkpt lat="-9.1146837" lon="148.4566405"/>
      <trkpt lat="-9.1145379" lon="148.4567437"/>
      <trkpt lat="-9.1143926" lon="148.4568460"/>
      <trkpt lat="-9.1142358" lon="148.4569249"/>
      <trkpt lat="-9.1140681" lon="148.4569823"/>
      <trkpt lat="-9.1139133" lon="148.4570594"/>
      <trkpt lat="-9.1137746" lon="148.4571648"/>
      <trkpt lat="-9.1136358" lon="148.4572658"/>
      <trkpt lat="-9.1135308" lon="148.4573523"/>
      <trkpt lat="-9.1134316" lon="148.4574385"/>
      <trkpt lat="-9.1133436" lon="148.4575506"/>
      <trkpt lat="-9.1132206" lon="148.4576762"/>
      <trkpt lat="-9.1130934" lon="148.4578041"/>
      <trkpt lat="-9.1129560" lon="148.4579101"/>
      <trkpt lat="-9.1128043" lon="148.4579869"/>
      <trkpt lat="-9.1126398" lon="148.4580426"/>
      <trkpt lat="-9.1124773" lon="148.4581026"/>
      <trkpt lat="-9.1123317" lon="148.4581939"/>
      <trkpt lat="-9.1122151" lon="148.4583159"/>
      <trkpt lat="-9.1121785" lon="148.4584534"/>
      <trkpt lat="-9.1122208" lon="148.4585832"/>
      <trkpt lat="-9.1122787" lon="148.4587184"/>
      <trkpt lat="-9.1123090" lon="148.4588631"/>
      <trkpt lat="-9.1123000" lon="148.4590183"/>
    </trkseg>
    <trkseg>
      <trkpt lat="-9.1119983" lon="148.4589683"/>
      <trkpt lat="-9.1121430" lon="148.4589906"/>
      <trkpt lat="-9.1121799" lon="148.4590295"/>
      <trkpt lat="-9.1120986" lon="148.4590705"/>
      <trkpt lat="-9.1119562" lon="148.4591475"/>
      <trkpt lat="-9.1118431" lon="148.4592121"/>
      <trkpt lat="-9.1117495" lon="148.4592980"/>
      <trkpt lat="-9.1116449" lon="148.4593777"/>
      <trkpt lat="-9.1115044" lon="148.4594704"/>
      <trkpt lat="-9.1113449" lon="148.4595495"/>
      <trkpt lat="-9.1111860" lon="148.4596284"/>
      <trkpt lat="-9.1110447" lon="148.4597286"/>
      <trkpt lat="-9.1109090" lon="148.4598319"/>
      <trkpt lat="-9.1107607" lon="148.4598932"/>
      <trkpt lat="-9.1105951" lon="148.4599003"/>
      <trkpt lat="-9.1104342" lon="148.4599235"/>
      <trkpt lat="-9.1102804" lon="148.4599556"/>
      <trkpt lat="-9.1101264" lon="148.4599710"/>
      <trkpt lat="-9.1099682" lon="148.4599638"/>
      <trkpt lat="-9.1098552" lon="148.4600082"/>
      <trkpt lat="-9.1097639" lon="148.4601184"/>
      <trkpt lat="-9.1096720" lon="148.4602450"/>
      <trkpt lat="-9.1095859" lon="148.4603145"/>
      <trkpt lat="-9.1095041" lon="148.4603921"/>
      <trkpt lat="-9.1094872" lon="148.4604981"/>
      <trkpt lat="-9.1094676" lon="148.4606645"/>
      <trkpt lat="-9.1094522" lon="148.4608364"/>
      <trkpt lat="-9.1093837" lon="148.4609944"/>
      <trkpt lat="-9.1092627" lon="148.4611123"/>
      <trkpt lat="-9.1091067" lon="148.4611683"/>
      <trkpt lat="-9.1089332" lon="148.4611932"/>
      <trkpt lat="-9.1087568" lon="148.4611962"/>
      <trkpt lat="-9.1086079" lon="148.4612481"/>
      <trkpt lat="-9.1085297" lon="148.4613449"/>
      <trkpt lat="-9.1084858" lon="148.4614992"/>
      <trkpt lat="-9.1084325" lon="148.4616263"/>
      <trkpt lat="-9.1083397" lon="148.4617332"/>
      <trkpt lat="-9.1082147" lon="148.4617856"/>
      <trkpt lat="-9.1080764" lon="148.4618436"/>
      <trkpt lat="-9.1079294" lon="148.4619118"/>
      <trkpt lat="-9.1077913" lon="148.4620166"/>
      <trkpt lat="-9.1076702" lon="148.4621388"/>
      <trkpt lat="-9.1075698" lon="148.4622680"/>
      <trkpt lat="-9.1074653" lon="148.4623673"/>
      <trkpt lat="-9.1073441" lon="148.4624487"/>
      <trkpt lat="-9.1071844" lon="148.4625016"/>
      <trkpt lat="-9.1070482" lon="148.4625958"/>
      <trkpt lat="-9.1069267" lon="148.4627161"/>
      <trkpt lat="-9.1068057" lon="148.4628354"/>
      <trkpt lat="-9.1066650" lon="148.4629417"/>
      <trkpt lat="-9.1065081" lon="148.4630075"/>
      <trkpt lat="-9.1063451" lon="148.4630417"/>
      <trkpt lat="-9.1061722" lon="148.4630239"/>
      <trkpt lat="-9.1059963" lon="148.4630027"/>
      <trkpt lat="-9.1058254" lon="148.4629639"/>
      <trkpt lat="-9.1056824" lon="148.4628952"/>
      <trkpt lat="-9.1055773" lon="148.4627684"/>
      <trkpt lat="-9.1055015" lon="148.4626109"/>
      <trkpt lat="-9.1054041" lon="148.4624719"/>
      <trkpt lat="-9.1052743" lon="148.4623711"/>
      <trkpt lat="-9.1051149" lon="148.4623514"/>
      <trkpt lat="-9.1049560" lon="148.4623915"/>
      <trkpt lat="-9.1048044" lon="148.4624872"/>
      <trkpt lat="-9.1046531" lon="148.4625632"/>
      <trkpt lat="-9.1044945" lon="148.4626030"/>
      <trkpt lat="-9.1043555" lon="148.4625651"/>
      <trkpt lat="-9.1042114" lon="148.4625100"/>
      <trkpt lat="-9.1040724" lon="148.4624321"/>
      <trkpt lat="-9.1039055" lon="148.4623755"/>
      <trkpt lat="-9.1037416" lon="148.4623193"/>
      <trkpt lat="-9.1035773" lon="148.4623176"/>
      <trkpt lat="-9.1034323" lon="148.4623788"/>
      <trkpt lat="-9.1032942" lon="148.4624551"/>
      <trkpt lat="-9.1031617" lon="148.4624718"/>
      <trkpt lat="-9.1030913" lon="148.4624405"/>
      <trkpt lat="-9.1030411" lon="148.4623771"/>
      <trkpt lat="-9.1029896" lon="148.4623133"/>
      <trkpt lat="-9.1028845" lon="148.4622965"/>
      <trkpt lat="-9.1027731" lon="148.4623391"/>
      <trkpt lat="-9.1026638" lon="148.4624490"/>
      <trkpt lat="-9.1025219" lon="148.4625106"/>
      <trkpt lat="-9.1023821" lon="148.4625787"/>
      <trkpt lat="-9.1022663" lon="148.4626200"/>
      <trkpt lat="-9.1021664" lon="148.4626430"/>
      <trkpt lat="-9.1020494" lon="148.4626126"/>
      <trkpt lat="-9.1019213" lon="148.4625252"/>
      <trkpt lat="-9.1017905" lon="148.4624234"/>
      <trkpt lat="-9.1016620" lon="148.4622989"/>
      <trkpt lat="-9.1015097" lon="148.4622093"/>
      <trkpt lat="-9.1013759" lon="148.4621130"/>
      <trkpt lat="-9.1012936" lon="148.4620590"/>
      <trkpt lat="-9.1012743" lon="148.4620451"/>
      <trkpt lat="-9.1012950" lon="148.4621331"/>
      <trkpt lat="-9.1013270" lon="148.4622257"/>
      <trkpt lat="-9.1013365" lon="148.4622347"/>
      <trkpt lat="-9.1012845" lon="148.4621601"/>
      <trkpt lat="-9.1011730" lon="148.4621110"/>
      <trkpt lat="-9.1010370" lon="148.4621625"/>
      <trkpt lat="-9.1009131" lon="148.4622826"/>
      <trkpt lat="-9.1008269" lon="148.4624273"/>
      <trkpt lat="-9.1007695" lon="148.4625877"/>
      <trkpt lat="-9.1007233" lon="148.4626975"/>
      <trkpt lat="-9.1006801" lon="148.4628045"/>
      <trkpt lat="-9.1005969" lon="148.4628818"/>
      <trkpt lat="-9.1005401" lon="148.4629609"/>
      <trkpt lat="-9.1005422" lon="148.4629598"/>
      <trkpt lat="-9.1006155" lon="148.4628724"/>
      <trkpt lat="-9.1006929" lon="148.4627322"/>
      <trkpt lat="-9.1007336" lon="148.4625575"/>
      <trkpt lat="-9.1007987" lon="148.4624003"/>
      <trkpt lat="-9.1009046" lon="148.4622625"/>
      <trkpt lat="-9.1010391" lon="148.4621483"/>
      <trkpt lat="-9.1011680" lon="148.4620652"/>
      <trkpt lat="-9.1012496" lon="148.4620498"/>
      <trkpt lat="-9.1012782" lon="148.4620331"/>
      <trkpt lat="-9.1012098" lon="148.4620211"/>
      <trkpt lat="-9.1010883" lon="148.4619643"/>
      <trkpt lat="-9.1009143" lon="148.4619578"/>
      <trkpt lat="-9.1007850" lon="148.4619751"/>
      <trkpt lat="-9.1006546" lon="148.4620077"/>
      <trkpt lat="-9.1005327" lon="148.4620299"/>
      <trkpt lat="-9.1003874" lon="148.4619881"/>
      <trkpt lat="-9.1002427" lon="148.4619541"/>
      <trkpt lat="-9.1001443" lon="148.4619757"/>
      <trkpt lat="-9.1000889" lon="148.4621013"/>
      <trkpt lat="-9.1001052" lon="148.4622795"/>
      <trkpt lat="-9.1001140" lon="148.4624553"/>
      <trkpt lat="-9.1001077" lon="148.4626308"/>
      <trkpt lat="-9.1000883" lon="148.4628078"/>
      <trkpt lat="-9.1000836" lon="148.4629867"/>
      <trkpt lat="-9.1001300" lon="148.4631430"/>
      <trkpt lat="-9.1002106" lon="148.4632868"/>
      <trkpt lat="-9.1003233" lon="148.4634177"/>
      <trkpt lat="-9.1004295" lon="148.4635603"/>
      <trkpt lat="-9.1005296" lon="148.4637076"/>
      <trkpt lat="-9.1006055" lon="148.4638629"/>
      <trkpt lat="-9.1006292" lon="148.4640269"/>
      <trkpt lat="-9.1005862" lon="148.4641850"/>
      <trkpt lat="-9.1004990" lon="148.4643315"/>
      <trkpt lat="-9.1004161" lon="148.4644436"/>
      <trkpt lat="-9.1003846" lon="148.4645614"/>
      <trkpt lat="-9.1003560" lon="148.4646882"/>
      <trkpt lat="-9.1003255" lon="148.4648453"/>
      <trkpt lat="-9.1002986" lon="148.4649827"/>
      <trkpt lat="-9.1002677" lon="148.4651153"/>
      <trkpt lat="-9.1002173" lon="148.4652439"/>
      <trkpt lat="-9.1001038" lon="148.4653795"/>
      <trkpt lat="-9.1000029" lon="148.4654917"/>
      <trkpt lat="-9.0999161" lon="148.4656072"/>
      <trkpt lat="-9.0998754" lon="148.4657398"/>
      <trkpt lat="-9.0998476" lon="148.4659004"/>
      <trkpt lat="-9.0998624" lon="148.4660640"/>
      <trkpt lat="-9.0998885" lon="148.4662246"/>
      <trkpt lat="-9.0999131" lon="148.4663898"/>
      <trkpt lat="-9.0999016" lon="148.4665572"/>
      <trkpt lat="-9.0998618" lon="148.4667149"/>
      <trkpt lat="-9.0998098" lon="148.4668523"/>
      <trkpt lat="-9.0997362" lon="148.4669709"/>
      <trkpt lat="-9.0996411" lon="148.4670941"/>
      <trkpt lat="-9.0995396" lon="148.4672115"/>
      <trkpt lat="-9.0994424" lon="148.4673298"/>
      <trkpt lat="-9.0993669" lon="148.4674587"/>
      <trkpt lat="-9.0993160" lon="148.4676171"/>
      <trkpt lat="-9.0992727" lon="148.4677887"/>
      <trkpt lat="-9.0992096" lon="148.4679511"/>
      <trkpt lat="-9.0991102" lon="148.4680953"/>
      <trkpt lat="-9.0989949" lon="148.4682286"/>
      <trkpt lat="-9.0988663" lon="148.4683266"/>
      <trkpt lat="-9.0987356" lon="148.4684234"/>
      <trkpt lat="-9.0986018" lon="148.4685152"/>
      <trkpt lat="-9.0985049" lon="148.4686476"/>
      <trkpt lat="-9.0983947" lon="148.4687553"/>
      <trkpt lat="-9.0982687" lon="148.4688292"/>
      <trkpt lat="-9.0980936" lon="148.4688435"/>
      <trkpt lat="-9.0979152" lon="148.4688346"/>
      <trkpt lat="-9.0977354" lon="148.4688201"/>
      <trkpt lat="-9.0975555" lon="148.4688086"/>
      <trkpt lat="-9.0973756" lon="148.4688020"/>
      <trkpt lat="-9.0972012" lon="148.4688175"/>
      <trkpt lat="-9.0970273" lon="148.4688437"/>
      <trkpt lat="-9.0968552" lon="148.4688862"/>
      <trkpt lat="-9.0966887" lon="148.4689292"/>
      <trkpt lat="-9.0965219" lon="148.4689553"/>
      <trkpt lat="-9.0963698" lon="148.4690077"/>
      <trkpt lat="-9.0962249" lon="148.4690835"/>
      <trkpt lat="-9.0961009" lon="148.4692134"/>
      <trkpt lat="-9.0959866" lon="148.4693528"/>
      <trkpt lat="-9.0958607" lon="148.4694753"/>
      <trkpt lat="-9.0957203" lon="148.4695529"/>
      <trkpt lat="-9.0955597" lon="148.4695573"/>
      <trkpt lat="-9.0953956" lon="148.4695160"/>
      <trkpt lat="-9.0952248" lon="148.4694723"/>
      <trkpt lat="-9.0950482" lon="148.4694490"/>
      <trkpt lat="-9.0948707" lon="148.4694589"/>
      <trkpt lat="-9.0946982" lon="148.4694941"/>
      <trkpt lat="-9.0945279" lon="148.4695505"/>
      <trkpt lat="-9.0943564" lon="148.4696026"/>
      <trkpt lat="-9.0941940" lon="148.4696323"/>
      <trkpt lat="-9.0940603" lon="148.4696412"/>
      <trkpt lat="-9.0939275" lon="148.4696552"/>
      <trkpt lat="-9.0937834" lon="148.4696848"/>
      <trkpt lat="-9.0936086" lon="148.4697156"/>
      <trkpt lat="-9.0934643" lon="148.4696789"/>
      <trkpt lat="-9.0933363" lon="148.4695859"/>
      <trkpt lat="-9.0932195" lon="148.4694715"/>
      <trkpt lat="-9.0930787" lon="148.4693911"/>
      <trkpt lat="-9.0929421" lon="148.4693157"/>
      <trkpt lat="-9.0927957" lon="148.4692739"/>
      <trkpt lat="-9.0926558" lon="148.4692311"/>
      <trkpt lat="-9.0924936" lon="148.4692306"/>
      <trkpt lat="-9.0923302" lon="148.4692142"/>
      <trkpt lat="-9.0921688" lon="148.4691768"/>
      <trkpt lat="-9.0920107" lon="148.4691133"/>
      <trkpt lat="-9.0918570" lon="148.4690321"/>
      <trkpt lat="-9.0917053" lon="148.4689502"/>
      <trkpt lat="-9.0915625" lon="148.4688492"/>
      <trkpt lat="-9.0914199" lon="148.4687468"/>
      <trkpt lat="-9.0912600" lon="148.4686695"/>
      <trkpt lat="-9.0911029" lon="148.4685906"/>
      <trkpt lat="-9.0909619" lon="148.4684907"/>
      <trkpt lat="-9.0908332" lon="148.4683726"/>
      <trkpt lat="-9.0906954" lon="148.4682718"/>
      <trkpt lat="-9.0905528" lon="148.4681741"/>
      <trkpt lat="-9.0904033" lon="148.4680820"/>
      <trkpt lat="-9.0902629" lon="148.4679726"/>
      <trkpt lat="-9.0901356" lon="148.4678545"/>
      <trkpt lat="-9.0900122" lon="148.4677298"/>
      <trkpt lat="-9.0898917" lon="148.4676008"/>
      <trkpt lat="-9.0897549" lon="148.4674849"/>
      <trkpt lat="-9.0896265" lon="148.4673623"/>
      <trkpt lat="-9.0895066" lon="148.4672358"/>
      <trkpt lat="-9.0893829" lon="148.4671145"/>
      <trkpt lat="-9.0892979" lon="148.4670165"/>
      <trkpt lat="-9.0892381" lon="148.4669844"/>
      <trkpt lat="-9.0891932" lon="148.4669883"/>
      <trkpt lat="-9.0890923" lon="148.4669935"/>
      <trkpt lat="-9.0889418" lon="148.4669745"/>
      <trkpt lat="-9.0887679" lon="148.4669386"/>
      <trkpt lat="-9.0885955" lon="148.4669404"/>
      <trkpt lat="-9.0884339" lon="148.4669858"/>
      <trkpt lat="-9.0882768" lon="148.4670539"/>
      <trkpt lat="-9.0881192" lon="148.4671070"/>
      <trkpt lat="-9.0879485" lon="148.4671184"/>
      <trkpt lat="-9.0877742" lon="148.4671060"/>
      <trkpt lat="-9.0876070" lon="148.4670726"/>
      <trkpt lat="-9.0874500" lon="148.4670267"/>
    </trkseg>
    <trkseg>
      <trkpt lat="-9.1134083" lon="148.4548517"/>
      <trkpt lat="-9.1133395" lon="148.4548248"/>
      <trkpt lat="-9.1133246" lon="148.4548103"/>
      <trkpt lat="-9.1133114" lon="148.4548036"/>
      <trkpt lat="-9.1131976" lon="148.4548246"/>
      <trkpt lat="-9.1130967" lon="148.4548373"/>
      <trkpt lat="-9.1130629" lon="148.4548603"/>
      <trkpt lat="-9.1130291" lon="148.4548390"/>
      <trkpt lat="-9.1129514" lon="148.4547758"/>
      <trkpt lat="-9.1128122" lon="148.4546727"/>
      <trkpt lat="-9.1126715" lon="148.4546022"/>
      <trkpt lat="-9.1125117" lon="148.4546008"/>
      <trkpt lat="-9.1123479" lon="148.4546521"/>
      <trkpt lat="-9.1122000" lon="148.4547276"/>
      <trkpt lat="-9.1120644" lon="148.4548157"/>
      <trkpt lat="-9.1119330" lon="148.4549046"/>
      <trkpt lat="-9.1117809" lon="148.4549648"/>
      <trkpt lat="-9.1116111" lon="148.4549823"/>
      <trkpt lat="-9.1114314" lon="148.4549783"/>
      <trkpt lat="-9.1112549" lon="148.4549575"/>
      <trkpt lat="-9.1110857" lon="148.4549192"/>
      <trkpt lat="-9.1109203" lon="148.4548702"/>
      <trkpt lat="-9.1107698" lon="148.4548418"/>
      <trkpt lat="-9.1106535" lon="148.4548130"/>
      <trkpt lat="-9.1106447" lon="148.4548220"/>
      <trkpt lat="-9.1106727" lon="148.4548053"/>
      <trkpt lat="-9.1106810" lon="148.4547678"/>
      <trkpt lat="-9.1105864" lon="148.4546704"/>
      <trkpt lat="-9.1104406" lon="148.4545729"/>
      <trkpt lat="-9.1102768" lon="148.4545071"/>
      <trkpt lat="-9.1101074" lon="148.4544893"/>
      <trkpt lat="-9.1099413" lon="148.4545223"/>
      <trkpt lat="-9.1097726" lon="148.4545777"/>
      <trkpt lat="-9.1096045" lon="148.4545963"/>
      <trkpt lat="-9.1094314" lon="148.4545929"/>
      <trkpt lat="-9.1092593" lon="148.4545961"/>
      <trkpt lat="-9.1090903" lon="148.4546456"/>
      <trkpt lat="-9.1089249" lon="148.4547044"/>
      <trkpt lat="-9.1087672" lon="148.4547397"/>
      <trkpt lat="-9.1086075" lon="148.4547281"/>
      <trkpt lat="-9.1084428" lon="148.4547053"/>
      <trkpt lat="-9.1082699" lon="148.4546989"/>
      <trkpt lat="-9.1081039" lon="148.4546778"/>
      <trkpt lat="-9.1079686" lon="148.4546228"/>
      <trkpt lat="-9.1078826" lon="148.4545599"/>
      <trkpt lat="-9.1078277" lon="148.4545599"/>
      <trkpt lat="-9.1077935" lon="148.4545845"/>
      <trkpt lat="-9.1078233" lon="148.4546332"/>
      <trkpt lat="-9.1078627" lon="148.4546442"/>
      <trkpt lat="-9.1078943" lon="148.4546691"/>
      <trkpt lat="-9.1078845" lon="148.4546232"/>
      <trkpt lat="-9.1078964" lon="148.4546050"/>
      <trkpt lat="-9.1079167" lon="148.4545779"/>
      <trkpt lat="-9.1079665" lon="148.4545629"/>
      <trkpt lat="-9.1080047" lon="148.4544692"/>
      <trkpt lat="-9.1080873" lon="148.4543280"/>
      <trkpt lat="-9.1081834" lon="148.4542032"/>
      <trkpt lat="-9.1083028" lon="148.4540841"/>
      <trkpt lat="-9.1083851" lon="148.4539534"/>
      <trkpt lat="-9.1084208" lon="148.4537864"/>
      <trkpt lat="-9.1083908" lon="148.4536325"/>
      <trkpt lat="-9.1083235" lon="148.4534931"/>
      <trkpt lat="-9.1082206" lon="148.4533534"/>
      <trkpt lat="-9.1081781" lon="148.4532017"/>
      <trkpt lat="-9.1081493" lon="148.4530441"/>
      <trkpt lat="-9.1081349" lon="148.4528823"/>
      <trkpt lat="-9.1080811" lon="148.4527187"/>
      <trkpt lat="-9.1080888" lon="148.4525600"/>
      <trkpt lat="-9.1081517" lon="148.4524187"/>
      <trkpt lat="-9.1082602" lon="148.4522813"/>
      <trkpt lat="-9.1083585" lon="148.4521431"/>
      <trkpt lat="-9.1084568" lon="148.4520052"/>
      <trkpt lat="-9.1085754" lon="148.4518794"/>
      <trkpt lat="-9.1087211" lon="148.4517812"/>
      <trkpt lat="-9.1088806" lon="148.4517111"/>
      <trkpt lat="-9.1090272" lon="148.4516461"/>
      <trkpt lat="-9.1091662" lon="148.4515728"/>
      <trkpt lat="-9.1092948" lon="148.4514804"/>
      <trkpt lat="-9.1094215" lon="148.4514597"/>
      <trkpt lat="-9.1095543" lon="148.4514919"/>
      <trkpt lat="-9.1096973" lon="148.4515519"/>
      <trkpt lat="-9.1098603" lon="148.4515452"/>
      <trkpt lat="-9.1100140" lon="148.4514778"/>
      <trkpt lat="-9.1101685" lon="148.4514113"/>
      <trkpt lat="-9.1103305" lon="148.4513612"/>
      <trkpt lat="-9.1105038" lon="148.4513650"/>
      <trkpt lat="-9.1106520" lon="148.4513290"/>
      <trkpt lat="-9.1107436" lon="148.4512502"/>
      <trkpt lat="-9.1107371" lon="148.4511082"/>
      <trkpt lat="-9.1106807" lon="148.4509608"/>
      <trkpt lat="-9.1106134" lon="148.4508433"/>
      <trkpt lat="-9.1106221" lon="148.4507579"/>
      <trkpt lat="-9.1106485" lon="148.4507689"/>
      <trkpt lat="-9.1106987" lon="148.4507698"/>
      <trkpt lat="-9.1106753" lon="148.4507972"/>
      <trkpt lat="-9.1106802" lon="148.4507769"/>
      <trkpt lat="-9.1106840" lon="148.4508115"/>
      <trkpt lat="-9.1107335" lon="148.4507889"/>
      <trkpt lat="-9.1107927" lon="148.4507202"/>
      <trkpt lat="-9.1108844" lon="148.4505945"/>
      <trkpt lat="-9.1109693" lon="148.4505130"/>
      <trkpt lat="-9.1110006" lon="148.4504648"/>
      <trkpt lat="-9.1109937" lon="148.4504670"/>
      <trkpt lat="-9.1110173" lon="148.4504157"/>
      <trkpt lat="-9.1110558" lon="148.4503176"/>
      <trkpt lat="-9.1111068" lon="148.4501514"/>
      <trkpt lat="-9.1111686" lon="148.4499912"/>
      <trkpt lat="-9.1112434" lon="148.4498336"/>
      <trkpt lat="-9.1113374" lon="148.4496986"/>
      <trkpt lat="-9.1114424" lon="148.4496334"/>
      <trkpt lat="-9.1115874" lon="148.4496057"/>
      <trkpt lat="-9.1117330" lon="148.4495665"/>
      <trkpt lat="-9.1118700" lon="148.4494601"/>
      <trkpt lat="-9.1119694" lon="148.4493330"/>
      <trkpt lat="-9.1120433" lon="148.4492100"/>
    </trkseg>
  </trk>
</gpx>
